OBJECTID,SchoolId,EfClass,Tract,YearBuilt,NumStories,Cost,Area,Latitude,Longitude,HUSBT,SO,Name,Address,City,Zipcode,Statea,Contact,PhoneNumber,NumStudents,BackupPower,ShelterCapacity,District,Kitchen
64,HI000347,EFS1,15003940001,1965,2,3596.1,11987,21.32811,-157.6952,MERBL,EDU1,Blanche Pope El - Bldg A,41-133 Huli St ,Waimanalo,96795,HI,NULL,NULL,NULL,NULL,NULL,NULL,NULL
65,HI000348,EFS1,15003940001,1969,2,3402,11340,21.32811,-157.6952,MERBL,EDU1,Blanche Pope El - Bldg B,41-133 Huli St ,Waimanalo,96795,HI,NULL,NULL,NULL,NULL,NULL,NULL,NULL
66,HI000349,EFS1,15003940001,1975,2,4614.9,15383,21.32811,-157.6952,MERBL,EDU1,Blanche Pope Elementary - Bldg C,41-133 Huli St ,Waimanalo,96795,HI,NULL,NULL,NULL,NULL,NULL,NULL,NULL
69,HI000394,EFS1,15003008617,1990,1,2890.2,9634,21.3345,-158.03469,MERBL,EDU1,Ewa Elementary - Bldg L,91-1280 Renton Rd,Ewa Beach,96706,HI,NULL,NULL,NULL,NULL,NULL,NULL,NULL
70,HI000395,EFS1,15003008617,1994,2,2890.2,9634,21.3445,-158.03469,MERBL,EDU1,Ewa Elementary - Bldg M,91-1280 Renton Rd,Ewa Beach,96706,HI,NULL,NULL,NULL,NULL,NULL,NULL,NULL
83,HI000410,EFS1,15003010507,1960,1,4022.4,13408,21.41825,-157.80859,MERBL,EDU1,Heeia Elementary - Bldg B,46-202 Haiku Rd,Kaneohe,96744,HI,NULL,NULL,NULL,NULL,NULL,NULL,NULL
84,HI000411,EFS1,15003010507,1961,1,4022.4,13408,21.41825,-157.80859,MERBL,EDU1,Heeia Elementary - Bldg C,46-202 Haiku Rd,Kaneohe,96744,HI,NULL,NULL,NULL,NULL,NULL,NULL,NULL
85,HI000412,EFS1,15003010507,1971,1,1411.5,4705,21.41825,-157.80859,MERBL,EDU1,Heeia Elementary - Bldg F,46-202 Haiku Rd,Kaneohe,96744,HI,NULL,NULL,NULL,NULL,NULL,NULL,NULL
88,HI000426,EFS1,15003007302,1950,1,2334,7780,21.34249,-157.96369,MERBL,EDU1,Hickam Elementary - Bldg C,Manzelman St,Hickam AFB ,96853,HI,NULL,NULL,NULL,NULL,NULL,NULL,NULL
89,HI000427,EFS1,15003007302,1950,1,621,2070,21.34249,-157.96369,MERBL,EDU1,Hickam Elementary - Bldg E,Manzelman St,Hickam AFB ,96853,HI,NULL,NULL,NULL,NULL,NULL,NULL,NULL
90,HI000420,EFS1,15003007302,1950,1,1224.3,4081,21.34249,-157.96369,MERBL,EDU1,Hickam Elementary - Bldg F,Manzelman St,Hickam AFB ,96853,HI,NULL,NULL,NULL,NULL,NULL,NULL,NULL
91,HI000422,EFS1,15003007302,1950,1,1426.8,4756,21.34249,-157.96369,MERBL,EDU1,Hickam Elementary - Bldg H,Manzelman St,Hickam AFB ,96853,HI,NULL,NULL,NULL,NULL,NULL,NULL,NULL
92,HI000423,EFS1,15003007302,1950,1,775.8,2586,21.34249,-157.96369,MERBL,EDU1,Hickam Elementary - Bldg I,Manzelman St,Hickam AFB ,96853,HI,NULL,NULL,NULL,NULL,NULL,NULL,NULL
93,HI000424,EFS1,15003007302,1965,2,3396,11320,21.34249,-157.96369,MERBL,EDU1,Hickam Elementary - Bldg K,Manzelman St,Hickam AFB ,96853,HI,NULL,NULL,NULL,NULL,NULL,NULL,NULL
101,HI000471,EFS1,15003001804,1973,1,1429.2,4764,21.27326,-157.81828,MERBL,EDU1,Jefferson Elementary - Bldg N,324 Kapahulu Ave,Honolulu,96815,HI,NULL,NULL,NULL,NULL,NULL,NULL,NULL
102,HI000472,EFS1,15003001804,1973,1,1429.2,4764,21.27326,-157.81828,MERBL,EDU1,Jefferson Elementary - Bldg O,324 Kapahulu Ave,Honolulu,96815,HI,NULL,NULL,NULL,NULL,NULL,NULL,NULL
103,HI000473,EFS1,15003001804,1973,1,3014.4,10048,21.27326,-157.81828,MERBL,EDU1,Jefferson Elementary - Bldg Q,324 Kapahulu Ave,Honolulu,96815,HI,NULL,NULL,NULL,NULL,NULL,NULL,NULL
104,HI000475,EFS1,15003003501,1967,1,2384.4,7948,21.30211,-157.84376,MERBL,EDU1,Kaahumanu Elementary - Bldg C,1141 Kinau St,Honolulu,96814,HI,NULL,NULL,NULL,NULL,NULL,NULL,NULL
142,HI000559,EFS1,15003000112,1971,3,6309,21030,21.28478,-157.696,MERBL,EDU1,Kaiser High - Bldg A,511 Lunalilo Home Rd,Honolulu,96825,HI,NULL,NULL,NULL,NULL,NULL,NULL,NULL
143,HI000561,EFS1,15003000112,1972,3,3753.9,12513,21.28478,-157.696,MERBL,EDU1,Kaiser High - Bldg C,511 Lunalilo Home Rd,Honolulu,96825,HI,NULL,NULL,NULL,NULL,NULL,NULL,NULL
144,HI000562,EFS1,15003000112,1972,3,1662.3,5541,21.28478,-157.696,MERBL,EDU1,Kaiser High - Bldg E,511 Lunalilo Home Rd,Honolulu,96825,HI,NULL,NULL,NULL,NULL,NULL,NULL,NULL
145,HI000563,EFS1,15003000112,1973,2,3260.7,10869,21.28478,-157.696,MERBL,EDU1,Kaiser High - Bldg G,511 Lunalilo Home Rd,Honolulu,96825,HI,NULL,NULL,NULL,NULL,NULL,NULL,NULL
146,HI000564,EFS1,15003000112,1973,3,21647.1,72157,21.28478,-157.696,MERBL,EDU1,Kaiser High - Bldg H,511 Lunalilo Home Rd,Honolulu,96825,HI,NULL,NULL,NULL,NULL,NULL,NULL,NULL
147,HI000565,EFS1,15003000112,1974,2,3560.7,11869,21.28478,-157.696,MERBL,EDU1,Kaiser High - Bldg K,511 Lunalilo Home Rd,Honolulu,96825,HI,NULL,NULL,NULL,NULL,NULL,NULL,NULL
148,HI000566,EFS1,15003000112,1974,1,6623.7,22079,21.28478,-157.696,MERBL,EDU1,Kaiser High - Bldg L,511 Lunalilo Home Rd,Honolulu,96825,HI,NULL,NULL,NULL,NULL,NULL,NULL,NULL
166,HI000625,EFS1,15003000111,1971,2,5438.4,18128,21.29427,-157.68493,MERBL,EDU1,Kamiloiki Elementary - Bldg C ,7788 Hawaii Kai Dr,Honolulu,96825,HI,NULL,NULL,NULL,NULL,NULL,NULL,NULL
179,HI000642,EFS1,15003011500,1993,2,3065.7,10219,21.33389,-158.06433,MERBL,EDU1,Kapolei Elementary - Bldg D,91-1119 Kamaaha Lp,Kapolei,96707,HI,NULL,NULL,NULL,NULL,NULL,NULL,NULL
180,HI000643,EFS1,15003011500,1993,2,2793.6,9312,21.33389,-158.06433,MERBL,EDU1,Kapolei Elementary - Bldg E,91-1119 Kamaaha Lp,Kapolei,96707,HI,NULL,NULL,NULL,NULL,NULL,NULL,NULL
181,HI000644,EFS1,15003011500,1993,2,2699.7,8999,21.33389,-158.06433,MERBL,EDU1,Kapolei Elementary - Bldg F,91-1119 Kamaaha Lp,Kapolei,96707,HI,NULL,NULL,NULL,NULL,NULL,NULL,NULL
182,HI000648,EFS1,15003010308,1962,1,2224.2,7414,21.4079,-157.804,MERBL,EDU1,Kapunahala Elementary - Bldg A,45-800 Anoi Rd,Kaneohe,96744,HI,NULL,NULL,NULL,NULL,NULL,NULL,NULL
183,HI000649,EFS1,15003010308,1962,2,3883.8,12946,21.4079,-157.804,MERBL,EDU1,Kapunahala Elementary - Bldg B,45-800 Anoi Rd,Kaneohe,96744,HI,NULL,NULL,NULL,NULL,NULL,NULL,NULL
184,HI000650,EFS1,15003010308,1963,2,3883.8,12946,21.4079,-157.804,MERBL,EDU1,Kapunahala Elementary - Bldg C,45-800 Anoi Rd,Kaneohe,96744,HI,NULL,NULL,NULL,NULL,NULL,NULL,NULL
223,HI000748,EFS1,15003008622,1969,1,1620,5400,21.34431,-158.08478,MERBL,EDU1,Makakilo Elementary - Bldg A,92-675 Anipeahi St,Kapolei,96707,HI,NULL,NULL,NULL,NULL,NULL,NULL,NULL
224,HI000749,EFS1,15003008622,1969,1,1080,3600,21.34431,-158.08478,MERBL,EDU1,Makakilo Elementary - Bldg B,92-675 Anipeahi St,Kapolei,96707,HI,NULL,NULL,NULL,NULL,NULL,NULL,NULL
225,HI000750,EFS1,15003008622,1969,1,1080,3600,21.34431,-158.08478,MERBL,EDU1,Makakilo Elementary - Bldg C,92-675 Anipeahi St,Kapolei,96707,HI,NULL,NULL,NULL,NULL,NULL,NULL,NULL
226,HI000751,EFS1,15003008622,1971,1,1080,3600,21.34431,-158.08478,MERBL,EDU1,Makakilo Elementary - Bldg F,92-675 Anipeahi St,Kapolei,96707,HI,NULL,NULL,NULL,NULL,NULL,NULL,NULL
227,HI000752,EFS1,15003008622,1971,1,1408.8,4696,21.34431,-158.08478,MERBL,EDU1,Makakilo Elementary - Bldg H,92-675 Anipeahi St,Kapolei,96707,HI,NULL,NULL,NULL,NULL,NULL,NULL,NULL
338,HI000981,EFS1,15003009904,1993,2,2812.5,9375,21.57549,-158.12164,MERBL,EDU1,Waialua Elementary - Bldg D,67-20 Waialua Beach Rd,Waialua,96791,HI,NULL,NULL,NULL,NULL,NULL,NULL,NULL
339,HI000982,EFS1,15003009904,1972,1,2562.3,8541,21.56583,-158.12646,MERBL,EDU1,Waialua High & Intermediate - Bldg C,67-595A Kahui St,Waialua,96791,HI,NULL,NULL,NULL,NULL,NULL,NULL,NULL
340,HI000984,EFS1,15003009904,1965,1,1316.1,4387,21.56583,-158.12646,MERBL,EDU1,Waialua High & Intermediate - Bldg L,67-595A Kahui St,Waialua,96791,HI,NULL,NULL,NULL,NULL,NULL,NULL,NULL
341,HI000985,EFS1,15003009904,1978,2,3767.7,12559,21.56583,-158.12646,MERBL,EDU1,Waialua High & Intermediate - Bldg S,67-595A Kahui St,Waialua,96791,HI,NULL,NULL,NULL,NULL,NULL,NULL,NULL
342,HI000986,EFS1,15003009904,1980,2,8297.1,27657,21.56583,-158.12646,MERBL,EDU1,Waialua High & Intermediate - Bldg T,67-595A Kahui St,Waialua,96791,HI,NULL,NULL,NULL,NULL,NULL,NULL,NULL
343,HI000987,EFS1,15003009904,1985,1,1998.3,6661,21.56583,-158.12646,MERBL,EDU1,Waialua High & Intermediate - Bldg U,67-595A Kahui St,Waialua,96791,HI,NULL,NULL,NULL,NULL,NULL,NULL,NULL
344,HI000988,EFS1,15003009904,1993,1,1831.2,6104,21.56583,-158.12646,MERBL,EDU1,Waialua High & Intermediate - Bldg V,67-595A Kahui St,Waialua,96791,HI,NULL,NULL,NULL,NULL,NULL,NULL,NULL
345,HI000989,EFS1,15003009904,1971,1,2217.6,7392,21.56583,-158.12646,MERBL,EDU1,Waialua High & Intermediate - Bldg W,67-595A Kahui St,Waialua,96791,HI,NULL,NULL,NULL,NULL,NULL,NULL,NULL
358,HI001004,EFS1,15003011300,1950,1,993.9,3313,21.34553,-157.71525,MERBL,EDU1,Waimanalo Elem & Inter - Bldg C,41-1312 Kalanianaole Hwy,Waimanalo,96795,HI,NULL,NULL,NULL,NULL,NULL,NULL,NULL
359,HI001005,EFS1,15003011300,1952,1,1187.7,3959,21.34553,-157.71525,MERBL,EDU1,Waimanalo Elem & Inter - Bldg D,41-1312 Kalanianaole Hwy,Waimanalo,96795,HI,NULL,NULL,NULL,NULL,NULL,NULL,NULL
360,HI001006,EFS1,15003011300,1955,1,1511.1,5037,21.34553,-157.71525,MERBL,EDU1,Waimanalo Elem & Inter - Bldg N,41-1312 Kalanianaole Hwy,Waimanalo,96795,HI,NULL,NULL,NULL,NULL,NULL,NULL,NULL
361,HI001007,EFS1,15003011300,1961,1,1336.8,4456,21.34553,-157.71525,MERBL,EDU1,Waimanalo Elem & Inter - Bldg O,41-1312 Kalanianaole Hwy,Waimanalo,96795,HI,NULL,NULL,NULL,NULL,NULL,NULL,NULL
362,HI001008,EFS1,15003011300,1962,1,3460.5,11535,21.34553,-157.71525,MERBL,EDU1,Waimanalo Elem & Inter - Bldg Q,41-1312 Kalanianaole Hwy,Waimanalo,96795,HI,NULL,NULL,NULL,NULL,NULL,NULL,NULL
363,HI001011,EFS1,15003011300,1972,1,539.7,1799,21.34553,-157.71525,MERBL,EDU1,Waimanalo Elem & Inter - Bldg T,41-1312 Kalanianaole Hwy,Waimanalo,96795,HI,NULL,NULL,NULL,NULL,NULL,NULL,NULL
364,HI001012,EFS1,15003011300,1972,1,1416.6,4722,21.34553,-157.71525,MERBL,EDU1,Waimanalo Elem & Inter - Bldg U,41-1312 Kalanianaole Hwy,Waimanalo,96795,HI,NULL,NULL,NULL,NULL,NULL,NULL,NULL
365,HI001013,EFS1,15003011300,1972,1,986.4,3288,21.34553,-157.71525,MERBL,EDU1,Waimanalo Elem & Inter - Bldg V,41-1312 Kalanianaole Hwy,Waimanalo,96795,HI,NULL,NULL,NULL,NULL,NULL,NULL,NULL
430,HI000350,EFS1,15003940001,1965,1,1081.675,6181,21.32811,-157.6952,WSF1,EDU1,Blanche Pope Elementary - Bldg D,41-133 Huli St ,Waimanalo,96795,HI,NULL,NULL,NULL,NULL,NULL,NULL,NULL
440,HI000392,EFS1,15003008617,1967,2,1654.625,9455,21.3445,-158.03469,WSF2,EDU1,Ewa Elementary - Bldg J,91-1280 Renton Rd,Ewa Beach,96706,HI,NULL,NULL,NULL,NULL,NULL,NULL,NULL
441,HI000393,EFS1,15003008617,1979,1,1119.125,6395,21.3445,-158.03469,WSF1,EDU1,Ewa Elementary - Bldg K,91-1280 Renton Rd,Ewa Beach,96706,HI,NULL,NULL,NULL,NULL,NULL,NULL,NULL
444,HI000413,EFS1,15003010507,1994,1,142.1,812,21.41825,-157.80859,WSF1,EDU1,Heeia Elementary - Bldg P1,46-202 Haiku Rd,Kaneohe,96744,HI,NULL,NULL,NULL,NULL,NULL,NULL,NULL
445,HI000414,EFS1,15003010507,1996,1,142.1,812,21.41825,-157.80859,WSF1,EDU1,Heeia Elementary - Bldg P2,46-202 Haiku Rd,Kaneohe,96744,HI,NULL,NULL,NULL,NULL,NULL,NULL,NULL
449,HI000421,EFS1,15003007302,1950,1,956.55,5466,21.34249,-157.96369,WSF1,EDU1,Hickam Elementary - Bldg G,Manzelman St,Hickam AFB ,96853,HI,NULL,NULL,NULL,NULL,NULL,NULL,NULL
450,HI000425,EFS1,15003007302,1994,1,142.1,812,21.34249,-157.96369,WSF1,EDU1,Hickam Elementary - Bldg P8,Manzelman St,Hickam AFB ,96853,HI,NULL,NULL,NULL,NULL,NULL,NULL,NULL
455,HI000474,EFS1,15003001804,1975,2,3161.2,18064,21.27326,-157.81828,WSF2,EDU1,Jefferson Elementary - Bldg R,324 Kapahulu Ave,Honolulu,96815,HI,NULL,NULL,NULL,NULL,NULL,NULL,NULL
469,HI000560,EFS1,15003000112,1971,1,1262.975,7217,21.28478,-157.696,WSF1,EDU1,Kaiser High - Bldg B,511 Lunalilo Home Rd,Honolulu,96825,HI,NULL,NULL,NULL,NULL,NULL,NULL,NULL
474,HI000604,EFS1,15003008925,1994,1,142.1,812,21.39122,-158.02813,WSF1,EDU1,Kaleiopuu Elementary - Bldg P7,94-665 Kaaholo St,Waipahu,96797,HI,NULL,NULL,NULL,NULL,NULL,NULL,NULL
478,HI000626,EFS1,15003000111,1975,1,1171.275,6693,21.29427,-157.68493,WSF1,EDU1,Kamiloiki Elementary - Bldg E,7788 Hawaii Kai Dr,Honolulu,96825,HI,NULL,NULL,NULL,NULL,NULL,NULL,NULL
482,HI000645,EFS1,15003011500,2000,1,2560.075,14629,21.32859,-158.06851,WSF1,EDU1,Kapolei High - Bldg B,91-5007 Kapolei Pkwy,Kapolei,96707,HI,NULL,NULL,NULL,NULL,NULL,NULL,NULL
483,HI000646,EFS1,15003011500,2000,1,1155.7,6604,21.32859,-158.06851,WSF1,EDU1,Kapolei High - Bldg D,91-5007 Kapolei Pkwy,Kapolei,96707,HI,NULL,NULL,NULL,NULL,NULL,NULL,NULL
484,HI000647,EFS1,15003011500,2000,1,6746.075,38549,21.32859,-158.06851,WSF1,EDU1,Kapolei High - Bldg G,91-5007 Kapolei Pkwy,Kapolei,96707,HI,NULL,NULL,NULL,NULL,NULL,NULL,NULL
485,HI000651,EFS1,15003010308,1962,1,1365.525,7803,21.4079,-157.804,WSF1,EDU1,Kapunahala Elementary - Bldg D,45-800 Anoi Rd,Kaneohe,96744,HI,NULL,NULL,NULL,NULL,NULL,NULL,NULL
494,HI000689,EFS1,15003000114,1967,1,189.175,1081,21.27465,-157.70448,WSF1,EDU1,Koko Head Elementary - Bldg P3,189 Lunalilo Home Rd,Honolulu,96825,HI,NULL,NULL,NULL,NULL,NULL,NULL,NULL
495,HI000690,EFS1,15003000114,1967,1,156.8,896,21.27465,-157.70448,WSF1,EDU1,Koko Head Elementary - Bldg P4,189 Lunalilo Home Rd,Honolulu,96825,HI,NULL,NULL,NULL,NULL,NULL,NULL,NULL
496,HI000691,EFS1,15003000114,1967,1,156.8,896,21.27465,-157.70448,WSF1,EDU1,Koko Head Elementary - Bldg P5,189 Lunalilo Home Rd,Honolulu,96825,HI,NULL,NULL,NULL,NULL,NULL,NULL,NULL
497,HI000692,EFS1,15003000114,1967,1,156.8,896,21.27465,-157.70448,WSF1,EDU1,Koko Head Elementary - Bldg P6,189 Lunalilo Home Rd,Honolulu,96825,HI,NULL,NULL,NULL,NULL,NULL,NULL,NULL
499,HI000701,EFS1,15003011400,1967,2,1895.425,10831,21.3887,-157.97117,WSF2,EDU1,Lehua Elementary - Bldg D,781 Lehua Ave,Pearl City,96782,HI,NULL,NULL,NULL,NULL,NULL,NULL,NULL
500,HI000702,EFS1,15003011400,1965,1,1281,7320,21.3887,-157.97117,WSF1,EDU1,Lehua Elementary - Bldg E,781 Lehua Ave,Pearl City,96782,HI,NULL,NULL,NULL,NULL,NULL,NULL,NULL
501,HI000703,EFS1,15003009703,1987,1,1177.4,6728,21.43869,-158.17437,WSF1,EDU1,Leihoku Elementary - Bldg C,86-285 Leihoku St,Waianae,96792,HI,NULL,NULL,NULL,NULL,NULL,NULL,NULL
502,HI000706,EFS1,15003009703,1980,1,277.375,1585,21.43869,-158.17437,WSF1,EDU1,Leihoku Elementary - Bldg G,86-285 Leihoku St,Waianae,96792,HI,NULL,NULL,NULL,NULL,NULL,NULL,NULL
512,HI000753,EFS1,15003008622,1969,1,1078.7,6164,21.34431,-158.08478,WSF1,EDU1,Makakilo Elementary - Bldg K,92-675 Anipeahi St,Kapolei,96707,HI,NULL,NULL,NULL,NULL,NULL,NULL,NULL
517,HI000775,EFS1,15003008614,1973,1,1379.35,7882,21.35831,-158.08331,WSF1,EDU1,Mauka Lani Elementary - Bldg B,92-1300 Panana St,Kapolei,96707,HI,NULL,NULL,NULL,NULL,NULL,NULL,NULL
518,HI000776,EFS1,15003008614,1993,1,142.1,812,21.35831,-158.08331,WSF1,EDU1,Mauka Lani Elementary - Bldg P11,92-1300 Panana St,Kapolei,96707,HI,NULL,NULL,NULL,NULL,NULL,NULL,NULL
556,HI000796,EFS1,15003008929,1997,1,142.1,812,21.47097,-158.0009,WSF1,EDU1,Mililani Mauka Elementary - Bldg TB1,95-1111 Makaikai St ,Mililani,96789,HI,NULL,NULL,NULL,NULL,NULL,NULL,NULL
557,HI000797,EFS1,15003008929,1998,1,142.1,812,21.47097,-158.0009,WSF1,EDU1,Mililani Mauka Elementary - Bldg TB3,95-1111 Makaikai St ,Mililani,96789,HI,NULL,NULL,NULL,NULL,NULL,NULL,NULL
558,HI000798,EFS1,15003008929,1998,1,142.1,812,21.47097,-158.0009,WSF1,EDU1,Mililani Mauka Elementary - Bldg TB4,95-1111 Makaikai St ,Mililani,96789,HI,NULL,NULL,NULL,NULL,NULL,NULL,NULL
559,HI000799,EFS1,15003008929,2001,1,142.1,812,21.47097,-158.0009,WSF1,EDU1,Mililani Mauka Elementary - Bldg TB5,95-1111 Makaikai St ,Mililani,96789,HI,NULL,NULL,NULL,NULL,NULL,NULL,NULL
560,HI000800,EFS1,15003008929,2001,1,142.1,812,21.47097,-158.0009,WSF1,EDU1,Mililani Mauka Elementary - Bldg TB6,95-1111 Makaikai St ,Mililani,96789,HI,NULL,NULL,NULL,NULL,NULL,NULL,NULL
616,HI000389,EFS1,15003008617,1954,1,1290,4300,21.3445,-158.03469,MERBL,EDU1,Ewa Elementary - Bldg C,91-1280 Renton Rd,Ewa Beach,96706,HI,NULL,NULL,NULL,NULL,NULL,NULL,NULL
617,HI000390,EFS1,15003008617,1957,1,1473,4910,21.3445,-158.03469,MERBL,EDU1,Ewa Elementary - Bldg D,91-1280 Renton Rd,Ewa Beach,96706,HI,NULL,NULL,NULL,NULL,NULL,NULL,NULL
618,HI000391,EFS1,15003008617,1965,2,2817.6,9392,21.3445,-158.03469,MERBL,EDU1,Ewa Elementary - Bldg I,91-1280 Renton Rd,Ewa Beach,96706,HI,NULL,NULL,NULL,NULL,NULL,NULL,NULL
632,HI000980,EFS1,15003009904,1966,2,2677.675,15301,21.57549,-158.12164,WSF2,EDU1,Waialua Elementary - Bldg A,67-20 Waialua Beach Rd,Waialua,96791,HI,NULL,NULL,NULL,NULL,NULL,NULL,NULL
633,HI000983,EFS1,15003009904,1955,1,1896.125,10835,21.56583,-158.12646,WSF1,EDU1,Waialua High & Intermediate - Bldg F,67-595A Kahui St,Waialua,96791,HI,NULL,NULL,NULL,NULL,NULL,NULL,NULL
636,HI001009,EFS1,15003011300,1975,1,778.75,4450,21.34553,-157.71525,WSF1,EDU1,Waimanalo Elem & Inter - Bldg R,41-1312 Kalanianaole Hwy,Waimanalo,96795,HI,NULL,NULL,NULL,NULL,NULL,NULL,NULL
637,HI001010,EFS1,15003011300,1976,1,1455.475,8317,21.34553,-157.71525,WSF1,EDU1,Waimanalo Elem & Inter - Bldg S,41-1312 Kalanianaole Hwy,Waimanalo,96795,HI,NULL,NULL,NULL,NULL,NULL,NULL,NULL
678,HI000468,EFS1,15003001804,1951,1,1900.8,6336,21.27326,-157.81828,MERBL,EDU1,Jefferson Elementary - Bldg C,324 Kapahulu Ave,Honolulu,96815,HI,NULL,NULL,NULL,NULL,NULL,NULL,NULL
679,HI000469,EFS1,15003001804,1973,1,2437.2,8124,21.27326,-157.81828,MERBL,EDU1,Jefferson Elementary - Bldg L,324 Kapahulu Ave,Honolulu,96815,HI,NULL,NULL,NULL,NULL,NULL,NULL,NULL
680,HI000470,EFS1,15003001804,1973,1,1429.2,4764,21.27326,-157.81828,MERBL,EDU1,Jefferson Elementary - Bldg M,324 Kapahulu Ave,Honolulu,96815,HI,NULL,NULL,NULL,NULL,NULL,NULL,NULL
724,HI000599,EFS1,15003008925,1989,2,2511.6,8372,21.39122,-158.02813,MERBL,EDU1,Kaleiopuu Elementary - Bldg D,94-665 Kaaholo St,Waipahu,96797,HI,NULL,NULL,NULL,NULL,NULL,NULL,NULL
725,HI000600,EFS1,15003008925,1989,2,2553.3,8511,21.39122,-158.02813,MERBL,EDU1,Kaleiopuu Elementary - Bldg E,94-665 Kaaholo St,Waipahu,96797,HI,NULL,NULL,NULL,NULL,NULL,NULL,NULL
726,HI000601,EFS1,15003008925,1989,2,2524.8,8416,21.39122,-158.02813,MERBL,EDU1,Kaleiopuu Elementary - Bldg F,94-665 Kaaholo St,Waipahu,96797,HI,NULL,NULL,NULL,NULL,NULL,NULL,NULL
727,HI000602,EFS1,15003008925,1990,2,2652.9,8843,21.39122,-158.02813,MERBL,EDU1,Kaleiopuu Elementary - Bldg G,94-665 Kaaholo St,Waipahu,96797,HI,NULL,NULL,NULL,NULL,NULL,NULL,NULL
728,HI000603,EFS1,15003008925,1993,2,3120,10400,21.39122,-158.02813,MERBL,EDU1,Kaleiopuu Elementary - Bldg H,94-665 Kaaholo St,Waipahu,96797,HI,NULL,NULL,NULL,NULL,NULL,NULL,NULL
745,HI000624,EFS1,15003000111,1973,2,5274,17580,21.29427,-157.68493,MERBL,EDU1,Kamiloiki Elementary - Bldg A ,7788 Hawaii Kai Dr,Honolulu,96825,HI,NULL,NULL,NULL,NULL,NULL,NULL,NULL
754,HI000681,EFS1,15003000114,1954,1,1417.5,4725,21.27465,-157.70448,MERBL,EDU1,Koko Head Elementary - Bldg A,189 Lunalilo Home Rd,Honolulu,96825,HI,NULL,NULL,NULL,NULL,NULL,NULL,NULL
755,HI000682,EFS1,15003000114,1954,1,1584,5280,21.27465,-157.70448,MERBL,EDU1,Koko Head Elementary - Bldg B,189 Lunalilo Home Rd,Honolulu,96825,HI,NULL,NULL,NULL,NULL,NULL,NULL,NULL
756,HI000683,EFS1,15003000114,1954,1,1584,5280,21.27465,-157.70448,MERBL,EDU1,Koko Head Elementary - Bldg C,189 Lunalilo Home Rd,Honolulu,96825,HI,NULL,NULL,NULL,NULL,NULL,NULL,NULL
757,HI000684,EFS1,15003000114,1955,1,1417.5,4725,21.27465,-157.70448,MERBL,EDU1,Koko Head Elementary - Bldg D,189 Lunalilo Home Rd,Honolulu,96825,HI,NULL,NULL,NULL,NULL,NULL,NULL,NULL
758,HI000685,EFS1,15003000114,1955,1,1584,5280,21.27465,-157.70448,MERBL,EDU1,Koko Head Elementary - Bldg E,189 Lunalilo Home Rd,Honolulu,96825,HI,NULL,NULL,NULL,NULL,NULL,NULL,NULL
759,HI000686,EFS1,15003000114,1962,1,1485,4950,21.27465,-157.70448,MERBL,EDU1,Koko Head Elementary - Bldg F,189 Lunalilo Home Rd,Honolulu,96825,HI,NULL,NULL,NULL,NULL,NULL,NULL,NULL
760,HI000687,EFS1,15003000114,1969,1,1191.9,3973,21.27465,-157.70448,MERBL,EDU1,Koko Head Elementary - Bldg J,189 Lunalilo Home Rd,Honolulu,96825,HI,NULL,NULL,NULL,NULL,NULL,NULL,NULL
761,HI000688,EFS1,15003000114,1976,1,1516.8,5056,21.27465,-157.70448,MERBL,EDU1,Koko Head Elementary - Bldg K,189 Lunalilo Home Rd,Honolulu,96825,HI,NULL,NULL,NULL,NULL,NULL,NULL,NULL
767,HI000699,EFS1,15003011400,1965,2,3425.1,11417,21.3887,-157.97117,MERBL,EDU1,Lehua Elementary - Bldg A,781 Lehua Ave,Pearl City,96782,HI,NULL,NULL,NULL,NULL,NULL,NULL,NULL
768,HI000700,EFS1,15003011400,1965,2,3425.1,11417,21.3887,-157.97117,MERBL,EDU1,Lehua Elementary - Bldg B,781 Lehua Ave,Pearl City,96782,HI,NULL,NULL,NULL,NULL,NULL,NULL,NULL
769,HI000704,EFS1,15003009703,1980,2,2722.8,9076,21.43869,-158.17437,MERBL,EDU1,Leihoku Elementary - Bldg D,86-285 Leihoku St,Waianae,96792,HI,NULL,NULL,NULL,NULL,NULL,NULL,NULL
770,HI000705,EFS1,15003009703,1980,2,2722.8,9076,21.43869,-158.17437,MERBL,EDU1,Leihoku Elementary - Bldg E,86-285 Leihoku St,Waianae,96792,HI,NULL,NULL,NULL,NULL,NULL,NULL,NULL
771,HI000707,EFS1,15003009703,1985,2,2527.2,8424,21.43869,-158.17437,MERBL,EDU1,Leihoku Elementary - Bldg H,86-285 Leihoku St,Waianae,96792,HI,NULL,NULL,NULL,NULL,NULL,NULL,NULL
772,HI000708,EFS1,15003009703,1983,2,2604.6,8682,21.43869,-158.17437,MERBL,EDU1,Leihoku Elementary - Bldg J,86-285 Leihoku St,Waianae,96792,HI,NULL,NULL,NULL,NULL,NULL,NULL,NULL
792,HI000774,EFS1,15003008614,1973,2,5388,17960,21.35831,-158.08331,MERBL,EDU1,Mauka Lani Elementary - Bldg A,92-1300 Panana St,Kapolei,96707,HI,NULL,NULL,NULL,NULL,NULL,NULL,NULL
810,HI000801,EFS1,15003008928,NULL,1,3111.9,10373,21.47583,-157.98893,MERBL,EDU1,Mililani Middle - Bldg C,95-230 Kailiula Pl,Mililani,96789,HI,NULL,NULL,NULL,NULL,NULL,NULL,NULL
811,HI000841,EFS1,15003940002,1980,1,2970.6,9902,21.38614,-158.13638,MERBL,EDU1,Nanakuli Elementary - Bldg B,89-778 Haleakala Ave,Waianae,96792,HI,NULL,NULL,NULL,NULL,NULL,NULL,NULL
812,HI000842,EFS1,15003940002,1978,2,5358.3,17861,21.38614,-158.13638,MERBL,EDU1,Nanakuli Elementary - Bldg C,89-778 Haleakala Ave,Waianae,96792,HI,NULL,NULL,NULL,NULL,NULL,NULL,NULL
813,HI000843,EFS1,15003940002,1971,1,6465.3,21551,21.38825,-158.13276,MERBL,EDU1,Nanakuli High & Intermediate - Bldg B,89-778 Haleakala Ave,Waianae,96792,HI,NULL,NULL,NULL,NULL,NULL,NULL,NULL
814,HI000844,EFS1,15003940002,1979,1,6269.7,20899,21.38825,-158.13276,MERBL,EDU1,Nanakuli High & Intermediate - Bldg C,89-778 Haleakala Ave,Waianae,96792,HI,NULL,NULL,NULL,NULL,NULL,NULL,NULL
815,HI000845,EFS1,15003940002,1995,1,3342.9,11143,21.38825,-158.13276,MERBL,EDU1,Nanakuli High & Intermediate - Bldg D,89-778 Haleakala Ave,Waianae,96792,HI,NULL,NULL,NULL,NULL,NULL,NULL,NULL
816,HI000846,EFS1,15003940002,1972,1,7327.2,24424,21.38825,-158.13276,MERBL,EDU1,Nanakuli High & Intermediate - Bldg E,89-778 Haleakala Ave,Waianae,96792,HI,NULL,NULL,NULL,NULL,NULL,NULL,NULL
817,HI000847,EFS1,15003940002,1979,2,7117.2,23724,21.38825,-158.13276,MERBL,EDU1,Nanakuli High & Intermediate - Bldg J,89-778 Haleakala Ave,Waianae,96792,HI,NULL,NULL,NULL,NULL,NULL,NULL,NULL
818,HI000848,EFS1,15003940002,1973,1,5067,16890,21.38825,-158.13276,MERBL,EDU1,Nanakuli High & Intermediate - Bldg Q,89-778 Haleakala Ave,Waianae,96792,HI,NULL,NULL,NULL,NULL,NULL,NULL,NULL
819,HI000849,EFS1,15003940002,1971,1,2207.7,7359,21.38825,-158.13276,MERBL,EDU1,Nanakuli High & Intermediate - Bldg R,89-778 Haleakala Ave,Waianae,96792,HI,NULL,NULL,NULL,NULL,NULL,NULL,NULL
820,HI000850,EFS1,15003940002,1973,1,1498.8,4996,21.38825,-158.13276,MERBL,EDU1,Nanakuli High & Intermediate - Bldg U,89-778 Haleakala Ave,Waianae,96792,HI,NULL,NULL,NULL,NULL,NULL,NULL,NULL
1910,HI001014,EFS1,15003010306,1976,1,1115975,6377,21.435032,-157.830373,WSF1,EDU1,Ahuimanu Elementary - Bldg A,47-470 HUI AEKO PL,KANEOHE,96744,HI,NULL,NULL,0,0,0,NULL,0
1911,HI001015,EFS1,15003010306,1977,1,2201400,7338,21.435032,-157.830373,MERBL,EDU1,Ahuimanu Elementary - Bldg C,47-470 HUI AEKO PL,KANEOHE,96744,HI,NULL,NULL,0,0,0,NULL,0
1912,HI001016,EFS1,15003010306,1977,1,1511100,5037,21.435032,-157.830373,MERBL,EDU1,Ahuimanu Elementary - Bldg D,47-470 HUI AEKO PL,KANEOHE,96744,HI,NULL,NULL,0,0,0,NULL,0
1913,HI001017,EFS1,15003010306,1973,2,4893600,16312,21.435032,-157.830373,MERBL,EDU1,Ahuimanu Elementary - Bldg E,47-470 HUI AEKO PL,KANEOHE,96744,HI,NULL,NULL,0,0,0,NULL,0
1914,HI001018,EFS1,15003007504,1965,2,2742300,9141,21.375683,-157.927729,MERBL,EDU1,Aiea Elementary - Bldg A,99-350 MOANALUA RD,AIEA,96701,HI,NULL,NULL,0,0,0,NULL,0
1915,HI001019,EFS1,15003007504,1965,2,2791800,9306,21.375683,-157.927729,MERBL,EDU1,Aiea Elementary - Bldg B,99-350 MOANALUA RD,AIEA,96701,HI,NULL,NULL,0,0,0,NULL,0
1916,HI001020,EFS1,15003007504,1967,2,2791800,9306,21.375683,-157.927729,MERBL,EDU1,Aiea Elementary - Bldg C,99-350 MOANALUA RD,AIEA,96701,HI,NULL,NULL,0,0,0,NULL,0
1917,HI001021,EFS1,15003007504,1951,1,898500,2995,21.375683,-157.927729,MERBL,EDU1,Aiea Elementary - Bldg E,99-350 MOANALUA RD,AIEA,96701,HI,NULL,NULL,0,0,0,NULL,0
1918,HI001022,EFS1,15003007702,1961,2,3816600,12722,21.384888,-157.930037,MERBL,EDU1,Aiea High - Bldg A,98-1276 ULUNE ST,AIEA,96701,HI,NULL,NULL,0,0,0,NULL,0
1919,HI001023,EFS1,15003007702,1961,2,3816600,12722,21.384888,-157.930037,MERBL,EDU1,Aiea High - Bldg B,98-1276 ULUNE ST,AIEA,96701,HI,NULL,NULL,0,0,0,NULL,0
1920,HI001024,EFS1,15003007702,1962,2,3917100,13057,21.384888,-157.930037,MERBL,EDU1,Aiea High - Bldg C,98-1276 ULUNE ST,AIEA,96701,HI,NULL,NULL,0,0,0,NULL,0
1921,HI001025,EFS1,15003007702,1962,2,4017000,13390,21.384888,-157.930037,MERBL,EDU1,Aiea High - Bldg D,98-1276 ULUNE ST,AIEA,96701,HI,NULL,NULL,0,0,0,NULL,0
1922,HI001026,EFS1,15003007702,1964,2,3958200,13194,21.384888,-157.930037,MERBL,EDU1,Aiea High - Bldg G,98-1276 ULUNE ST,AIEA,96701,HI,NULL,NULL,0,0,0,NULL,0
1923,HI001027,EFS1,15003007702,1964,1,1832700,6109,21.384888,-157.930037,MERBL,EDU1,Aiea High - Bldg H,98-1276 ULUNE ST,AIEA,96701,HI,NULL,NULL,0,0,0,NULL,0
1924,HI001028,EFS1,15003007702,1962,2,4321800,14406,21.384888,-157.930037,MERBL,EDU1,Aiea High - Bldg J,98-1276 ULUNE ST,AIEA,96701,HI,NULL,NULL,0,0,0,NULL,0
1925,HI001029,EFS1,15003007702,1967,2,2503025,14303,21.384888,-157.930037,WSF2,EDU1,Aiea High - Bldg Q,98-1276 ULUNE ST,AIEA,96701,HI,NULL,NULL,0,0,0,NULL,0
1926,HI001030,EFS1,15003007702,1970,2,3439200,11464,21.384888,-157.930037,MERBL,EDU1,Aiea High - Bldg R,98-1276 ULUNE ST,AIEA,96701,HI,NULL,NULL,0,0,0,NULL,0
1927,HI001031,EFS1,15003007702,1991,2,6495900,21653,21.384888,-157.930037,MERBL,EDU1,Aiea High - Bldg T,98-1276 ULUNE ST,AIEA,96701,HI,NULL,NULL,0,0,0,NULL,0
1928,HI001032,EFS1,15003007503,1964,2,6548400,21828,21.380368,-157.923768,MERBL,EDU1,Aiea Intermediate - Bldg A,99-600 KULAWEA ST,AIEA,96701,HI,NULL,NULL,0,0,0,NULL,0
1929,HI001033,EFS1,15003007503,1964,1,1536300,5121,21.380368,-157.923768,MERBL,EDU1,Aiea Intermediate - Bldg B,99-600 KULAWEA ST,AIEA,96701,HI,NULL,NULL,0,0,0,NULL,0
1930,HI001034,EFS1,15003007503,1967,2,3263100,10877,21.380368,-157.923768,MERBL,EDU1,Aiea Intermediate - Bldg E,99-600 KULAWEA ST,AIEA,96701,HI,NULL,NULL,0,0,0,NULL,0
1931,HI001035,EFS1,15003007503,1965,2,3493800,11646,21.380368,-157.923768,MERBL,EDU1,Aiea Intermediate - Bldg F,99-600 KULAWEA ST,AIEA,96701,HI,NULL,NULL,0,0,0,NULL,0
1932,HI001036,EFS1,15003010901,1960,1,1873200,6244,21.425076,-157.749681,MERBL,EDU1,Aikahi Elementary - Bldg A,281 ILIHAU ST,KAILUA,96734,HI,NULL,NULL,0,0,0,NULL,0
1933,HI001037,EFS1,15003010901,1960,2,4988400,16628,21.425076,-157.749681,MERBL,EDU1,Aikahi Elementary - Bldg B,281 ILIHAU ST,KAILUA,96734,HI,NULL,NULL,0,0,0,NULL,0
1934,HI001038,EFS1,15003010901,1961,2,3884400,12948,21.425076,-157.749681,MERBL,EDU1,Aikahi Elementary - Bldg C,281 ILIHAU ST,KAILUA,96734,HI,NULL,NULL,0,0,0,NULL,0
1935,HI001039,EFS1,15003010901,1964,1,1357125,7755,21.425076,-157.749681,WSF1,EDU1,Aikahi Elementary - Bldg E,281 ILIHAU ST,KAILUA,96734,HI,NULL,NULL,0,0,0,NULL,0
1936,HI001040,EFS1,15003000302,1951,1,2793300,9311,21.279147,-157.756841,MERBL,EDU1,Aina Haina Elementary - Bldg C,827 HIND DR,HONOLULU,96821,HI,NULL,NULL,0,0,0,NULL,0
1937,HI001041,EFS1,15001020802,1963,1,7114.54,30.08799934,19.71285,-155.11724,WSF1,EDU1,DESILVA ELEMENTARY SCHOOL,278 AINAKO AVENUE,HILO,NULL,HI,NULL,(808) 974-4855,358,0,0,NULL,0
1938,HI001042,EFS1,15003000302,1951,1,2793300,9311,21.279147,-157.756841,MERBL,EDU1,Aina Haina Elementary - Bldg D,827 HIND DR,HONOLULU,96821,HI,NULL,NULL,0,0,0,NULL,0
1939,HI001043,EFS1,15001020202,1957,1,2237.9,0,19.7483,-155.09537,WSF1,EDU1,HAAHEO ELEM SCHOOL,121 HAAHEO ROAD,HILO,NULL,HI,NULL,(808) 974-4111,161,0,0,NULL,0
1940,HI001044,EFS1,15003000302,1951,1,1941600,6472,21.279147,-157.756841,MERBL,EDU1,Aina Haina Elementary - Bldg E,827 HIND DR,HONOLULU,96821,HI,NULL,NULL,0,0,0,NULL,0
1941,HI001045,EFS1,15009031000,1953,1,40644.33,156.826004,20.8922,-156.4933,MERBL,EDU1,BALDWIN HIGH SCHOOL,1650 KAAHUMANU AVENUE,WAILUKU,NULL,HI,NULL,(808) 984-5656,1217,0,0,NULL,0
1942,HI001046,EFS1,15003000302,1951,1,1048200,3494,21.279147,-157.756841,MERBL,EDU1,Aina Haina Elementary - Bldg G,827 HIND DR,HONOLULU,96821,HI,NULL,NULL,0,0,0,NULL,0
1943,HI001047,EFS1,15009030404,1950,1,9077.59,39.33200073,20.8608,-156.31594,WSF2,EDU1,MAKAWAO ELEMENTARY SCHOOL,3542 BALDWIN AVENUE,MAKAWAO,NULL,HI,NULL,(808) 572-7281,478,0,0,NULL,0
1944,HI001048,EFS1,15003007000,1960,1,3529800,11766,21.342814,-157.915655,MERBL,EDU1,Aliamanu Intermediate - Bldg E,3271 SALT LAKE BLVD,HONOLULU,96819,HI,NULL,NULL,0,0,0,NULL,0
1945,HI001049,EFS1,15009031103,1974,1,49776.2,178.8119965,20.87711,-156.47437,MERBL,EDU1,MAUI HIGH SCHOOL,660 SOUTH LONO AVENUE,KAHULUI,NULL,HI,NULL,(808) 873-3000,1344,0,0,NULL,0
1946,HI001050,EFS1,15003007000,1962,1,1769100,5897,21.342814,-157.915655,MERBL,EDU1,Aliamanu Intermediate - Bldg F,3271 SALT LAKE BLVD,HONOLULU,96819,HI,NULL,NULL,0,0,0,NULL,0
1947,HI001051,EFS1,15009031801,1957,1,1390,0,21.1424,-157.2239,WSF1,EDU1,MAUNALOA ELEMENTARY SCHOOL,128 MAUNALOA ROAD,MAUNALOA,NULL,HI,NULL,(808) 552-2000,57,0,0,NULL,0
1948,HI001052,EFS1,15003007000,1962,1,806225,4607,21.342814,-157.915655,WSF1,EDU1,Aliamanu Intermediate - Bldg M,3271 SALT LAKE BLVD,HONOLULU,96819,HI,NULL,NULL,0,0,0,NULL,0
1949,HI001053,EFS1,15009031801,1957,1,13388.48,0,21.1606,-157.0834,MERBL,EDU1,MOLOKAI HIGH SCHOOL,2140 FARRINGTON AVE.,HOOLEHUA,NULL,HI,NULL,(808) 567-6950,712,0,0,NULL,0
1950,HI001054,EFS1,15003001201,1963,2,3686400,12288,21.286636,-157.804762,MERBL,EDU1,Aliiolani Elementary - Bldg A,1240 7TH AVE,HONOLULU,96816,HI,NULL,NULL,0,0,0,NULL,0
1951,HI001055,EFS1,15009030501,1983,2,2780,0,20.90608,-156.37446,MERBL,EDU1,PAIA ELEMENTARY SCHOOL,955 BALDWIN AVENUE,PAIA,NULL,HI,NULL,(808) 579-2100,200,0,0,NULL,0
1952,HI001056,EFS1,15003001201,1951,1,1198200,3994,21.286636,-157.804762,MERBL,EDU1,Aliiolani Elementary - Bldg B,1240 7TH AVE,HONOLULU,96816,HI,NULL,NULL,0,0,0,NULL,0
1953,HI001057,EFS1,15009030402,1979,1,12043.76,46.47000122,20.84223,-156.34891,MERBL,EDU1,PUKALANI ELEMENTARY SCHOOL,2945 IOLANI STREET,MAKAWAO,NULL,HI,NULL,(808) 572-9557,464,0,0,NULL,0
1954,HI001058,EFS1,15003001201,1953,1,800100,2667,21.286636,-157.804762,MERBL,EDU1,Aliiolani Elementary - Bldg C,1240 7TH AVE,HONOLULU,96816,HI,NULL,NULL,0,0,0,NULL,0
1955,HI001059,EFS1,15009030800,1986,1,13149.02,49.52199936,20.93797,-156.51641,MERBL,EDU1,WAIHEE ELEMENTARY SCHOOL,2125 KAHEKILI HIGHWAY,WAILUKU,NULL,HI,NULL,(808) 984-5644,859,0,0,NULL,0
1956,HI001060,EFS1,15003001201,1951,1,1008300,3361,21.286636,-157.804762,MERBL,EDU1,Aliiolani Elementary - Bldg D,1240 7TH AVE,HONOLULU,96816,HI,NULL,NULL,0,0,0,NULL,0
1957,HI001061,EFS1,15009030901,1961,1,19995.47,73.02400208,20.88734,-156.50774,MERBL,EDU1,WAILUKU ELEMENTARY SCHOOL,355 SOUTH HIGH STREET,WAILUKU,NULL,HI,NULL,(808) 984-5622,974,0,0,NULL,0
1958,HI001062,EFS1,15007040700,1981,1,5882.48,0,21.9054,-159.5618,MERBL,EDU1,ELEELE ELEMENTARY SCHOOL,4750 ULIULI ROAD,ELEELE,NULL,HI,NULL,(808) 335-2101,469,0,0,NULL,0
1959,HI001063,EFS1,15003001201,1966,2,3274200,10914,21.286636,-157.804762,MERBL,EDU1,Aliiolani Elementary - Bldg F,1240 7TH AVE,HONOLULU,96816,HI,NULL,NULL,0,0,0,NULL,0
1960,HI001064,EFS1,15007040104,1983,1,3016.3,0,22.20079,-159.50312,MERBL,EDU1,HANALEI ELEMENTARY SCHOOL,5-5415 KUHIO HIGHWAY,HANALEI,NULL,HI,NULL,(808) 826-4300,217,0,0,NULL,0
1961,HI001065,EFS1,15003001201,1967,1,1962900,6543,21.286636,-157.804762,MERBL,EDU1,Aliiolani Elementary - Bldg H,1240 7TH AVE,HONOLULU,96816,HI,NULL,NULL,0,0,0,NULL,0
1962,HI001066,EFS1,15007040700,1975,1,6260.56,0,21.92493,-159.52547,MERBL,EDU1,KALAHEO ELEMENTARY SCHOOL,4400 MAKA ROAD,KALAHEO,NULL,HI,NULL,(808) 332-6801,503,0,0,NULL,0
1963,HI001067,EFS1,15003008912,1962,2,2787300,9291,21.393931,-158.001794,MERBL,EDU1,August Ahrens Elem - Bldg A,94-1170 WAIPAHU ST,WAIPAHU,96797,HI,NULL,NULL,0,0,0,NULL,0
1964,HI001068,EFS1,15007040300,1979,1,10441.68,0,22.09276,-159.31685,MERBL,EDU1,KAPAA ELEMENTARY SCHOOL,4886 KAWAIHAU ROAD,KAPAA,NULL,HI,NULL,(808) 821-4424,879,0,0,NULL,0
1965,HI001069,EFS1,15003008912,1964,2,2787300,9291,21.393931,-158.001794,MERBL,EDU1,August Ahrens Elem - Bldg B,94-1170 WAIPAHU ST,WAIPAHU,96797,HI,NULL,NULL,0,0,0,NULL,0
1966,HI001070,EFS1,15007040300,1979,1,15636.11,0,22.09493,-159.31603,MERBL,EDU1,KAPAA HIGH SCHOOL,4695 MAILIHUNA ROAD,KAPAA,NULL,HI,NULL,(808) 821-4400,859,0,0,NULL,0
1967,HI001071,EFS1,15003008912,1969,2,3191400,10638,21.393931,-158.001794,MERBL,EDU1,August Ahrens Elem - Bldg H,94-1170 WAIPAHU ST,WAIPAHU,96797,HI,NULL,NULL,0,0,0,NULL,0
1968,HI001072,EFS1,15007040500,1979,1,22088.49,0,21.96269,-159.36229,MERBL,EDU1,KAUAI HIGH SCHOOL,3577 LALA ROAD,LIHUE,NULL,HI,NULL,(808) 274-3160,1281,0,0,NULL,0
1969,HI001073,EFS1,15003008912,1970,1,6273900,20913,21.393931,-158.001794,MERBL,EDU1,August Ahrens Elem - Bldg I,94-1170 WAIPAHU ST,WAIPAHU,96797,HI,NULL,NULL,0,0,0,NULL,0
1970,HI001074,EFS1,15007040900,1972,1,3294.3,0,21.97478,-159.71972,MERBL,EDU1,KEKAHA ELEMENTARY SCHOOL,8140 KEKAHA ROAD,KEKAHA,NULL,HI,NULL,(808) 337-7655,237,0,0,NULL,0
1971,HI001075,EFS1,15003008912,1972,1,4352400,14508,21.393931,-158.001794,MERBL,EDU1,August Ahrens Elem - Bldg J,94-1170 WAIPAHU ST,WAIPAHU,96797,HI,NULL,NULL,0,0,0,NULL,0
1972,HI001076,EFS1,15007040103,1983,1,4448,0,22.20539,-159.40915,MERBL,EDU1,KILAUEA ELEMENTARY SCHOOL,2440 KOLO ROAD,KILAUEA,NULL,HI,NULL,(808) 828-1212,340,0,0,NULL,0
1973,HI001077,EFS1,15003008912,1973,1,1985025,11343,21.393931,-158.001794,WSF1,EDU1,August Ahrens Elem - Bldg K,94-1170 WAIPAHU ST,WAIPAHU,96797,HI,NULL,NULL,0,0,0,NULL,0
1974,HI001078,EFS1,15003010602,1958,1,625200,2084,21.403144,-157.794583,MERBL,EDU1,Castle High - Bldg L,45-386 KANEOHE BAY DR,KANEOHE,96744,HI,NULL,NULL,0,0,0,NULL,0
1975,HI001079,EFS1,15003010602,1958,1,1287300,4291,21.403144,-157.794583,MERBL,EDU1,Castle High - Bldg M,45-386 KANEOHE BAY DR,KANEOHE,96744,HI,NULL,NULL,0,0,0,NULL,0
1976,HI001080,EFS1,15003010602,1950,1,2118900,7063,21.403144,-157.794583,MERBL,EDU1,Castle High - Bldg Q,45-386 KANEOHE BAY DR,KANEOHE,96744,HI,NULL,NULL,0,0,0,NULL,0
1977,HI001081,EFS1,15003010602,1960,1,2326200,7754,21.403144,-157.794583,MERBL,EDU1,Castle High - Bldg S,45-386 KANEOHE BAY DR,KANEOHE,96744,HI,NULL,NULL,0,0,0,NULL,0
1978,HI001082,EFS1,15003010602,1963,1,1306025,7463,21.403144,-157.794583,WSF1,EDU1,Castle High - Bldg U,45-386 KANEOHE BAY DR,KANEOHE,96744,HI,NULL,NULL,0,0,0,NULL,0
1979,HI001083,EFS1,15003010602,1967,1,1080000,3600,21.403144,-157.794583,MERBL,EDU1,Castle High - Bldg Y,45-386 KANEOHE BAY DR,KANEOHE,96744,HI,NULL,NULL,0,0,0,NULL,0
1980,HI001084,EFS1,15003004200,1930,2,2903425,16591,21.311666,-157.856579,WSF2,EDU1,Central Interm/Middle - Bldg A,1302 QUEEN EMMA ST,HONOLULU,96813,HI,NULL,NULL,0,0,0,NULL,0
1981,HI001085,EFS1,15003006301,1956,2,2666400,8888,21.342385,-157.870868,MERBL,EDU1,Dole Middle - Bldg A,1715 KINO ST,HONOLULU,96819,HI,NULL,NULL,0,0,0,NULL,0
1982,HI001086,EFS1,15003006301,1956,2,2822400,9408,21.342385,-157.870868,MERBL,EDU1,Dole Middle - Bldg B,1715 KINO ST,HONOLULU,96819,HI,NULL,NULL,0,0,0,NULL,0
1983,HI001087,EFS1,15003006301,1957,2,2672400,8908,21.342385,-157.870868,MERBL,EDU1,Dole Middle - Bldg C,1715 KINO ST,HONOLULU,96819,HI,NULL,NULL,0,0,0,NULL,0
1984,HI001088,EFS1,15003006301,1957,2,2889000,9630,21.342385,-157.870868,MERBL,EDU1,Dole Middle - Bldg D,1715 KINO ST,HONOLULU,96819,HI,NULL,NULL,0,0,0,NULL,0
1985,HI001089,EFS1,15003006301,1957,2,2843700,9479,21.342385,-157.870868,MERBL,EDU1,Dole Middle - Bldg E,1715 KINO ST,HONOLULU,96819,HI,NULL,NULL,0,0,0,NULL,0
1986,HI001090,EFS1,15003006301,1958,2,2352000,7840,21.342385,-157.870868,MERBL,EDU1,Dole Middle - Bldg F,1715 KINO ST,HONOLULU,96819,HI,NULL,NULL,0,0,0,NULL,0
1987,HI001091,EFS1,15003008402,1959,2,3820800,12736,21.315444,-158.015033,MERBL,EDU1,Ewa Beach Elem - Bldg C,91-740 PAPIPI RD,EWA BEACH,96706,HI,NULL,NULL,0,0,0,NULL,0
1988,HI001092,EFS1,15003008402,1961,1,1449600,4832,21.315444,-158.015033,MERBL,EDU1,Ewa Beach Elem - Bldg E,91-740 PAPIPI RD,EWA BEACH,96706,HI,NULL,NULL,0,0,0,NULL,0
1989,HI001093,EFS1,15003008402,1962,1,569400,1898,21.315444,-158.015033,MERBL,EDU1,Ewa Beach Elem - Bldg G,91-740 PAPIPI RD,EWA BEACH,96706,HI,NULL,NULL,0,0,0,NULL,0
1990,HI001094,EFS1,15003008402,1997,1,2576100,8587,21.315444,-158.015033,MERBL,EDU1,Ewa Beach Elem - Bldg I,91-740 PAPIPI RD,EWA BEACH,96706,HI,NULL,NULL,0,0,0,NULL,0
1991,HI001095,EFS1,15003008605,1954,1,1290000,4300,21.3445,-158.034685,MERBL,EDU1,Ewa Elementary - Bldg C,91-1280 RENTON RD,EWA BEACH,96706,HI,NULL,NULL,0,0,0,NULL,0
1992,HI001096,EFS1,15003008605,1957,1,1473000,4910,21.3445,-158.034685,MERBL,EDU1,Ewa Elementary - Bldg D,91-1280 RENTON RD,EWA BEACH,96706,HI,NULL,NULL,0,0,0,NULL,0
1993,HI001097,EFS1,15003008605,1965,2,2817600,9392,21.3445,-158.034685,MERBL,EDU1,Ewa Elementary - Bldg I,91-1280 RENTON RD,EWA BEACH,96706,HI,NULL,NULL,0,0,0,NULL,0
1994,HI001098,EFS1,15003008605,1967,2,1654625,9455,21.3445,-158.034685,WSF2,EDU1,Ewa Elementary - Bldg J,91-1280 RENTON RD,EWA BEACH,96706,HI,NULL,NULL,0,0,0,NULL,0
1995,HI001099,EFS1,15003008605,1979,1,1119125,6395,21.3445,-158.034685,WSF1,EDU1,Ewa Elementary - Bldg K,91-1280 RENTON RD,EWA BEACH,96706,HI,NULL,NULL,0,0,0,NULL,0
1996,HI001100,EFS1,15003008605,1990,1,2890200,9634,21.3445,-158.034685,MERBL,EDU1,Ewa Elementary - Bldg L,91-1280 RENTON RD,EWA BEACH,96706,HI,NULL,NULL,0,0,0,NULL,0
1997,HI001101,EFS1,15003008605,1994,2,2890200,9634,21.3445,-158.034685,MERBL,EDU1,Ewa Elementary - Bldg M,91-1280 RENTON RD,EWA BEACH,96706,HI,NULL,NULL,0,0,0,NULL,0
1998,HI001102,EFS1,15003005600,1939,3,11689300,66796,21.330721,-157.87242,WMUH3,EDU1,Farrington High - Bldg A,1101 KALIHI ST,HONOLULU,96817,HI,NULL,NULL,0,0,0,NULL,0
1999,HI001103,EFS1,15003005600,1968,1,4428900,14763,21.330721,-157.87242,MERBL,EDU1,Farrington High - Bldg H,1101 KALIHI ST,HONOLULU,96817,HI,NULL,NULL,0,0,0,NULL,0
2000,HI001104,EFS1,15003005600,1964,3,6345900,21153,21.330721,-157.87242,MERBL,EDU1,Farrington High - Bldg I,1101 KALIHI ST,HONOLULU,96817,HI,NULL,NULL,0,0,0,NULL,0
2001,HI001105,EFS1,15003005600,1965,3,7407900,24693,21.330721,-157.87242,MERBL,EDU1,Farrington High - Bldg J,1101 KALIHI ST,HONOLULU,96817,HI,NULL,NULL,0,0,0,NULL,0
2002,HI001106,EFS1,15003005600,1965,2,3050400,10168,21.330721,-157.87242,MERBL,EDU1,Farrington High - Bldg O,1101 KALIHI ST,HONOLULU,96817,HI,NULL,NULL,0,0,0,NULL,0
2003,HI001107,EFS1,15003005600,1965,1,6905100,23017,21.330721,-157.87242,MERBL,EDU1,Farrington High - Bldg Q,1101 KALIHI ST,HONOLULU,96817,HI,NULL,NULL,0,0,0,NULL,0
2004,HI001108,EFS1,15003005600,1958,1,4738200,15794,21.330721,-157.87242,MERBL,EDU1,Farrington High - Bldg R,1101 KALIHI ST,HONOLULU,96817,HI,NULL,NULL,0,0,0,NULL,0
2005,HI001109,EFS1,15003005600,1975,2,2840400,9468,21.330721,-157.87242,MERBL,EDU1,Farrington High - Bldg U,1101 KALIHI ST,HONOLULU,96817,HI,NULL,NULL,0,0,0,NULL,0
2006,HI001110,EFS1,15003006201,1971,2,2620200,8734,21.338778,-157.881978,MERBL,EDU1,Fern Elementary - Bldg I,1121 MIDDLE ST,HONOLULU,96819,HI,NULL,NULL,0,0,0,NULL,0
2007,HI001111,EFS1,15003002701,1958,2,3012300,10041,21.291637,-157.81307,MERBL,EDU1,Hokulani Elementary - Bldg B,2940 KAMAKINI ST,HONOLULU,96816,HI,NULL,NULL,0,0,0,NULL,0
2008,HI001112,EFS1,15003002701,1960,2,3012300,10041,21.291637,-157.81307,MERBL,EDU1,Hokulani Elementary - Bldg C,2940 KAMAKINI ST,HONOLULU,96816,HI,NULL,NULL,0,0,0,NULL,0
2009,HI001113,EFS1,15003002701,1964,1,1872900,6243,21.291637,-157.81307,MERBL,EDU1,Hokulani Elementary - Bldg D,2940 KAMAKINI ST,HONOLULU,96816,HI,NULL,NULL,0,0,0,NULL,0
2010,HI001114,EFS1,15003002701,1971,1,387600,1292,21.291637,-157.81307,MERBL,EDU1,Hokulani Elementary - Bldg G,2940 KAMAKINI ST,HONOLULU,96816,HI,NULL,NULL,0,0,0,NULL,0
2011,HI001115,EFS1,15003008913,1968,1,1408800,4696,21.383732,-158.026214,MERBL,EDU1,Honowai Elementary - Bldg A,94-660 HONOWAI ST,WAIPAHU,96797,HI,NULL,NULL,0,0,0,NULL,0
2012,HI001116,EFS1,15003008913,1968,1,1219200,4064,21.383732,-158.026214,MERBL,EDU1,Honowai Elementary - Bldg B,94-660 HONOWAI ST,WAIPAHU,96797,HI,NULL,NULL,0,0,0,NULL,0
2013,HI001117,EFS1,15003008913,1968,1,1629600,5432,21.383732,-158.026214,MERBL,EDU1,Honowai Elementary - Bldg C,94-660 HONOWAI ST,WAIPAHU,96797,HI,NULL,NULL,0,0,0,NULL,0
2014,HI001118,EFS1,15003008913,1968,1,2652000,8840,21.383732,-158.026214,MERBL,EDU1,Honowai Elementary - Bldg D,94-660 HONOWAI ST,WAIPAHU,96797,HI,NULL,NULL,0,0,0,NULL,0
2015,HI001119,EFS1,15003008913,1968,1,1503600,8592,21.383732,-158.026214,WSF1,EDU1,Honowai Elementary - Bldg F,94-660 HONOWAI ST,WAIPAHU,96797,HI,NULL,NULL,0,0,0,NULL,0
2016,HI001120,EFS1,15003008913,1968,2,1612800,5376,21.383732,-158.026214,MERBL,EDU1,Honowai Elementary - Bldg G,94-660 HONOWAI ST,WAIPAHU,96797,HI,NULL,NULL,0,0,0,NULL,0
2017,HI001121,EFS1,15003008913,1968,1,1075200,3584,21.383732,-158.026214,MERBL,EDU1,Honowai Elementary - Bldg H,94-660 HONOWAI ST,WAIPAHU,96797,HI,NULL,NULL,0,0,0,NULL,0
2018,HI001122,EFS1,15003008913,1968,1,537600,1792,21.383732,-158.026214,MERBL,EDU1,Honowai Elementary - Bldg J,94-660 HONOWAI ST,WAIPAHU,96797,HI,NULL,NULL,0,0,0,NULL,0
2019,HI001123,EFS1,15003008913,1968,1,485100,2772,21.383732,-158.026214,WSF1,EDU1,Honowai Elementary - Bldg K,94-660 HONOWAI ST,WAIPAHU,96797,HI,NULL,NULL,0,0,0,NULL,0
2020,HI001124,EFS1,15003008913,1968,1,1095600,3652,21.383732,-158.026214,MERBL,EDU1,Honowai Elementary - Bldg L,94-660 HONOWAI ST,WAIPAHU,96797,HI,NULL,NULL,0,0,0,NULL,0
2021,HI001125,EFS1,15003009200,1964,2,3961800,13206,21.506227,-157.999094,MERBL,EDU1,Iliahi Elementary - Bldg A,2035 CALIFORNIA AVE,WAHIAWA,96786,HI,NULL,NULL,0,0,0,NULL,0
2022,HI001126,EFS1,15003009200,1965,2,4251600,14172,21.506227,-157.999094,MERBL,EDU1,Iliahi Elementary - Bldg C,2035 CALIFORNIA AVE,WAHIAWA,96786,HI,NULL,NULL,0,0,0,NULL,0
2023,HI001127,EFS1,15003009200,1969,1,1974900,6583,21.506227,-157.999094,MERBL,EDU1,Iliahi Elementary - Bldg D,2035 CALIFORNIA AVE,WAHIAWA,96786,HI,NULL,NULL,0,0,0,NULL,0
2024,HI001128,EFS1,15003008302,1962,2,3160200,10534,21.317162,-158.010902,MERBL,EDU1,Ilima Intermediate - Bldg A,91-950 NORTH RD EWA BCH,EWA BEACH,96706,HI,NULL,NULL,0,0,0,NULL,0
2025,HI001129,EFS1,15003008302,1962,2,3279900,10933,21.317162,-158.010902,MERBL,EDU1,Ilima Intermediate - Bldg B,91-950 NORTH RD EWA BCH,EWA BEACH,96706,HI,NULL,NULL,0,0,0,NULL,0
2026,HI001130,EFS1,15003008302,1962,2,4520400,15068,21.317162,-158.010902,MERBL,EDU1,Ilima Intermediate - Bldg C,91-950 NORTH RD EWA BCH,EWA BEACH,96706,HI,NULL,NULL,0,0,0,NULL,0
2027,HI001131,EFS1,15003008302,1962,2,1301100,4337,21.317162,-158.010902,MERBL,EDU1,Ilima Intermediate - Bldg D,91-950 NORTH RD EWA BCH,EWA BEACH,96706,HI,NULL,NULL,0,0,0,NULL,0
2028,HI001132,EFS1,15003008302,1962,2,3900600,13002,21.317162,-158.010902,MERBL,EDU1,Ilima Intermediate - Bldg E,91-950 NORTH RD EWA BCH,EWA BEACH,96706,HI,NULL,NULL,0,0,0,NULL,0
2029,HI001133,EFS1,15003008302,1980,1,3635400,12118,21.317162,-158.010902,MERBL,EDU1,Ilima Intermediate - Bldg I,91-950 NORTH RD EWA BCH,EWA BEACH,96706,HI,NULL,NULL,0,0,0,NULL,0
2030,HI001134,EFS1,15003008302,1963,1,1575300,5251,21.317162,-158.010902,MERBL,EDU1,Ilima Intermediate - Bldg J,91-950 NORTH RD EWA BCH,EWA BEACH,96706,HI,NULL,NULL,0,0,0,NULL,0
2031,HI001135,EFS1,15003001100,1956,2,2703900,9013,21.29712,-157.797237,MERBL,EDU1,Jarrett Intermediate - Bldg A,3360 KALUA RD,HONOLULU,96816,HI,NULL,NULL,0,0,0,NULL,0
2032,HI001136,EFS1,15003001100,1956,2,2685300,8951,21.29712,-157.797237,MERBL,EDU1,Jarrett Intermediate - Bldg B,3360 KALUA RD,HONOLULU,96816,HI,NULL,NULL,0,0,0,NULL,0
2033,HI001137,EFS1,15003001100,1957,2,4860300,16201,21.29712,-157.797237,MERBL,EDU1,Jarrett Intermediate - Bldg C,3360 KALUA RD,HONOLULU,96816,HI,NULL,NULL,0,0,0,NULL,0
2034,HI001138,EFS1,15003001100,1958,2,2304000,7680,21.29712,-157.797237,MERBL,EDU1,Jarrett Intermediate - Bldg D,3360 KALUA RD,HONOLULU,96816,HI,NULL,NULL,0,0,0,NULL,0
2035,HI001139,EFS1,15003001100,1960,1,3573900,11913,21.29712,-157.797237,MERBL,EDU1,Jarrett Intermediate - Bldg E,3360 KALUA RD,HONOLULU,96816,HI,NULL,NULL,0,0,0,NULL,0
2036,HI001140,EFS1,15003001100,1956,1,3145800,10486,21.29712,-157.797237,MERBL,EDU1,Jarrett Intermediate - Bldg G,3360 KALUA RD,HONOLULU,96816,HI,NULL,NULL,0,0,0,NULL,0
2037,HI001141,EFS1,15003001100,1957,1,2017800,6726,21.29712,-157.797237,MERBL,EDU1,Jarrett Intermediate - Bldg I,3360 KALUA RD,HONOLULU,96816,HI,NULL,NULL,0,0,0,NULL,0
2038,HI001142,EFS1,15003010303,1963,1,2432100,8107,21.457379,-157.845865,MERBL,EDU1,Kahaluu Elementary - Bldg C,47-248 WAIHEE RD,KANEOHE,96744,HI,NULL,NULL,0,0,0,NULL,0
2039,HI001143,EFS1,15003010303,1963,1,1902600,6342,21.457379,-157.845865,MERBL,EDU1,Kahaluu Elementary - Bldg D,47-248 WAIHEE RD,KANEOHE,96744,HI,NULL,NULL,0,0,0,NULL,0
2040,HI001144,EFS1,15009031101,1991,1,26705.17,91.05500031,20.87635,-156.48867,MERBL,EDU1,MAUI WAENA INTERM SCHOOL,795 ONEHEE STREET,KAHULUI,NULL,HI,NULL,(808) 873-3070,1017,0,0,NULL,0
2041,HI001145,EFS1,15007040400,1975,2,6605.28,0,21.99805,-159.35406,MERBL,EDU1,KAUMUALII ELEMENTARY SCHOOL,4380 HANAMAULU ROAD,LIHUE,NULL,HI,NULL,(808) 241-3150,534,0,0,NULL,0
2042,HI001146,EFS1,15003010303,1969,1,876600,2922,21.457379,-157.845865,MERBL,EDU1,Kahaluu Elementary - Bldg E,47-248 WAIHEE RD,KANEOHE,96744,HI,NULL,NULL,0,0,0,NULL,0
2043,HI001147,EFS1,15003010100,1991,1,545300,3116,21.674326,-157.951093,WSF1,EDU1,Kahuku Elementary - Bldg C,56-170 PUALALEA ST,KAHUKU,96731,HI,NULL,NULL,0,0,0,NULL,0
2044,HI001148,EFS1,15003010100,1993,1,3426675,19581,21.675327,-157.947965,WSF1,EDU1,Kahuku High & Interm - Bldg A,56-490 KAM HWY,KAHUKU,96731,HI,NULL,NULL,0,0,0,NULL,0
2045,HI001149,EFS1,15001021106,1991,1,13294.97,53.93600082,19.54142,-154.91364,MERBL,EDU1,KEONEPOKO ELEMENTARY SCHOOL,15-540 KANAKAI BOULEVARD,PAHOA,NULL,HI,NULL,(808) 965-2131,621,0,0,NULL,0
2046,HI001150,EFS1,15003010100,1962,1,1937700,6459,21.675327,-157.947965,MERBL,EDU1,Kahuku High & Interm - Bldg D,56-490 KAM HWY,KAHUKU,96731,HI,NULL,NULL,0,0,0,NULL,0
2047,HI001151,EFS1,15003010100,1968,1,2786400,9288,21.675327,-157.947965,MERBL,EDU1,Kahuku High & Interm - Bldg G,56-490 KAM HWY,KAHUKU,96731,HI,NULL,NULL,0,0,0,NULL,0
2048,HI001152,EFS1,15001021704,1996,1,7194.64,0,19.94898,-155.79154,MERBL,EDU1,WAIKOLOA ELEMENTARY SCHOOL,68-1730 HO'OKO STREET,WAIKOLOA,NULL,HI,NULL,(808) 883-6808,587,0,0,NULL,0
2049,HI001153,EFS1,15003010100,1971,1,602350,3442,21.675327,-157.947965,WSF1,EDU1,Kahuku High & Interm - Bldg O,56-490 KAM HWY,KAHUKU,96731,HI,NULL,NULL,0,0,0,NULL,0
2050,HI001154,EFS1,15003010100,1965,1,2121600,7072,21.675327,-157.947965,MERBL,EDU1,Kahuku High & Interm - Bldg R,56-490 KAM HWY,KAHUKU,96731,HI,NULL,NULL,0,0,0,NULL,0
2051,HI001155,EFS1,15001021902,1960,1,4759.36,0,20.07618,-155.46638,MERBL,EDU1,HONOKAA ELEMENTARY SCHOOL,45-534 PAKALANA STREET,HONOKAA,NULL,HI,NULL,(808) 775-8820,368,0,0,NULL,0
2052,HI001156,EFS1,15003010100,1978,1,5612400,18708,21.675327,-157.947965,MERBL,EDU1,Kahuku High & Interm - Bldg V,56-490 KAM HWY,KAHUKU,96731,HI,NULL,NULL,0,0,0,NULL,0
2053,HI001157,EFS1,15001021800,1968,1,8875.84,27.39999962,20.2014,-155.7864,WSF2,EDU1,KOHALA ELEMENTARY SCHOOL,54-3609 AKONI PULE HIGHWAY,KAPAAU,NULL,HI,NULL,(808) 889-7100,415,0,0,NULL,0
2054,HI001158,EFS1,15003010100,1979,3,7112400,23708,21.675327,-157.947965,MERBL,EDU1,Kahuku High & Interm - Bldg W,56-490 KAM HWY,KAHUKU,96731,HI,NULL,NULL,0,0,0,NULL,0
2055,HI001159,EFS1,15009030402,1996,1,39747.55,121.4229965,20.80866,-156.33019,MERBL,EDU1,KEKAULIKE HIGH SCHOOL,121 KULA HIGHWAY,MAKAWAO,NULL,HI,NULL,(808) 572-5866,1143,0,0,NULL,0
2056,HI001160,EFS1,15003010100,1980,1,2255400,12888,21.675327,-157.947965,WSF1,EDU1,Kahuku High & Interm - Bldg X,56-490 KAM HWY,KAHUKU,96731,HI,NULL,NULL,0,0,0,NULL,0
2057,HI001161,EFS1,15001021402,1960,1,7311.4,0,19.51161,-155.9215,MERBL,EDU1,KONAWAENA MIDDLE SCHOOL,81-1041 KONAWAENA SCHOOL ROAD,KEALAKEKUA,NULL,HI,NULL,(808) 323-4566,446,0,0,NULL,0
2058,HI001162,EFS1,15003010100,1987,1,4738200,15794,21.675327,-157.947965,MERBL,EDU1,Kahuku High & Interm - Bldg Y,56-490 KAM HWY,KAHUKU,96731,HI,NULL,NULL,0,0,0,NULL,0
2059,HI001163,EFS1,15009030706,1996,1,22573.74,72.2480011,20.77803,-156.4578,MERBL,EDU1,KAMALII ELEMENTARY SCHOOL,180 KEALII ALANUI,KIHEI,NULL,HI,NULL,(808) 875-6840,711,0,0,NULL,0
2060,HI001164,EFS1,15003010100,1985,1,3264000,10880,21.675327,-157.947965,MERBL,EDU1,Kahuku High & Interm - Bldg Z,56-490 KAM HWY,KAHUKU,96731,HI,NULL,NULL,0,0,0,NULL,0
2061,HI001165,EFS1,15001021504,1998,1,47087.89,157.3639984,19.67133,-156.0036,MERBL,EDU1,KEALAKEHE HIGH SCHOOL,74-5000 PUOHULIHULI STREET,KAILUA KONA,NULL,HI,NULL,(808) 327-4300,1500,0,0,NULL,0
2062,HI001166,EFS1,15007040204,1960,1,11106.1,0,22.08444,-159.3367,MERBL,EDU1,KAPAA MIDDLE SCHOOL,4867 OLOHENA ROAD,KAPAA,NULL,HI,NULL,(808) 821-4460,719,0,0,NULL,0
2063,HI001167,EFS1,15003011105,1951,1,1557000,5190,21.395074,-157.74136,MERBL,EDU1,Kailua Elementary - Bldg C,315 KUULEI RD,KAILUA,96734,HI,NULL,NULL,0,0,0,NULL,0
2064,HI001168,EFS1,15003011105,1951,1,1379700,4599,21.395074,-157.74136,MERBL,EDU1,Kailua Elementary - Bldg D,315 KUULEI RD,KAILUA,96734,HI,NULL,NULL,0,0,0,NULL,0
2065,HI001169,EFS1,15001020202,1963,1,40235.16,144.473999,19.7239,-155.09912,MERBL,EDU1,HILO HIGH SCHOOL,556 WAIANUENUE AVENUE,HILO,NULL,HI,NULL,(808) 974-4021,1558,0,0,NULL,0
2066,HI001170,EFS1,15003011105,1951,1,832500,2775,21.395074,-157.74136,MERBL,EDU1,Kailua Elementary - Bldg E,315 KUULEI RD,KAILUA,96734,HI,NULL,NULL,0,0,0,NULL,0
2067,HI001171,EFS1,15001020202,1960,2,9966.3,0,19.72316,-155.1,MERBL,EDU1,HILO INTERM SCHOOL,587 WAIANUENUE AVENUE,HILO,NULL,HI,NULL,(808) 974-4955,637,0,0,NULL,0
2068,HI001172,EFS1,15003011105,1951,1,832500,2775,21.395074,-157.74136,MERBL,EDU1,Kailua Elementary - Bldg G,315 KUULEI RD,KAILUA,96734,HI,NULL,NULL,0,0,0,NULL,0
2069,HI001173,EFS1,15003008302,1990,2,3869400,12898,21.319207,-158.009188,MERBL,EDU1,Kaimiloa Elem - Bldg E,91-1028 KAUNOLU ST,EWA BEACH,96706,HI,NULL,NULL,0,0,0,NULL,0
2070,HI001174,EFS1,15001021010,1965,1,16688.96,68.78299713,19.5555,-155.0983,MERBL,EDU1,MOUNTAIN VIEW ELEM SCHOOL,18-1235 VOLCANO HIGHWAY,MOUNTAIN VIEW,NULL,HI,NULL,(808) 968-8221,427,0,0,NULL,0
2071,HI001175,EFS1,15003008302,1975,2,5339700,17799,21.319207,-158.009188,MERBL,EDU1,Kaimiloa Elem - Bldg F,91-1028 KAUNOLU ST,EWA BEACH,96706,HI,NULL,NULL,0,0,0,NULL,0
2072,HI001176,EFS1,15001021202,1944,1,4748.24,0,19.06504,-155.58252,MERBL,EDU1,NAALEHU ELEM & INTER  SCHOOL,95-5545 MAMALAHOA HIGHWAY,NAALEHU,NULL,HI,NULL,(808) 939-2413,367,0,0,NULL,0
2073,HI001177,EFS1,15003008302,1968,1,156800,896,21.319207,-158.009188,WSF1,EDU1,Kaimiloa Elem - Bldg P25,91-1028 KAUNOLU ST,EWA BEACH,96706,HI,NULL,NULL,0,0,0,NULL,0
2074,HI001178,EFS1,15001022000,1944,1,4019.88,0,19.871,-155.4676,MERBL,EDU1,PAAUILO ELEM & INT SCHOOL,43-1497 Hauola Rd,PAAUILO,NULL,HI,NULL,(808) 766-7710,241,0,0,NULL,0
2075,HI001179,EFS1,15003002100,1949,2,3147600,10492,21.285967,-157.817469,MERBL,EDU1,Kaimuki High - Bldg A,2705 KAIMUKI AVE,HONOLULU,96816,HI,NULL,NULL,0,0,0,NULL,0
2076,HI001180,EFS1,15001021106,1970,1,31578.82,116.1299973,19.51461,-154.90462,MERBL,EDU1,PAHOA HIGH & INTERMEDIATE SCHOOL,15-3038 PUNA ROAD,PAHOA,NULL,HI,NULL,(808) 965-2150,634,0,0,NULL,0
2077,HI001181,EFS1,15003002100,1949,2,3147600,10492,21.285967,-157.817469,MERBL,EDU1,Kaimuki High - Bldg B,2705 KAIMUKI AVE,HONOLULU,96816,HI,NULL,NULL,0,0,0,NULL,0
2078,HI001182,EFS1,15001020500,1975,1,21400.78,68.40100098,19.6973,-155.08065,CERBL,EDU1,WAIAKEA ELEMENTARY SCHOOL,180 WEST PUAINAKO STREET,HILO,NULL,HI,NULL,(808) 959-4541,826,0,0,NULL,0
2079,HI001183,EFS1,15003002100,1949,2,3147600,10492,21.285967,-157.817469,MERBL,EDU1,Kaimuki High - Bldg C,2705 KAIMUKI AVE,HONOLULU,96816,HI,NULL,NULL,0,0,0,NULL,0
2080,HI001184,EFS1,15001020500,1982,1,64687.83,207.4459992,19.70489,-155.0784,MERBL,EDU1,WAIAKEA HIGH SCHOOL,155 KAWILI STREET,HILO,NULL,HI,NULL,(808) 974-4888,1113,0,0,NULL,0
2081,HI001185,EFS1,15003002100,1951,1,2009100,6697,21.285967,-157.817469,MERBL,EDU1,Kaimuki High - Bldg E,2705 KAIMUKI AVE,HONOLULU,96816,HI,NULL,NULL,0,0,0,NULL,0
2082,HI001186,EFS1,15001020500,1944,1,13733.2,0,19.69729,-155.08089,MERBL,EDU1,WAIAKEA INTERMEDIATE SCHOOL,200 WEST PUAINAKO STREET,HILO,NULL,HI,NULL,(808) 984-7231,908,0,0,NULL,0
2083,HI001187,EFS1,15003002100,1952,2,3175500,10585,21.285967,-157.817469,MERBL,EDU1,Kaimuki High - Bldg F,2705 KAIMUKI AVE,HONOLULU,96816,HI,NULL,NULL,0,0,0,NULL,0
2084,HI001188,EFS1,15001020701,1965,1,5090.79,51.79199982,19.68708,-155.07042,MERBL,EDU1,WAIAKEAWAENA ELEMENTARY ,2420 KILAUEA AVENUE,HILO,NULL,HI,NULL,(808) 959-5821,702,0,0,NULL,0
2085,HI001189,EFS1,15003002100,1952,2,3043200,10144,21.285967,-157.817469,MERBL,EDU1,Kaimuki High - Bldg G,2705 KAIMUKI AVE,HONOLULU,96816,HI,NULL,NULL,0,0,0,NULL,0
2086,HI001190,EFS1,15001021702,1980,1,2882.94,29.29999924,20.02095,-155.67507,MERBL,EDU1,WAIMEA ELEMENTARY,67-1255 MAMALAHOA HIGHWAY,KAMUELA,NULL,HI,NULL,(808) 887-7636,648,0,0,NULL,0
2087,HI001191,EFS1,15003002100,1949,2,3147600,10492,21.285967,-157.817469,MERBL,EDU1,Kaimuki High - Bldg H,2705 KAIMUKI AVE,HONOLULU,96816,HI,NULL,NULL,0,0,0,NULL,0
2088,HI001192,EFS1,15003002100,1965,1,616800,2056,21.285967,-157.817469,MERBL,EDU1,Kaimuki High - Bldg R,2705 KAIMUKI AVE,HONOLULU,96816,HI,NULL,NULL,0,0,0,NULL,0
2089,HI001193,EFS1,15003002100,1962,1,804000,2680,21.285967,-157.817469,MERBL,EDU1,Kaimuki High - Bldg T,2705 KAIMUKI AVE,HONOLULU,96816,HI,NULL,NULL,0,0,0,NULL,0
2090,HI001194,EFS1,15001021013,1975,1,9018.32,0,19.62111,-155.04004,MERBL,EDU1,KEAAU ELEMENTARY SCHOOL,16-680 KEAAU-PAHOA ROAD,KEAAU,NULL,HI,NULL,(808) 982-4210,751,0,0,NULL,0
2091,HI001195,EFS1,15003002100,1982,1,1518600,5062,21.285967,-157.817469,MERBL,EDU1,Kaimuki High - Bldg U,2705 KAIMUKI AVE,HONOLULU,96816,HI,NULL,NULL,0,0,0,NULL,0
2092,HI001196,EFS1,15003002100,1977,1,6162000,20540,21.285967,-157.817469,MERBL,EDU1,Kaimuki High - Bldg X,2705 KAIMUKI AVE,HONOLULU,96816,HI,NULL,NULL,0,0,0,NULL,0
2093,HI001197,EFS1,15001021013,1975,1,32631.17,119.5230026,19.62116,-155.03986,CERBL,EDU1,KEAAU HIGH SCHOOL,16-725 KEAAU-PAHOA ROAD,KEAAU,NULL,HI,NULL,(808) 982-4220,867,0,0,NULL,0
2094,HI001198,EFS1,15003000700,1963,1,1103100,3677,21.26989,-157.79698,MERBL,EDU1,Kaimuki Middle - Bldg B,4031 KILAUEA AVE,HONOLULU,96816,HI,NULL,NULL,0,0,0,NULL,0
2095,HI001199,EFS1,15003000700,1959,2,4427700,14759,21.26989,-157.79698,MERBL,EDU1,Kaimuki Middle - Bldg C,4031 KILAUEA AVE,HONOLULU,96816,HI,NULL,NULL,0,0,0,NULL,0
2096,HI001200,EFS1,15001020300,1974,1,4853.88,0,19.7294,-155.08959,MERBL,EDU1,CONNECTIONS PUBLIC CHARTER ,174 KAMEHAMEHA AVENUE,HILO,NULL,HI,NULL,(808) 961-3664,291,0,0,NULL,0
2097,HI001201,EFS1,15003000700,1957,1,2157600,7192,21.26989,-157.79698,MERBL,EDU1,Kaimuki Middle - Bldg H,4031 KILAUEA AVE,HONOLULU,96816,HI,NULL,NULL,0,0,0,NULL,0
2098,HI001202,EFS1,15001021702,1982,1,7547.7,0,20.016,-155.653,MERBL,EDU1,KANU O KA 'AINA PUBLIC CHARTER SCH,64-1041 Hiiaka St,WAIMEA,NULL,HI,NULL,(808) 887-8144,463,0,0,NULL,0
2099,HI001203,EFS1,15003000700,1957,2,4339800,14466,21.26989,-157.79698,MERBL,EDU1,Kaimuki Middle - Bldg J,4031 KILAUEA AVE,HONOLULU,96816,HI,NULL,NULL,0,0,0,NULL,0
2100,HI001204,EFS1,15001020600,1982,1,1918.2,0,19.73166,-155.04853,WSF1,EDU1,KA 'UMEKE KA'EO PUBLIC CHARTER ,222 DESHA AVENUE,HILO,NULL,HI,NULL,(808) 933-1295,138,0,0,NULL,0
2101,HI001205,EFS1,15003000105,1973,3,21647100,72157,21.284778,-157.695995,MERBL,EDU1,Kaiser High - Bldg H,511 LUNALILO HOME RD,HONOLULU,96825,HI,NULL,NULL,0,0,0,NULL,0
2102,HI001206,EFS1,15001021013,1982,1,1390,0,19.60595,-155.03036,WSF1,EDU1,KE KULA 'O NAWAHIOKALANI 'OPU'U IKI L,16-120 OPUKAHAIA ST  SUITE 2,KEAAU,NULL,HI,NULL,(808) 982-4260,76,0,0,NULL,0
2103,HI001207,EFS1,15003000105,1974,2,3560700,11869,21.284778,-157.695995,MERBL,EDU1,Kaiser High - Bldg K,511 LUNALILO HOME RD,HONOLULU,96825,HI,NULL,NULL,0,0,0,NULL,0
2104,HI001208,EFS1,15003000105,1974,1,6623700,22079,21.284778,-157.695995,MERBL,EDU1,Kaiser High - Bldg L,511 LUNALILO HOME RD,HONOLULU,96825,HI,NULL,NULL,0,0,0,NULL,0
2105,HI001209,EFS1,15003005700,1956,2,3220200,10734,21.321205,-157.867602,MERBL,EDU1,Kaiulani Elementary - Bldg A,783 N KING ST,HONOLULU,96817,HI,NULL,NULL,0,0,0,NULL,0
2106,HI001210,EFS1,15001021402,1982,1,2385.24,0,19.51161,-155.9215,WSF1,EDU1,KE KULA O EHUNUIKAIMALINO,81-1045 KONAWAENA SCHOOL ROAD,KEALAKEKUA,NULL,HI,NULL,(808) 323-0021,143,0,0,NULL,0
2107,HI001211,EFS1,15003005700,1956,2,3220200,10734,21.321205,-157.867602,MERBL,EDU1,Kaiulani Elementary - Bldg B,783 N KING ST,HONOLULU,96817,HI,NULL,NULL,0,0,0,NULL,0
2108,HI001212,EFS1,15001021101,1982,1,1668,0,19.4801,-154.9276,WSF1,EDU1,KUA 'O KA LA PUBLIC CHARTER SCHOOL,14-5322 Kalapana-Kapoho Rd,PAHOA,NULL,HI,NULL,(808) 965-5098,78,0,0,NULL,0
2109,HI001213,EFS1,15007940000,1977,1,1668,0,22.1452,-159.3155,WSF1,EDU1,KANUIKAPONO CHARTER SCHOOL,4333 Kukuihale Rd,AHAHOLA,NULL,HI,NULL,(808) 823-9160,48,0,0,NULL,0
2110,HI001214,EFS1,15003005700,1960,2,3150900,10503,21.321205,-157.867602,MERBL,EDU1,Kaiulani Elementary - Bldg C,783 N KING ST,HONOLULU,96817,HI,NULL,NULL,0,0,0,NULL,0
2111,HI001215,EFS1,15003005700,1970,2,1157800,6616,21.321205,-157.867602,WSF2,EDU1,Kaiulani Elementary - Bldg F,783 N KING ST,HONOLULU,96817,HI,NULL,NULL,0,0,0,NULL,0
2112,HI001216,EFS1,15009031801,1977,1,3019.08,0,21.17031,-157.0699,MERBL,EDU1,MOLOKAI INTERMEDIATE SCHOOL,2175 Lihi Pali Ave,HOOLEHUA,NULL,HI,NULL,(808) 567-6940,181,0,0,NULL,0
2113,HI001217,EFS1,15003010901,1968,2,2841600,9472,21.407988,-157.757733,MERBL,EDU1,Kalaheo High - Bldg A,730 ILIAINA ST,KAILUA,96734,HI,NULL,NULL,0,0,0,NULL,0
2114,HI001218,EFS1,15003010901,1966,2,2941500,9805,21.407988,-157.757733,MERBL,EDU1,Kalaheo High - Bldg C,730 ILIAINA ST,KAILUA,96734,HI,NULL,NULL,0,0,0,NULL,0
2115,HI001219,EFS1,15003010901,1968,2,3543600,11812,21.407988,-157.757733,MERBL,EDU1,Kalaheo High - Bldg D,730 ILIAINA ST,KAILUA,96734,HI,NULL,NULL,0,0,0,NULL,0
2116,HI001220,EFS1,15003010901,1970,2,3104400,10348,21.407988,-157.757733,MERBL,EDU1,Kalaheo High - Bldg F,730 ILIAINA ST,KAILUA,96734,HI,NULL,NULL,0,0,0,NULL,0
2117,HI001221,EFS1,15003010901,1974,1,6899700,22999,21.407988,-157.757733,MERBL,EDU1,Kalaheo High - Bldg G,730 ILIAINA ST,KAILUA,96734,HI,NULL,NULL,0,0,0,NULL,0
2118,HI001222,EFS1,15003010901,1974,2,5127850,29302,21.407988,-157.757733,WSF2,EDU1,Kalaheo High - Bldg H,730 ILIAINA ST,KAILUA,96734,HI,NULL,NULL,0,0,0,NULL,0
2119,HI001223,EFS1,15003010901,1966,1,1771875,10125,21.407988,-157.757733,WSF1,EDU1,Kalaheo High - Bldg I,730 ILIAINA ST,KAILUA,96734,HI,NULL,NULL,0,0,0,NULL,0
2120,HI001224,EFS1,15003010901,1968,1,782250,4470,21.407988,-157.757733,WSF1,EDU1,Kalaheo High - Bldg J,730 ILIAINA ST,KAILUA,96734,HI,NULL,NULL,0,0,0,NULL,0
2121,HI001225,EFS1,15003010901,1966,2,3610425,20631,21.407988,-157.757733,WSF2,EDU1,Kalaheo High - Bldg K,730 ILIAINA ST,KAILUA,96734,HI,NULL,NULL,0,0,0,NULL,0
2122,HI001226,EFS1,15003010901,1968,2,2603100,8677,21.407988,-157.757733,MERBL,EDU1,Kalaheo High - Bldg L,730 ILIAINA ST,KAILUA,96734,HI,NULL,NULL,0,0,0,NULL,0
2123,HI001227,EFS1,15003010901,1975,1,3069900,10233,21.407988,-157.757733,MERBL,EDU1,Kalaheo High - Bldg M,730 ILIAINA ST,KAILUA,96734,HI,NULL,NULL,0,0,0,NULL,0
2124,HI001228,EFS1,15003005800,1965,2,3600000,12000,21.328319,-157.876619,MERBL,EDU1,Kalakaua Middle - Bldg E,821 KALIHI ST,HONOLULU,96817,HI,NULL,NULL,0,0,0,NULL,0
2125,HI001229,EFS1,15003005800,1961,1,2821500,9405,21.328319,-157.876619,MERBL,EDU1,Kalakaua Middle - Bldg F,821 KALIHI ST,HONOLULU,96817,HI,NULL,NULL,0,0,0,NULL,0
2126,HI001230,EFS1,15003005800,1967,1,2089800,6966,21.328319,-157.876619,MERBL,EDU1,Kalakaua Middle - Bldg K,821 KALIHI ST,HONOLULU,96817,HI,NULL,NULL,0,0,0,NULL,0
2127,HI001231,EFS1,15003005800,1963,2,3768000,12560,21.328319,-157.876619,MERBL,EDU1,Kalakaua Middle - Bldg L,821 KALIHI ST,HONOLULU,96817,HI,NULL,NULL,0,0,0,NULL,0
2128,HI001232,EFS1,15003005800,1971,1,1333200,4444,21.328319,-157.876619,MERBL,EDU1,Kalakaua Middle - Bldg M,821 KALIHI ST,HONOLULU,96817,HI,NULL,NULL,0,0,0,NULL,0
2129,HI001233,EFS1,15003005800,1971,2,2876400,9588,21.328319,-157.876619,MERBL,EDU1,Kalakaua Middle - Bldg N,821 KALIHI ST,HONOLULU,96817,HI,NULL,NULL,0,0,0,NULL,0
2130,HI001234,EFS1,15003005800,1971,2,2850000,9500,21.328319,-157.876619,MERBL,EDU1,Kalakaua Middle - Bldg O,821 KALIHI ST,HONOLULU,96817,HI,NULL,NULL,0,0,0,NULL,0
2131,HI001235,EFS1,15003005800,1973,2,2864100,9547,21.328319,-157.876619,MERBL,EDU1,Kalakaua Middle - Bldg R,821 KALIHI ST,HONOLULU,96817,HI,NULL,NULL,0,0,0,NULL,0
2132,HI001236,EFS1,15003009701,1993,2,2973900,9913,21.457086,-158.195385,MERBL,EDU1,Kamaile Elem PCCS - Bldg F,85-180 ALA AKAU ST,WAIANAE,96792,HI,NULL,NULL,0,0,0,NULL,0
2133,HI001237,EFS1,15003009701,1990,2,2669100,8897,21.457086,-158.195385,MERBL,EDU1,Kamaile Elem PCCS - Bldg G,85-180 ALA AKAU ST,WAIANAE,96792,HI,NULL,NULL,0,0,0,NULL,0
2134,HI001238,EFS1,15003000109,1973,2,5274000,17580,21.294265,-157.684931,MERBL,EDU1,Kamiloiki Elementary - Bldg A,7788 HAWAII KAI DR,HONOLULU,96825,HI,NULL,NULL,0,0,0,NULL,0
2135,HI001239,EFS1,15003000109,1971,2,5438400,18128,21.294265,-157.684931,MERBL,EDU1,Kamiloiki Elementary - Bldg C,7788 HAWAII KAI DR,HONOLULU,96825,HI,NULL,NULL,0,0,0,NULL,0
2136,HI001240,EFS1,15003000109,1975,1,1171275,6693,21.294265,-157.684931,WSF1,EDU1,Kamiloiki Elementary - Bldg E,7788 HAWAII KAI DR,HONOLULU,96825,HI,NULL,NULL,0,0,0,NULL,0
2137,HI001241,EFS1,15003010602,1956,1,2370900,7903,21.395946,-157.795852,MERBL,EDU1,Kaneohe Elementary - Bldg C,45-495 KAM HWY,KANEOHE,96744,HI,NULL,NULL,0,0,0,NULL,0
2138,HI001242,EFS1,15003010602,1956,1,2370900,7903,21.395946,-157.795852,MERBL,EDU1,Kaneohe Elementary - Bldg D,45-495 KAM HWY,KANEOHE,96744,HI,NULL,NULL,0,0,0,NULL,0
2139,HI001243,EFS1,15003010602,1956,1,1493100,4977,21.395946,-157.795852,MERBL,EDU1,Kaneohe Elementary - Bldg E,45-495 KAM HWY,KANEOHE,96744,HI,NULL,NULL,0,0,0,NULL,0
2140,HI001244,EFS1,15003010602,1958,1,1493100,4977,21.395946,-157.795852,MERBL,EDU1,Kaneohe Elementary - Bldg F,45-495 KAM HWY,KANEOHE,96744,HI,NULL,NULL,0,0,0,NULL,0
2141,HI001245,EFS1,15003008923,1982,1,2656500,8855,21.416094,-157.998502,MERBL,EDU1,Kanoelani Elementary - Bldg A,94-1091 OLI LP,WAIPAHU,96797,HI,NULL,NULL,0,0,0,NULL,0
2142,HI001246,EFS1,15003008923,1982,1,2640000,8800,21.416094,-157.998502,MERBL,EDU1,Kanoelani Elementary - Bldg B,94-1091 OLI LP,WAIPAHU,96797,HI,NULL,NULL,0,0,0,NULL,0
2143,HI001247,EFS1,15003008923,1984,2,2029800,6766,21.416094,-157.998502,MERBL,EDU1,Kanoelani Elementary - Bldg C,94-1091 OLI LP,WAIPAHU,96797,HI,NULL,NULL,0,0,0,NULL,0
2144,HI001248,EFS1,15003008923,1987,1,989625,5655,21.416094,-157.998502,WSF1,EDU1,Kanoelani Elementary - Bldg D,94-1091 OLI LP,WAIPAHU,96797,HI,NULL,NULL,0,0,0,NULL,0
2145,HI001249,EFS1,15003008923,1987,1,1347900,4493,21.416094,-157.998502,MERBL,EDU1,Kanoelani Elementary - Bldg F,94-1091 OLI LP,WAIPAHU,96797,HI,NULL,NULL,0,0,0,NULL,0
2146,HI001250,EFS1,15003005600,1965,2,2886600,9622,21.334887,-157.869479,MERBL,EDU1,Kapalama Elementary - Bldg A,1601 N SCHOOL ST,HONOLULU,96817,HI,NULL,NULL,0,0,0,NULL,0
2147,HI001251,EFS1,15003005600,1966,2,2821200,9404,21.334887,-157.869479,MERBL,EDU1,Kapalama Elementary - Bldg B,1601 N SCHOOL ST,HONOLULU,96817,HI,NULL,NULL,0,0,0,NULL,0
2148,HI001252,EFS1,15003005600,1970,2,2091600,11952,21.334887,-157.869479,WSF2,EDU1,Kapalama Elementary - Bldg C,1601 N SCHOOL ST,HONOLULU,96817,HI,NULL,NULL,0,0,0,NULL,0
2149,HI001253,EFS1,15003005600,1954,1,1927200,6424,21.334887,-157.869479,MERBL,EDU1,Kapalama Elementary - Bldg D,1601 N SCHOOL ST,HONOLULU,96817,HI,NULL,NULL,0,0,0,NULL,0
2150,HI001254,EFS1,15003005600,1967,1,1423975,8137,21.334887,-157.869479,WSF1,EDU1,Kapalama Elementary - Bldg E,1601 N SCHOOL ST,HONOLULU,96817,HI,NULL,NULL,0,0,0,NULL,0
2151,HI001255,EFS1,15003005600,1957,1,4043100,13477,21.334887,-157.869479,MERBL,EDU1,Kapalama Elementary - Bldg F,1601 N SCHOOL ST,HONOLULU,96817,HI,NULL,NULL,0,0,0,NULL,0
2152,HI001256,EFS1,15003008607,1993,2,3065700,10219,21.333888,-158.064331,MERBL,EDU1,Kapolei Elementary - Bldg D,91-1119 KAMAAHA LP,KAPOLEI,96707,HI,NULL,NULL,0,0,0,NULL,0
2153,HI001257,EFS1,15003008607,1993,2,2793600,9312,21.333888,-158.064331,MERBL,EDU1,Kapolei Elementary - Bldg E,91-1119 KAMAAHA LP,KAPOLEI,96707,HI,NULL,NULL,0,0,0,NULL,0
2154,HI001258,EFS1,15003008607,1993,2,2699700,8999,21.333888,-158.064331,MERBL,EDU1,Kapolei Elementary - Bldg F,91-1119 KAMAAHA LP,KAPOLEI,96707,HI,NULL,NULL,0,0,0,NULL,0
2155,HI001259,EFS1,15003008607,2000,1,2560075,14629,21.328589,-158.068505,WSF1,EDU1,Kapolei High - Bldg B,91-5007 KAPOLEI PKWY,KAPOLEI,96707,HI,NULL,NULL,0,0,0,NULL,0
2156,HI001260,EFS1,15003008607,2000,1,1155700,6604,21.328589,-158.068505,WSF1,EDU1,Kapolei High - Bldg D,91-5007 KAPOLEI PKWY,KAPOLEI,96707,HI,NULL,NULL,0,0,0,NULL,0
2157,HI001261,EFS1,15003008607,2000,1,6746075,38549,21.328589,-158.068505,WSF1,EDU1,Kapolei High - Bldg G,91-5007 KAPOLEI PKWY,KAPOLEI,96707,HI,NULL,NULL,0,0,0,NULL,0
2158,HI001262,EFS1,15003010302,1962,1,2224200,7414,21.407895,-157.803996,MERBL,EDU1,Kapunahala Elementary - Bldg A,45-800 ANOI RD,KANEOHE,96744,HI,NULL,NULL,0,0,0,NULL,0
2159,HI001263,EFS1,15003010302,1962,2,3883800,12946,21.407895,-157.803996,MERBL,EDU1,Kapunahala Elementary - Bldg B,45-800 ANOI RD,KANEOHE,96744,HI,NULL,NULL,0,0,0,NULL,0
2160,HI001264,EFS1,15003010302,1963,2,3883800,12946,21.407895,-157.803996,MERBL,EDU1,Kapunahala Elementary - Bldg C,45-800 ANOI RD,KANEOHE,96744,HI,NULL,NULL,0,0,0,NULL,0
2161,HI001265,EFS1,15003010302,1962,1,1365525,7803,21.407895,-157.803996,WSF1,EDU1,Kapunahala Elementary - Bldg D,45-800 ANOI RD,KANEOHE,96744,HI,NULL,NULL,0,0,0,NULL,0
2162,HI001266,EFS1,15003005300,1973,2,3195600,10652,21.319316,-157.859333,MERBL,EDU1,Kauluwela Elem - Bldg S,1480 AALA ST,HONOLULU,96817,HI,NULL,NULL,0,0,0,NULL,0
2163,HI001267,EFS1,15003004300,1964,2,1356300,4521,21.318976,-157.851923,MERBL,EDU1,Kawananakoa Middle - Bldg C,49 FUNCHAL ST,HONOLULU,96813,HI,NULL,NULL,0,0,0,NULL,0
2164,HI001268,EFS1,15003000102,1962,1,1485000,4950,21.274647,-157.704478,MERBL,EDU1,Koko Head Elementary - Bldg F,189 LUNALILO HOME RD,HONOLULU,96825,HI,NULL,NULL,0,0,0,NULL,0
2165,HI001269,EFS1,15003000102,1969,1,1191900,3973,21.274647,-157.704478,MERBL,EDU1,Koko Head Elementary - Bldg J,189 LUNALILO HOME RD,HONOLULU,96825,HI,NULL,NULL,0,0,0,NULL,0
2166,HI001270,EFS1,15003000102,1976,1,1516800,5056,21.274647,-157.704478,MERBL,EDU1,Koko Head Elementary - Bldg K,189 LUNALILO HOME RD,HONOLULU,96825,HI,NULL,NULL,0,0,0,NULL,0
2167,HI001271,EFS1,15003000102,1967,1,189175,1081,21.274647,-157.704478,WSF1,EDU1,Koko Head Elementary - Bldg P3,189 LUNALILO HOME RD,HONOLULU,96825,HI,NULL,NULL,0,0,0,NULL,0
2168,HI001272,EFS1,15003000102,1967,1,156800,896,21.274647,-157.704478,WSF1,EDU1,Koko Head Elementary - Bldg P4,189 LUNALILO HOME RD,HONOLULU,96825,HI,NULL,NULL,0,0,0,NULL,0
2169,HI001273,EFS1,15003000102,1967,1,156800,896,21.274647,-157.704478,WSF1,EDU1,Koko Head Elementary - Bldg P5,189 LUNALILO HOME RD,HONOLULU,96825,HI,NULL,NULL,0,0,0,NULL,0
2170,HI001274,EFS1,15003000102,1967,1,156800,896,21.274647,-157.704478,WSF1,EDU1,Koko Head Elementary - Bldg P6,189 LUNALILO HOME RD,HONOLULU,96825,HI,NULL,NULL,0,0,0,NULL,0
2171,HI001275,EFS1,15003002300,1950,1,1100400,3668,21.28961,-157.819758,MERBL,EDU1,Kuhio Elementary - Bldg B,2759 S KING ST,HONOLULU,96826,HI,NULL,NULL,0,0,0,NULL,0
2172,HI001276,EFS1,15003002300,1963,2,2545800,8486,21.28961,-157.819758,MERBL,EDU1,Kuhio Elementary - Bldg C,2759 S KING ST,HONOLULU,96826,HI,NULL,NULL,0,0,0,NULL,0
2173,HI001277,EFS1,15003002300,1976,2,4127400,13758,21.28961,-157.819758,MERBL,EDU1,Kuhio Elementary - Bldg H,2759 S KING ST,HONOLULU,96826,HI,NULL,NULL,0,0,0,NULL,0
2174,HI001278,EFS1,15003004900,1966,2,3537600,11792,21.326437,-157.860702,MERBL,EDU1,Lanakila Elementary - Bldg C,717 N KUAKINI ST,HONOLULU,96817,HI,NULL,NULL,0,0,0,NULL,0
2175,HI001279,EFS1,15003004900,1967,2,3537600,11792,21.326437,-157.860702,MERBL,EDU1,Lanakila Elementary - Bldg D,717 N KUAKINI ST,HONOLULU,96817,HI,NULL,NULL,0,0,0,NULL,0
2176,HI001280,EFS1,15003004900,1965,1,1257025,7183,21.326437,-157.860702,WSF1,EDU1,Lanakila Elementary - Bldg F,717 N KUAKINI ST,HONOLULU,96817,HI,NULL,NULL,0,0,0,NULL,0
2177,HI001281,EFS1,15003008100,1965,2,3425100,11417,21.388696,-157.971168,MERBL,EDU1,Lehua Elementary - Bldg A,781 LEHUA AVE,PEARL CITY,96782,HI,NULL,NULL,0,0,0,NULL,0
2178,HI001282,EFS1,15003008100,1965,2,3425100,11417,21.388696,-157.971168,MERBL,EDU1,Lehua Elementary - Bldg B,781 LEHUA AVE,PEARL CITY,96782,HI,NULL,NULL,0,0,0,NULL,0
2179,HI001283,EFS1,15003008100,1967,2,1895425,10831,21.388696,-157.971168,WSF2,EDU1,Lehua Elementary - Bldg D,781 LEHUA AVE,PEARL CITY,96782,HI,NULL,NULL,0,0,0,NULL,0
2180,HI001284,EFS1,15003008100,1965,1,1281000,7320,21.388696,-157.971168,WSF1,EDU1,Lehua Elementary - Bldg E,781 LEHUA AVE,PEARL CITY,96782,HI,NULL,NULL,0,0,0,NULL,0
2181,HI001285,EFS1,15003009702,1987,1,1177400,6728,21.438689,-158.17437,WSF1,EDU1,Leihoku Elementary - Bldg C,86-285 LEIHOKU ST,WAIANAE,96792,HI,NULL,NULL,0,0,0,NULL,0
2182,HI001286,EFS1,15003009702,1980,2,2722800,9076,21.438689,-158.17437,MERBL,EDU1,Leihoku Elementary - Bldg D,86-285 LEIHOKU ST,WAIANAE,96792,HI,NULL,NULL,0,0,0,NULL,0
2183,HI001287,EFS1,15003009702,1980,2,2722800,9076,21.438689,-158.17437,MERBL,EDU1,Leihoku Elementary - Bldg E,86-285 LEIHOKU ST,WAIANAE,96792,HI,NULL,NULL,0,0,0,NULL,0
2184,HI001288,EFS1,15003009702,1980,1,277375,1585,21.438689,-158.17437,WSF1,EDU1,Leihoku Elementary - Bldg G,86-285 LEIHOKU ST,WAIANAE,96792,HI,NULL,NULL,0,0,0,NULL,0
2185,HI001289,EFS1,15003009702,1985,2,2527200,8424,21.438689,-158.17437,MERBL,EDU1,Leihoku Elementary - Bldg H,86-285 LEIHOKU ST,WAIANAE,96792,HI,NULL,NULL,0,0,0,NULL,0
2186,HI001290,EFS1,15003009702,1983,2,2604600,8682,21.438689,-158.17437,MERBL,EDU1,Leihoku Elementary - Bldg J,86-285 LEIHOKU ST,WAIANAE,96792,HI,NULL,NULL,0,0,0,NULL,0
2187,HI001291,EFS1,15003009200,1949,1,1327200,4424,21.500558,-158.012026,MERBL,EDU1,Leilehua High - Bldg B,1515 CALIFORNIA AVE,WAHIAWA,96786,HI,NULL,NULL,0,0,0,NULL,0
2188,HI001292,EFS1,15003009200,1970,1,2219400,7398,21.500558,-158.012026,MERBL,EDU1,Leilehua High - Bldg EE,1515 CALIFORNIA AVE,WAHIAWA,96786,HI,NULL,NULL,0,0,0,NULL,0
2189,HI001293,EFS1,15003009200,1965,2,4982400,16608,21.500558,-158.012026,MERBL,EDU1,Leilehua High - Bldg N,1515 CALIFORNIA AVE,WAHIAWA,96786,HI,NULL,NULL,0,0,0,NULL,0
2190,HI001294,EFS1,15003009200,1968,2,7943100,26477,21.500558,-158.012026,MERBL,EDU1,Leilehua High - Bldg R,1515 CALIFORNIA AVE,WAHIAWA,96786,HI,NULL,NULL,0,0,0,NULL,0
2191,HI001295,EFS1,15003009200,1949,1,2342725,13387,21.500558,-158.012026,WSF1,EDU1,Leilehua High - Bldg Y,1515 CALIFORNIA AVE,WAHIAWA,96786,HI,NULL,NULL,0,0,0,NULL,0
2192,HI001296,EFS1,15003009200,1964,1,1176000,3920,21.500558,-158.012026,MERBL,EDU1,Leilehua High - Bldg Z,1515 CALIFORNIA AVE,WAHIAWA,96786,HI,NULL,NULL,0,0,0,NULL,0
2193,HI001297,EFS1,15003001400,1940,1,781550,4466,21.278976,-157.806144,WSF1,EDU1,Liholiho Elementary - Bldg B,838 9TH AVE,HONOLULU,96816,HI,NULL,NULL,0,0,0,NULL,0
2194,HI001298,EFS1,15003001400,1951,1,1321500,4405,21.278976,-157.806144,MERBL,EDU1,Liholiho Elementary - Bldg F,838 9TH AVE,HONOLULU,96816,HI,NULL,NULL,0,0,0,NULL,0
2195,HI001299,EFS1,15003001400,1968,2,2557500,8525,21.278976,-157.806144,MERBL,EDU1,Liholiho Elementary - Bldg G,838 9TH AVE,HONOLULU,96816,HI,NULL,NULL,0,0,0,NULL,0
2196,HI001300,EFS1,15003001400,1971,3,5338800,17796,21.278976,-157.806144,MERBL,EDU1,Liholiho Elementary - Bldg J,838 9TH AVE,HONOLULU,96816,HI,NULL,NULL,0,0,0,NULL,0
2197,HI001301,EFS1,15003005600,1965,2,3916200,13054,21.324886,-157.864201,MERBL,EDU1,Likelike Elementary - Bldg B,1618 PALAMA ST,HONOLULU,96817,HI,NULL,NULL,0,0,0,NULL,0
2198,HI001302,EFS1,15003005600,1966,2,4000200,13334,21.324886,-157.864201,MERBL,EDU1,Likelike Elementary - Bldg C,1618 PALAMA ST,HONOLULU,96817,HI,NULL,NULL,0,0,0,NULL,0
2199,HI001303,EFS1,15003000800,1967,3,5341500,17805,21.281473,-157.797771,MERBL,EDU1,Liliuokalani Elementary - Bldg B,3633 WAIALAE AVE,HONOLULU,96816,HI,NULL,NULL,0,0,0,NULL,0
2200,HI001304,EFS1,15003000800,1965,3,4964700,16549,21.281473,-157.797771,MERBL,EDU1,Liliuokalani Elementary - Bldg C,3633 WAIALAE AVE,HONOLULU,96816,HI,NULL,NULL,0,0,0,NULL,0
2201,HI001305,EFS1,15003000800,1968,1,850325,4859,21.281473,-157.797771,WSF1,EDU1,Liliuokalani Elementary - Bldg D,3633 WAIALAE AVE,HONOLULU,96816,HI,NULL,NULL,0,0,0,NULL,0
2202,HI001306,EFS1,15003000800,1970,2,1238125,7075,21.281473,-157.797771,WSF2,EDU1,Liliuokalani Elementary - Bldg E,3633 WAIALAE AVE,HONOLULU,96816,HI,NULL,NULL,0,0,0,NULL,0
2203,HI001307,EFS1,15003006202,1965,2,1699775,9713,21.338775,-157.877534,WSF2,EDU1,Linapuni Elem - Bldg A,1434 LINAPUNI ST,HONOLULU,96819,HI,NULL,NULL,0,0,0,NULL,0
2204,HI001308,EFS1,15003006202,1965,2,2926500,9755,21.338775,-157.877534,MERBL,EDU1,Linapuni Elem - Bldg B,1434 LINAPUNI ST,HONOLULU,96819,HI,NULL,NULL,0,0,0,NULL,0
2205,HI001309,EFS1,15003006202,1965,1,896000,5120,21.338775,-157.877534,WSF1,EDU1,Linapuni Elem - Bldg C,1434 LINAPUNI ST,HONOLULU,96819,HI,NULL,NULL,0,0,0,NULL,0
2206,HI001310,EFS1,15003004300,1956,1,1323175,7561,21.312892,-157.840543,WSF1,EDU1,Lincoln Elementary - Bldg H,1202 PROSPECT ST,HONOLULU,96813,HI,NULL,NULL,0,0,0,NULL,0
2207,HI001311,EFS1,15003002500,1960,2,3336600,11122,21.292303,-157.83316,MERBL,EDU1,Lunalilo Elementary - Bldg A,810 PUMEHANA ST,HONOLULU,96826,HI,NULL,NULL,0,0,0,NULL,0
2208,HI001312,EFS1,15003002500,1964,2,3391800,11306,21.292303,-157.83316,MERBL,EDU1,Lunalilo Elementary - Bldg B,810 PUMEHANA ST,HONOLULU,96826,HI,NULL,NULL,0,0,0,NULL,0
2209,HI001313,EFS1,15003002500,1966,2,3365400,11218,21.292303,-157.83316,MERBL,EDU1,Lunalilo Elementary - Bldg C,810 PUMEHANA ST,HONOLULU,96826,HI,NULL,NULL,0,0,0,NULL,0
2210,HI001314,EFS1,15003002500,1971,2,2126425,12151,21.292303,-157.83316,WSF2,EDU1,Lunalilo Elementary - Bldg H,810 PUMEHANA ST,HONOLULU,96826,HI,NULL,NULL,0,0,0,NULL,0
2211,HI001315,EFS1,15003004700,1953,1,1458300,4861,21.328516,-157.847599,MERBL,EDU1,Maemae Elementary - Bldg B,319 WYLLIE ST,HONOLULU,96817,HI,NULL,NULL,0,0,0,NULL,0
2212,HI001316,EFS1,15003004700,1956,2,3969300,13231,21.328516,-157.847599,MERBL,EDU1,Maemae Elementary - Bldg D,319 WYLLIE ST,HONOLULU,96817,HI,NULL,NULL,0,0,0,NULL,0
2213,HI001317,EFS1,15003004700,1956,1,1415750,8090,21.328516,-157.847599,WSF1,EDU1,Maemae Elementary - Bldg E,319 WYLLIE ST,HONOLULU,96817,HI,NULL,NULL,0,0,0,NULL,0
2214,HI001318,EFS1,15003004700,1965,2,3439800,11466,21.328516,-157.847599,MERBL,EDU1,Maemae Elementary - Bldg F,319 WYLLIE ST,HONOLULU,96817,HI,NULL,NULL,0,0,0,NULL,0
2215,HI001319,EFS1,15003004700,1950,1,1516800,5056,21.328516,-157.847599,MERBL,EDU1,Maemae Elementary - Bldg J,319 WYLLIE ST,HONOLULU,96817,HI,NULL,NULL,0,0,0,NULL,0
2216,HI001320,EFS1,15003004700,1954,1,1449900,4833,21.328516,-157.847599,MERBL,EDU1,Maemae Elementary - Bldg K,319 WYLLIE ST,HONOLULU,96817,HI,NULL,NULL,0,0,0,NULL,0
2217,HI001321,EFS1,15003009603,1963,1,1843200,6144,21.420021,-158.171987,MERBL,EDU1,Maili Elementary - Bldg A,87-360 KULAAUPUNI ST,WAIANAE,96792,HI,NULL,NULL,0,0,0,NULL,0
2218,HI001322,EFS1,15003009603,1963,1,1983900,6613,21.420021,-158.171987,MERBL,EDU1,Maili Elementary - Bldg B,87-360 KULAAUPUNI ST,WAIANAE,96792,HI,NULL,NULL,0,0,0,NULL,0
2219,HI001323,EFS1,15003009603,1963,1,1983900,6613,21.420021,-158.171987,MERBL,EDU1,Maili Elementary - Bldg C,87-360 KULAAUPUNI ST,WAIANAE,96792,HI,NULL,NULL,0,0,0,NULL,0
2220,HI001324,EFS1,15003009603,1964,2,4190100,13967,21.420021,-158.171987,MERBL,EDU1,Maili Elementary - Bldg D,87-360 KULAAUPUNI ST,WAIANAE,96792,HI,NULL,NULL,0,0,0,NULL,0
2221,HI001325,EFS1,15003009603,1972,1,1569000,5230,21.420021,-158.171987,MERBL,EDU1,Maili Elementary - Bldg F,87-360 KULAAUPUNI ST,WAIANAE,96792,HI,NULL,NULL,0,0,0,NULL,0
2222,HI001326,EFS1,15003009802,1961,2,3910800,13036,21.470539,-158.212105,MERBL,EDU1,Makaha Elementary - Bldg A,84-224 ALA NAAUAO PL,WAIANAE,96792,HI,NULL,NULL,0,0,0,NULL,0
2223,HI001327,EFS1,15003009802,1961,2,3885600,12952,21.470539,-158.212105,MERBL,EDU1,Makaha Elementary - Bldg B,84-224 ALA NAAUAO PL,WAIANAE,96792,HI,NULL,NULL,0,0,0,NULL,0
2224,HI001328,EFS1,15003009802,1961,1,2369700,7899,21.470539,-158.212105,MERBL,EDU1,Makaha Elementary - Bldg C,84-224 ALA NAAUAO PL,WAIANAE,96792,HI,NULL,NULL,0,0,0,NULL,0
2225,HI001329,EFS1,15003009802,1962,1,1937700,6459,21.470539,-158.212105,MERBL,EDU1,Makaha Elementary - Bldg D,84-224 ALA NAAUAO PL,WAIANAE,96792,HI,NULL,NULL,0,0,0,NULL,0
2226,HI001330,EFS1,15003008604,1969,1,1620000,5400,21.344312,-158.084779,MERBL,EDU1,Makakilo Elementary - Bldg A,92-675 ANIPEAHI ST,KAPOLEI,96707,HI,NULL,NULL,0,0,0,NULL,0
2227,HI001331,EFS1,15003008604,1969,1,1080000,3600,21.344312,-158.084779,MERBL,EDU1,Makakilo Elementary - Bldg B,92-675 ANIPEAHI ST,KAPOLEI,96707,HI,NULL,NULL,0,0,0,NULL,0
2228,HI001332,EFS1,15003008604,1969,1,1080000,3600,21.344312,-158.084779,MERBL,EDU1,Makakilo Elementary - Bldg C,92-675 ANIPEAHI ST,KAPOLEI,96707,HI,NULL,NULL,0,0,0,NULL,0
2229,HI001333,EFS1,15003008604,1971,1,1080000,3600,21.344312,-158.084779,MERBL,EDU1,Makakilo Elementary - Bldg F,92-675 ANIPEAHI ST,KAPOLEI,96707,HI,NULL,NULL,0,0,0,NULL,0
2230,HI001334,EFS1,15003008604,1971,1,1408800,4696,21.344312,-158.084779,MERBL,EDU1,Makakilo Elementary - Bldg H,92-675 ANIPEAHI ST,KAPOLEI,96707,HI,NULL,NULL,0,0,0,NULL,0
2231,HI001335,EFS1,15003008604,1969,1,1078700,6164,21.344312,-158.084779,WSF1,EDU1,Makakilo Elementary - Bldg K,92-675 ANIPEAHI ST,KAPOLEI,96707,HI,NULL,NULL,0,0,0,NULL,0
2232,HI001336,EFS1,15003007400,1973,1,1844400,6148,21.361227,-157.928547,MERBL,EDU1,Makalapa Elementary - Bldg A,4435 SALT LAKE BLVD,HONOLULU,96819,HI,NULL,NULL,0,0,0,NULL,0
2233,HI001337,EFS1,15003007400,1971,1,808150,4618,21.361227,-157.928547,WSF1,EDU1,Makalapa Elementary - Bldg C,4435 SALT LAKE BLVD,HONOLULU,96819,HI,NULL,NULL,0,0,0,NULL,0
2234,HI001338,EFS1,15003007400,1971,1,2854200,9514,21.361227,-157.928547,MERBL,EDU1,Makalapa Elementary - Bldg D,4435 SALT LAKE BLVD,HONOLULU,96819,HI,NULL,NULL,0,0,0,NULL,0
2235,HI001339,EFS1,15003007400,1971,2,2854200,9514,21.361227,-157.928547,MERBL,EDU1,Makalapa Elementary - Bldg F,4435 SALT LAKE BLVD,HONOLULU,96819,HI,NULL,NULL,0,0,0,NULL,0
2236,HI001340,EFS1,15003007400,1973,2,2854200,9514,21.361227,-157.928547,MERBL,EDU1,Makalapa Elementary - Bldg I,4435 SALT LAKE BLVD,HONOLULU,96819,HI,NULL,NULL,0,0,0,NULL,0
2237,HI001341,EFS1,15003007400,1971,1,1991700,6639,21.361227,-157.928547,MERBL,EDU1,Makalapa Elementary - Bldg K,4435 SALT LAKE BLVD,HONOLULU,96819,HI,NULL,NULL,0,0,0,NULL,0
2238,HI001342,EFS1,15003008006,1970,1,233275,1333,21.408352,-157.971365,WSF1,EDU1,Manana Elementary - Bldg D,1147 KUMANO ST,PEARL CITY,96782,HI,NULL,NULL,0,0,0,NULL,0
2239,HI001343,EFS1,15003008006,1974,1,536550,3066,21.408352,-157.971365,WSF1,EDU1,Manana Elementary - Bldg O,1147 KUMANO ST,PEARL CITY,96782,HI,NULL,NULL,0,0,0,NULL,0
2240,HI001344,EFS1,15003003102,1953,1,1267500,4225,21.315937,-157.80819,MERBL,EDU1,Manoa Elementary - Bldg B,3155 MANOA RD,HONOLULU,96822,HI,NULL,NULL,0,0,0,NULL,0
2241,HI001345,EFS1,15003003102,1952,1,752400,2508,21.315937,-157.80819,MERBL,EDU1,Manoa Elementary - Bldg C,3155 MANOA RD,HONOLULU,96822,HI,NULL,NULL,0,0,0,NULL,0
2242,HI001346,EFS1,15003003102,1953,1,1267500,4225,21.315937,-157.80819,MERBL,EDU1,Manoa Elementary - Bldg D,3155 MANOA RD,HONOLULU,96822,HI,NULL,NULL,0,0,0,NULL,0
2243,HI001347,EFS1,15003003102,1952,1,1220625,6975,21.315937,-157.80819,WSF1,EDU1,Manoa Elementary - Bldg E,3155 MANOA RD,HONOLULU,96822,HI,NULL,NULL,0,0,0,NULL,0
2244,HI001348,EFS1,15003003102,1953,1,1267500,4225,21.315937,-157.80819,MERBL,EDU1,Manoa Elementary - Bldg H,3155 MANOA RD,HONOLULU,96822,HI,NULL,NULL,0,0,0,NULL,0
2245,HI001349,EFS1,15003003102,1953,1,1276500,4255,21.315937,-157.80819,MERBL,EDU1,Manoa Elementary - Bldg I,3155 MANOA RD,HONOLULU,96822,HI,NULL,NULL,0,0,0,NULL,0
2246,HI001350,EFS1,15003003102,1952,1,752400,2508,21.315937,-157.80819,MERBL,EDU1,Manoa Elementary - Bldg J,3155 MANOA RD,HONOLULU,96822,HI,NULL,NULL,0,0,0,NULL,0
2247,HI001351,EFS1,15003003102,1952,1,752400,2508,21.315937,-157.80819,MERBL,EDU1,Manoa Elementary - Bldg K,3155 MANOA RD,HONOLULU,96822,HI,NULL,NULL,0,0,0,NULL,0
2248,HI001352,EFS1,15003003102,1952,1,752400,2508,21.315937,-157.80819,MERBL,EDU1,Manoa Elementary - Bldg L,3155 MANOA RD,HONOLULU,96822,HI,NULL,NULL,0,0,0,NULL,0
2249,HI001353,EFS1,15003003102,1952,1,748800,2496,21.315937,-157.80819,MERBL,EDU1,Manoa Elementary - Bldg M,3155 MANOA RD,HONOLULU,96822,HI,NULL,NULL,0,0,0,NULL,0
2250,HI001354,EFS1,15003003102,1952,1,752400,2508,21.315937,-157.80819,MERBL,EDU1,Manoa Elementary - Bldg N,3155 MANOA RD,HONOLULU,96822,HI,NULL,NULL,0,0,0,NULL,0
2251,HI001355,EFS1,15003003102,1952,1,752400,2508,21.315937,-157.80819,MERBL,EDU1,Manoa Elementary - Bldg O,3155 MANOA RD,HONOLULU,96822,HI,NULL,NULL,0,0,0,NULL,0
2252,HI001356,EFS1,15003008603,1973,2,5388000,17960,21.358313,-158.083313,MERBL,EDU1,Mauka Lani Elem - Bldg A,92-1300 PANANA ST,KAPOLEI,96707,HI,NULL,NULL,0,0,0,NULL,0
2253,HI001357,EFS1,15003008603,1973,1,1379350,7882,21.358313,-158.083313,WSF1,EDU1,Mauka Lani Elem - Bldg B,92-1300 PANANA ST,KAPOLEI,96707,HI,NULL,NULL,0,0,0,NULL,0
2254,HI001358,EFS1,15003008603,1993,1,142100,812,21.358313,-158.083313,WSF1,EDU1,Mauka Lani Elem - Bldg P11,92-1300 PANANA ST,KAPOLEI,96707,HI,NULL,NULL,0,0,0,NULL,0
2255,HI001359,EFS1,15003011000,1958,1,1458000,4860,21.37698,-157.752132,MERBL,EDU1,Maunawili Elementary - Bldg D,1465 ULUPII ST,KAILUA,96734,HI,NULL,NULL,0,0,0,NULL,0
2256,HI001360,EFS1,15003011000,1958,1,1458100,8332,21.37698,-157.752132,WSF1,EDU1,Maunawili Elementary - Bldg F,1465 ULUPII ST,KAILUA,96734,HI,NULL,NULL,0,0,0,NULL,0
2257,HI001361,EFS1,15003003700,1959,2,5227500,17425,21.299169,-157.848306,MERBL,EDU1,McKinley High - Bldg F,1039 S KING ST,HONOLULU,96814,HI,NULL,NULL,0,0,0,NULL,0
2258,HI001362,EFS1,15003003700,1970,1,2743200,9144,21.299169,-157.848306,MERBL,EDU1,McKinley High - Bldg G,1039 S KING ST,HONOLULU,96814,HI,NULL,NULL,0,0,0,NULL,0
2259,HI001363,EFS1,15003003700,1963,1,2798700,9329,21.299169,-157.848306,MERBL,EDU1,McKinley High - Bldg H,1039 S KING ST,HONOLULU,96814,HI,NULL,NULL,0,0,0,NULL,0
2260,HI001364,EFS1,15003003700,1939,1,3229800,10766,21.299169,-157.848306,MERBL,EDU1,McKinley High - Bldg K,1039 S KING ST,HONOLULU,96814,HI,NULL,NULL,0,0,0,NULL,0
2261,HI001365,EFS1,15003003700,1964,2,5618100,18727,21.299169,-157.848306,MERBL,EDU1,McKinley High - Bldg M,1039 S KING ST,HONOLULU,96814,HI,NULL,NULL,0,0,0,NULL,0
2262,HI001366,EFS1,15003003700,1957,1,1144500,6540,21.299169,-157.848306,WSF1,EDU1,McKinley High - Bldg Q,1039 S KING ST,HONOLULU,96814,HI,NULL,NULL,0,0,0,NULL,0
2263,HI001367,EFS1,15003003700,1982,2,4143000,13810,21.299169,-157.848306,MERBL,EDU1,McKinley High - Bldg T,1039 S KING ST,HONOLULU,96814,HI,NULL,NULL,0,0,0,NULL,0
2264,HI001368,EFS1,15003008907,1973,2,7644000,25480,21.45336,-158.009964,MERBL,EDU1,Mililani High - Bldg B,95-1200 MEHEULA PKWY,MILILANI,96789,HI,NULL,NULL,0,0,0,NULL,0
2265,HI001369,EFS1,15003008907,1994,2,2555400,8518,21.45336,-158.009964,MERBL,EDU1,Mililani High - Bldg C,95-1200 MEHEULA PKWY,MILILANI,96789,HI,NULL,NULL,0,0,0,NULL,0
2266,HI001370,EFS1,15003008907,1987,1,6649500,22165,21.45336,-158.009964,MERBL,EDU1,Mililani High - Bldg E,95-1200 MEHEULA PKWY,MILILANI,96789,HI,NULL,NULL,0,0,0,NULL,0
2267,HI001371,EFS1,15003008907,1980,2,4206900,14023,21.45336,-158.009964,MERBL,EDU1,Mililani High - Bldg G,95-1200 MEHEULA PKWY,MILILANI,96789,HI,NULL,NULL,0,0,0,NULL,0
2268,HI001372,EFS1,15003008907,1980,1,567300,1891,21.45336,-158.009964,MERBL,EDU1,Mililani High - Bldg I,95-1200 MEHEULA PKWY,MILILANI,96789,HI,NULL,NULL,0,0,0,NULL,0
2269,HI001373,EFS1,15003008907,1976,1,2457300,8191,21.45336,-158.009964,MERBL,EDU1,Mililani High - Bldg J,95-1200 MEHEULA PKWY,MILILANI,96789,HI,NULL,NULL,0,0,0,NULL,0
2270,HI001374,EFS1,15003008907,1975,2,3766200,12554,21.45336,-158.009964,MERBL,EDU1,Mililani High - Bldg K,95-1200 MEHEULA PKWY,MILILANI,96789,HI,NULL,NULL,0,0,0,NULL,0
2271,HI001375,EFS1,15003008907,1976,2,5688600,18962,21.45336,-158.009964,MERBL,EDU1,Mililani High - Bldg L,95-1200 MEHEULA PKWY,MILILANI,96789,HI,NULL,NULL,0,0,0,NULL,0
2272,HI001376,EFS1,15003008907,1981,2,3359100,11197,21.45336,-158.009964,MERBL,EDU1,Mililani High - Bldg N,95-1200 MEHEULA PKWY,MILILANI,96789,HI,NULL,NULL,0,0,0,NULL,0
2273,HI001377,EFS1,15003008907,1991,2,3180600,10602,21.45336,-158.009964,MERBL,EDU1,Mililani High - Bldg O,95-1200 MEHEULA PKWY,MILILANI,96789,HI,NULL,NULL,0,0,0,NULL,0
2274,HI001378,EFS1,15003008916,1997,1,142100,812,21.47097,-158.000902,WSF1,EDU1,Mililani Mauka Elem - Bldg TB1,95-1111 MAKAIKAI ST,MILILANI,96789,HI,NULL,NULL,0,0,0,NULL,0
2275,HI001379,EFS1,15003008916,1998,1,142100,812,21.47097,-158.000902,WSF1,EDU1,Mililani Mauka Elem - Bldg TB3,95-1111 MAKAIKAI ST,MILILANI,96789,HI,NULL,NULL,0,0,0,NULL,0
2276,HI001380,EFS1,15003008916,1998,1,142100,812,21.47097,-158.000902,WSF1,EDU1,Mililani Mauka Elem - Bldg TB4,95-1111 MAKAIKAI ST,MILILANI,96789,HI,NULL,NULL,0,0,0,NULL,0
2277,HI001381,EFS1,15003008916,2001,1,142100,812,21.47097,-158.000902,WSF1,EDU1,Mililani Mauka Elem - Bldg TB5,95-1111 MAKAIKAI ST,MILILANI,96789,HI,NULL,NULL,0,0,0,NULL,0
2278,HI001382,EFS1,15003008916,2001,1,142100,812,21.47097,-158.000902,WSF1,EDU1,Mililani Mauka Elem - Bldg TB6,95-1111 MAKAIKAI ST,MILILANI,96789,HI,NULL,NULL,0,0,0,NULL,0
2279,HI001383,EFS1,15003008916,1800,1,3111900,10373,21.475829,-157.988926,MERBL,EDU1,Mililani Middle - Bldg C,95-230 KAILIULA PL,MILILANI,96789,HI,NULL,NULL,0,0,0,NULL,0
2280,HI001384,EFS1,15003008909,1990,2,2794200,9314,21.437268,-158.014756,MERBL,EDU1,Mililani Uka Elem - Bldg C,94-380 KUAHELANI AVE,MILILANI,96789,HI,NULL,NULL,0,0,0,NULL,0
2281,HI001385,EFS1,15003008909,1977,2,2786700,9289,21.437268,-158.014756,MERBL,EDU1,Mililani Uka Elem - Bldg D,94-380 KUAHELANI AVE,MILILANI,96789,HI,NULL,NULL,0,0,0,NULL,0
2282,HI001386,EFS1,15003008909,1977,2,2814600,9382,21.437268,-158.014756,MERBL,EDU1,Mililani Uka Elem - Bldg E,94-380 KUAHELANI AVE,MILILANI,96789,HI,NULL,NULL,0,0,0,NULL,0
2283,HI001387,EFS1,15003008909,1977,2,2807700,9359,21.437268,-158.014756,MERBL,EDU1,Mililani Uka Elem - Bldg F,94-380 KUAHELANI AVE,MILILANI,96789,HI,NULL,NULL,0,0,0,NULL,0
2284,HI001388,EFS1,15003008909,1977,1,1359300,4531,21.437268,-158.014756,MERBL,EDU1,Mililani Uka Elem - Bldg H,94-380 KUAHELANI AVE,MILILANI,96789,HI,NULL,NULL,0,0,0,NULL,0
2285,HI001389,EFS1,15003008907,1971,1,5764200,19214,21.455503,-158.010533,MERBL,EDU1,Mililani Waena Elem - Bldg B,95-502 KIPAPA DR,MILILANI,96789,HI,NULL,NULL,0,0,0,NULL,0
2286,HI001390,EFS1,15003008907,1973,1,5764200,19214,21.455503,-158.010533,MERBL,EDU1,Mililani Waena Elem - Bldg D,95-502 KIPAPA DR,MILILANI,96789,HI,NULL,NULL,0,0,0,NULL,0
2287,HI001391,EFS1,15003006701,1961,2,3415800,11386,21.348887,-157.891791,MERBL,EDU1,Moanalua Elem - Bldg A,1337 MAHIOLE ST,HONOLULU,96819,HI,NULL,NULL,0,0,0,NULL,0
2288,HI001392,EFS1,15003006701,1961,2,3415800,11386,21.348887,-157.891791,MERBL,EDU1,Moanalua Elem - Bldg B,1337 MAHIOLE ST,HONOLULU,96819,HI,NULL,NULL,0,0,0,NULL,0
2289,HI001393,EFS1,15003006701,1961,1,1500275,8573,21.348887,-157.891791,WSF1,EDU1,Moanalua Elem - Bldg E,1337 MAHIOLE ST,HONOLULU,96819,HI,NULL,NULL,0,0,0,NULL,0
2290,HI001394,EFS1,15003006701,1971,1,1562100,5207,21.348887,-157.891791,MERBL,EDU1,Moanalua Elem - Bldg F,1337 MAHIOLE ST,HONOLULU,96819,HI,NULL,NULL,0,0,0,NULL,0
2291,HI001395,EFS1,15003006805,1975,3,5051700,16839,21.34731,-157.900643,MERBL,EDU1,Moanalua High - Bldg F,2825 ALA ILIMA,HONOLULU,96819,HI,NULL,NULL,0,0,0,NULL,0
2292,HI001396,EFS1,15003006805,1976,3,5542800,18476,21.34731,-157.900643,MERBL,EDU1,Moanalua High - Bldg G,2825 ALA ILIMA,HONOLULU,96819,HI,NULL,NULL,0,0,0,NULL,0
2293,HI001397,EFS1,15003006805,1980,3,4145400,13818,21.34731,-157.900643,MERBL,EDU1,Moanalua High - Bldg H,2825 ALA ILIMA,HONOLULU,96819,HI,NULL,NULL,0,0,0,NULL,0
2294,HI001398,EFS1,15003006805,1993,2,3178200,10594,21.34731,-157.900643,MERBL,EDU1,Moanalua High - Bldg I,2825 ALA ILIMA,HONOLULU,96819,HI,NULL,NULL,0,0,0,NULL,0
2295,HI001399,EFS1,15003006805,1980,2,1915200,6384,21.34731,-157.900643,MERBL,EDU1,Moanalua High - Bldg L,2825 ALA ILIMA,HONOLULU,96819,HI,NULL,NULL,0,0,0,NULL,0
2296,HI001400,EFS1,15003006805,1972,3,5503200,18344,21.34731,-157.900643,MERBL,EDU1,Moanalua High - Bldg M,2825 ALA ILIMA,HONOLULU,96819,HI,NULL,NULL,0,0,0,NULL,0
2297,HI001401,EFS1,15003006805,1975,2,6823800,22746,21.34731,-157.900643,MERBL,EDU1,Moanalua High - Bldg Q,2825 ALA ILIMA,HONOLULU,96819,HI,NULL,NULL,0,0,0,NULL,0
2298,HI001402,EFS1,15003006805,1973,3,2931300,9771,21.34731,-157.900643,MERBL,EDU1,Moanalua High - Bldg R,2825 ALA ILIMA,HONOLULU,96819,HI,NULL,NULL,0,0,0,NULL,0
2299,HI001403,EFS1,15003006805,1978,1,246000,820,21.34731,-157.900643,MERBL,EDU1,Moanalua High - Bldg S,2825 ALA ILIMA,HONOLULU,96819,HI,NULL,NULL,0,0,0,NULL,0
2300,HI001404,EFS1,15003006701,1968,2,3086700,10289,21.349755,-157.893408,MERBL,EDU1,Moanalua Middle - Bldg C,1289 MAHIOLE ST,HONOLULU,96819,HI,NULL,NULL,0,0,0,NULL,0
2301,HI001405,EFS1,15003006701,1968,2,3177900,10593,21.349755,-157.893408,MERBL,EDU1,Moanalua Middle - Bldg D,1289 MAHIOLE ST,HONOLULU,96819,HI,NULL,NULL,0,0,0,NULL,0
2302,HI001406,EFS1,15003006701,1969,2,3141000,10470,21.349755,-157.893408,MERBL,EDU1,Moanalua Middle - Bldg E,1289 MAHIOLE ST,HONOLULU,96819,HI,NULL,NULL,0,0,0,NULL,0
2303,HI001407,EFS1,15003006701,1976,2,1765200,5884,21.349755,-157.893408,MERBL,EDU1,Moanalua Middle - Bldg F,1289 MAHIOLE ST,HONOLULU,96819,HI,NULL,NULL,0,0,0,NULL,0
2304,HI001408,EFS1,15003006701,1968,1,2057475,11757,21.349755,-157.893408,WSF1,EDU1,Moanalua Middle - Bldg I,1289 MAHIOLE ST,HONOLULU,96819,HI,NULL,NULL,0,0,0,NULL,0
2305,HI001409,EFS1,15003006701,1968,1,2029800,6766,21.349755,-157.893408,MERBL,EDU1,Moanalua Middle - Bldg K,1289 MAHIOLE ST,HONOLULU,96819,HI,NULL,NULL,0,0,0,NULL,0
2306,HI001410,EFS1,15003010802,1960,1,1562400,5208,21.444325,-157.749199,MERBL,EDU1,Mokapu Elementary - Bldg A,800 MOKAPU RD KMCAS,KANEOHE,96863,HI,NULL,NULL,0,0,0,NULL,0
2307,HI001411,EFS1,15003010802,1960,1,911400,5208,21.444325,-157.749199,WSF1,EDU1,Mokapu Elementary - Bldg B,800 MOKAPU RD KMCAS,KANEOHE,96863,HI,NULL,NULL,0,0,0,NULL,0
2308,HI001412,EFS1,15003010802,1960,1,588000,3360,21.444325,-157.749199,WSF1,EDU1,Mokapu Elementary - Bldg C,800 MOKAPU RD KMCAS,KANEOHE,96863,HI,NULL,NULL,0,0,0,NULL,0
2309,HI001413,EFS1,15003010802,1960,1,588000,3360,21.444325,-157.749199,WSF1,EDU1,Mokapu Elementary - Bldg D,800 MOKAPU RD KMCAS,KANEOHE,96863,HI,NULL,NULL,0,0,0,NULL,0
2310,HI001414,EFS1,15003010802,1960,1,588000,3360,21.444325,-157.749199,WSF1,EDU1,Mokapu Elementary - Bldg E,800 MOKAPU RD KMCAS,KANEOHE,96863,HI,NULL,NULL,0,0,0,NULL,0
2311,HI001415,EFS1,15003010802,1960,1,541800,3096,21.444325,-157.749199,WSF1,EDU1,Mokapu Elementary - Bldg F,800 MOKAPU RD KMCAS,KANEOHE,96863,HI,NULL,NULL,0,0,0,NULL,0
2312,HI001416,EFS1,15003010802,1994,1,1388700,4629,21.444325,-157.749199,MERBL,EDU1,Mokapu Elementary - Bldg O,800 MOKAPU RD KMCAS,KANEOHE,96863,HI,NULL,NULL,0,0,0,NULL,0
2313,HI001417,EFS1,15003007200,1960,1,1348800,4496,21.342974,-157.940894,MERBL,EDU1,Mokulele Elementary - Bldg A,3903 KAM HWY,HICKAM AFB,96853,HI,NULL,NULL,0,0,0,NULL,0
2314,HI001418,EFS1,15003007200,1960,1,1348800,4496,21.342974,-157.940894,MERBL,EDU1,Mokulele Elementary - Bldg B,3903 KAM HWY,HICKAM AFB,96853,HI,NULL,NULL,0,0,0,NULL,0
2315,HI001419,EFS1,15003007200,1961,2,3444000,11480,21.342974,-157.940894,MERBL,EDU1,Mokulele Elementary - Bldg C,3903 KAM HWY,HICKAM AFB,96853,HI,NULL,NULL,0,0,0,NULL,0
2316,HI001420,EFS1,15003007200,1961,1,1129275,6453,21.342974,-157.940894,WSF1,EDU1,Mokulele Elementary - Bldg E,3903 KAM HWY,HICKAM AFB,96853,HI,NULL,NULL,0,0,0,NULL,0
2317,HI001421,EFS1,15003007200,1967,2,3459600,11532,21.342974,-157.940894,MERBL,EDU1,Mokulele Elementary - Bldg F,3903 KAM HWY,HICKAM AFB,96853,HI,NULL,NULL,0,0,0,NULL,0
2318,HI001422,EFS1,15003007810,1972,1,5154000,17180,21.413165,-157.954705,MERBL,EDU1,Momilani Elementary - Bldg B,2100 HOOKIEKIE ST,PEARL CITY,96782,HI,NULL,NULL,0,0,0,NULL,0
2319,HI001423,EFS1,15003009601,1980,1,2970600,9902,21.386136,-158.136377,MERBL,EDU1,Nanakuli Elementary - Bldg B,89-778 HALEAKALA AVE,WAIANAE,96792,HI,NULL,NULL,0,0,0,NULL,0
2320,HI001424,EFS1,15003009601,1978,2,5358300,17861,21.386136,-158.136377,MERBL,EDU1,Nanakuli Elementary - Bldg C,89-778 HALEAKALA AVE,WAIANAE,96792,HI,NULL,NULL,0,0,0,NULL,0
2321,HI001425,EFS1,15003009601,1971,1,6465300,21551,21.388249,-158.132759,MERBL,EDU1,Nanakuli High & Interm - Bldg B,89-778 HALEAKALA AVE,WAIANAE,96792,HI,NULL,NULL,0,0,0,NULL,0
2322,HI001426,EFS1,15003009601,1979,1,6269700,20899,21.388249,-158.132759,MERBL,EDU1,Nanakuli High & Interm - Bldg C,89-778 HALEAKALA AVE,WAIANAE,96792,HI,NULL,NULL,0,0,0,NULL,0
2323,HI001427,EFS1,15003009601,1995,1,3342900,11143,21.388249,-158.132759,MERBL,EDU1,Nanakuli High & Interm - Bldg D,89-778 HALEAKALA AVE,WAIANAE,96792,HI,NULL,NULL,0,0,0,NULL,0
2324,HI001428,EFS1,15003009601,1972,1,7327200,24424,21.388249,-158.132759,MERBL,EDU1,Nanakuli High & Interm - Bldg E,89-778 HALEAKALA AVE,WAIANAE,96792,HI,NULL,NULL,0,0,0,NULL,0
2325,HI001429,EFS1,15003009601,1979,2,7117200,23724,21.388249,-158.132759,MERBL,EDU1,Nanakuli High & Interm - Bldg J,89-778 HALEAKALA AVE,WAIANAE,96792,HI,NULL,NULL,0,0,0,NULL,0
2326,HI001430,EFS1,15003009601,1973,1,5067000,16890,21.388249,-158.132759,MERBL,EDU1,Nanakuli High & Interm - Bldg Q,89-778 HALEAKALA AVE,WAIANAE,96792,HI,NULL,NULL,0,0,0,NULL,0
2327,HI001431,EFS1,15003009601,1971,1,2207700,7359,21.388249,-158.132759,MERBL,EDU1,Nanakuli High & Interm - Bldg R,89-778 HALEAKALA AVE,WAIANAE,96792,HI,NULL,NULL,0,0,0,NULL,0
2328,HI001432,EFS1,15003009601,1973,1,1498800,4996,21.388249,-158.132759,MERBL,EDU1,Nanakuli High & Interm - Bldg U,89-778 HALEAKALA AVE,WAIANAE,96792,HI,NULL,NULL,0,0,0,NULL,0
2329,HI001433,EFS1,15003007100,1954,2,6183000,20610,21.340887,-157.935106,MERBL,EDU1,Nimitz Elementary - Bldg C,520 MAIN,HONOLULU,96819,HI,NULL,NULL,0,0,0,NULL,0
2330,HI001434,EFS1,15003000200,1956,2,2820900,9403,21.285289,-157.740266,MERBL,EDU1,Niu Valley Middle - Bldg A,310 HALEMAUMAU ST,HONOLULU,96821,HI,NULL,NULL,0,0,0,NULL,0
2331,HI001435,EFS1,15003000200,1956,2,2835600,9452,21.285289,-157.740266,MERBL,EDU1,Niu Valley Middle - Bldg B,310 HALEMAUMAU ST,HONOLULU,96821,HI,NULL,NULL,0,0,0,NULL,0
2332,HI001436,EFS1,15003000200,1963,2,3893400,12978,21.285289,-157.740266,MERBL,EDU1,Niu Valley Middle - Bldg C,310 HALEMAUMAU ST,HONOLULU,96821,HI,NULL,NULL,0,0,0,NULL,0
2333,HI001437,EFS1,15003000200,1958,1,612000,2040,21.285289,-157.740266,MERBL,EDU1,Niu Valley Middle - Bldg I,310 HALEMAUMAU ST,HONOLULU,96821,HI,NULL,NULL,0,0,0,NULL,0
2334,HI001438,EFS1,15003002900,1962,2,3917400,13058,21.305754,-157.811801,MERBL,EDU1,Noelani Elementary - Bldg A,2667 WOODLAWN DR,HONOLULU,96822,HI,NULL,NULL,0,0,0,NULL,0
2335,HI001439,EFS1,15003002900,1962,1,1392475,7957,21.305754,-157.811801,WSF1,EDU1,Noelani Elementary - Bldg C,2667 WOODLAWN DR,HONOLULU,96822,HI,NULL,NULL,0,0,0,NULL,0
2336,HI001440,EFS1,15003002900,1970,1,619500,3540,21.305754,-157.811801,WSF1,EDU1,Noelani Elementary - Bldg D,2667 WOODLAWN DR,HONOLULU,96822,HI,NULL,NULL,0,0,0,NULL,0
2337,HI001441,EFS1,15003004500,1960,1,1244775,7113,21.335518,-157.835026,WSF1,EDU1,Nuuanu Elementary - Bldg J,3055 PUIWA LN,HONOLULU,96817,HI,NULL,NULL,0,0,0,NULL,0
2338,HI001442,EFS1,15003008005,1955,2,4101600,13672,21.425205,-157.95345,MERBL,EDU1,Palisades Elementary - Bldg A,2306 AUHUHU ST,PEARL CITY,96782,HI,NULL,NULL,0,0,0,NULL,0
2339,HI001443,EFS1,15003008005,1955,2,2343600,13392,21.425205,-157.95345,WSF2,EDU1,Palisades Elementary - Bldg B,2306 AUHUHU ST,PEARL CITY,96782,HI,NULL,NULL,0,0,0,NULL,0
2340,HI001444,EFS1,15003008005,1967,2,3258000,10860,21.425205,-157.95345,MERBL,EDU1,Palisades Elementary - Bldg C,2306 AUHUHU ST,PEARL CITY,96782,HI,NULL,NULL,0,0,0,NULL,0
2341,HI001445,EFS1,15003008005,1955,2,2096850,11982,21.425205,-157.95345,WSF2,EDU1,Palisades Elementary - Bldg D,2306 AUHUHU ST,PEARL CITY,96782,HI,NULL,NULL,0,0,0,NULL,0
2342,HI001446,EFS1,15003001100,1964,1,3133500,10445,21.299573,-157.792816,MERBL,EDU1,Palolo Elementary - Bldg A,2106 10TH AVE,HONOLULU,96816,HI,NULL,NULL,0,0,0,NULL,0
2343,HI001447,EFS1,15003001100,1951,1,2560500,8535,21.299573,-157.792816,MERBL,EDU1,Palolo Elementary - Bldg B,2106 10TH AVE,HONOLULU,96816,HI,NULL,NULL,0,0,0,NULL,0
2344,HI001448,EFS1,15003001100,1953,1,1797600,5992,21.299573,-157.792816,MERBL,EDU1,Palolo Elementary - Bldg C,2106 10TH AVE,HONOLULU,96816,HI,NULL,NULL,0,0,0,NULL,0
2345,HI001449,EFS1,15003001100,1968,1,2301600,13152,21.299573,-157.792816,WSF1,EDU1,Palolo Elementary - Bldg D,2106 10TH AVE,HONOLULU,96816,HI,NULL,NULL,0,0,0,NULL,0
2346,HI001450,EFS1,15003001100,1958,1,1092000,6240,21.299573,-157.792816,WSF1,EDU1,Palolo Elementary - Bldg F,2106 10TH AVE,HONOLULU,96816,HI,NULL,NULL,0,0,0,NULL,0
2347,HI001451,EFS1,15003001100,1970,2,2589900,8633,21.299573,-157.792816,MERBL,EDU1,Palolo Elementary - Bldg L,2106 10TH AVE,HONOLULU,96816,HI,NULL,NULL,0,0,0,NULL,0
2348,HI001452,EFS1,15003010504,1973,2,5356200,17854,21.413771,-157.798922,MERBL,EDU1,Parker Elementary - Bldg D,45-921 KAM HWY,KANEOHE,96744,HI,NULL,NULL,0,0,0,NULL,0
2349,HI001453,EFS1,15003010504,1954,2,3353700,11179,21.413771,-157.798922,MERBL,EDU1,Parker Elementary - Bldg H,45-921 KAM HWY,KANEOHE,96744,HI,NULL,NULL,0,0,0,NULL,0
2350,HI001454,EFS1,15003004400,1967,2,3443700,11479,21.318615,-157.843998,MERBL,EDU1,Pauoa Elementary - Bldg D,2301 PAUOA,HONOLULU,96813,HI,NULL,NULL,0,0,0,NULL,0
2351,HI001455,EFS1,15003004400,1969,1,1369725,7827,21.318615,-157.843998,WSF1,EDU1,Pauoa Elementary - Bldg E,2301 PAUOA,HONOLULU,96813,HI,NULL,NULL,0,0,0,NULL,0
2352,HI001456,EFS1,15003008003,1956,1,1828200,6094,21.395216,-157.971955,MERBL,EDU1,Pearl City Elementary - Bldg I,1090 WAIMANO HOME RD,PEARL CITY,96782,HI,NULL,NULL,0,0,0,NULL,0
2353,HI001457,EFS1,15003007810,1971,4,4662900,15543,21.414834,-157.952268,MERBM,EDU1,Pearl City High - Bldg A,2100 HOOKIEKIE ST,PEARL CITY,96782,HI,NULL,NULL,0,0,0,NULL,0
2354,HI001458,EFS1,15003007810,1971,4,6940500,23135,21.414834,-157.952268,MERBM,EDU1,Pearl City High - Bldg B,2100 HOOKIEKIE ST,PEARL CITY,96782,HI,NULL,NULL,0,0,0,NULL,0
2355,HI001459,EFS1,15003007810,1972,3,4936500,16455,21.414834,-157.952268,MERBL,EDU1,Pearl City High - Bldg C,2100 HOOKIEKIE ST,PEARL CITY,96782,HI,NULL,NULL,0,0,0,NULL,0
2356,HI001460,EFS1,15003007810,1972,3,4167300,13891,21.414834,-157.952268,MERBL,EDU1,Pearl City High - Bldg D,2100 HOOKIEKIE ST,PEARL CITY,96782,HI,NULL,NULL,0,0,0,NULL,0
2357,HI001461,EFS1,15003007810,1972,2,4987800,16626,21.414834,-157.952268,MERBL,EDU1,Pearl City High - Bldg E,2100 HOOKIEKIE ST,PEARL CITY,96782,HI,NULL,NULL,0,0,0,NULL,0
2358,HI001462,EFS1,15003007810,1972,1,1114500,3715,21.414834,-157.952268,MERBL,EDU1,Pearl City High - Bldg F,2100 HOOKIEKIE ST,PEARL CITY,96782,HI,NULL,NULL,0,0,0,NULL,0
2359,HI001463,EFS1,15003007810,1972,1,2287775,13073,21.414834,-157.952268,WSF1,EDU1,Pearl City High - Bldg G,2100 HOOKIEKIE ST,PEARL CITY,96782,HI,NULL,NULL,0,0,0,NULL,0
2360,HI001464,EFS1,15003007810,1972,1,7827900,26093,21.414834,-157.952268,MERBL,EDU1,Pearl City High - Bldg H,2100 HOOKIEKIE ST,PEARL CITY,96782,HI,NULL,NULL,0,0,0,NULL,0
2361,HI001465,EFS1,15003007810,1976,1,2041200,6804,21.414834,-157.952268,MERBL,EDU1,Pearl City High - Bldg I,2100 HOOKIEKIE ST,PEARL CITY,96782,HI,NULL,NULL,0,0,0,NULL,0
2362,HI001466,EFS1,15003007810,1973,1,2811600,9372,21.414834,-157.952268,MERBL,EDU1,Pearl City High - Bldg K,2100 HOOKIEKIE ST,PEARL CITY,96782,HI,NULL,NULL,0,0,0,NULL,0
2363,HI001467,EFS1,15003007810,1973,4,4977600,16592,21.414834,-157.952268,MERBM,EDU1,Pearl City High - Bldg L,2100 HOOKIEKIE ST,PEARL CITY,96782,HI,NULL,NULL,0,0,0,NULL,0
2364,HI001468,EFS1,15003007810,1973,4,2811600,9372,21.414834,-157.952268,MERBM,EDU1,Pearl City High - Bldg M,2100 HOOKIEKIE ST,PEARL CITY,96782,HI,NULL,NULL,0,0,0,NULL,0
2365,HI001469,EFS1,15003007810,1979,2,7134600,23782,21.414834,-157.952268,MERBL,EDU1,Pearl City High - Bldg O,2100 HOOKIEKIE ST,PEARL CITY,96782,HI,NULL,NULL,0,0,0,NULL,0
2366,HI001470,EFS1,15003008007,1958,1,1941300,6471,21.403094,-157.965466,MERBL,EDU1,Pearl City Highlands Elem - Bldg A,1419 WAIMANO HOME RD,PEARL CITY,96782,HI,NULL,NULL,0,0,0,NULL,0
2367,HI001471,EFS1,15003008007,1958,1,1941300,6471,21.403094,-157.965466,MERBL,EDU1,Pearl City Highlands Elem - Bldg B,1419 WAIMANO HOME RD,PEARL CITY,96782,HI,NULL,NULL,0,0,0,NULL,0
2368,HI001472,EFS1,15003008007,1960,1,1941300,6471,21.403094,-157.965466,MERBL,EDU1,Pearl City Highlands Elem - Bldg C,1419 WAIMANO HOME RD,PEARL CITY,96782,HI,NULL,NULL,0,0,0,NULL,0
2369,HI001473,EFS1,15003008007,1960,1,1941300,6471,21.403094,-157.965466,MERBL,EDU1,Pearl City Highlands Elem - Bldg D,1419 WAIMANO HOME RD,PEARL CITY,96782,HI,NULL,NULL,0,0,0,NULL,0
2370,HI001474,EFS1,15003008007,1958,1,1776900,5923,21.403094,-157.965466,MERBL,EDU1,Pearl City Highlands Elem - Bldg E,1419 WAIMANO HOME RD,PEARL CITY,96782,HI,NULL,NULL,0,0,0,NULL,0
2371,HI001475,EFS1,15003008007,1958,1,1350475,7717,21.403094,-157.965466,WSF1,EDU1,Pearl City Highlands Elem - Bldg F,1419 WAIMANO HOME RD,PEARL CITY,96782,HI,NULL,NULL,0,0,0,NULL,0
2372,HI001476,EFS1,15003007000,1956,1,1075200,3584,21.346382,-157.930511,MERBL,EDU1,Pearl Harbor Elementary - Bldg A,3801 SALT LAKE,HONOLULU,96818,HI,NULL,NULL,0,0,0,NULL,0
2373,HI001477,EFS1,15003007000,1956,1,1075200,3584,21.346382,-157.930511,MERBL,EDU1,Pearl Harbor Elementary - Bldg B,3801 SALT LAKE,HONOLULU,96818,HI,NULL,NULL,0,0,0,NULL,0
2374,HI001478,EFS1,15003007000,1956,1,1075200,3584,21.346382,-157.930511,MERBL,EDU1,Pearl Harbor Elementary - Bldg D,3801 SALT LAKE,HONOLULU,96818,HI,NULL,NULL,0,0,0,NULL,0
2375,HI001479,EFS1,15003007000,1956,1,1075200,3584,21.346382,-157.930511,MERBL,EDU1,Pearl Harbor Elementary - Bldg E,3801 SALT LAKE,HONOLULU,96818,HI,NULL,NULL,0,0,0,NULL,0
2376,HI001480,EFS1,15003007000,1956,1,1075200,3584,21.346382,-157.930511,MERBL,EDU1,Pearl Harbor Elementary - Bldg F,3801 SALT LAKE,HONOLULU,96818,HI,NULL,NULL,0,0,0,NULL,0
2377,HI001481,EFS1,15003007000,1956,1,1075200,3584,21.346382,-157.930511,MERBL,EDU1,Pearl Harbor Elementary - Bldg G,3801 SALT LAKE,HONOLULU,96818,HI,NULL,NULL,0,0,0,NULL,0
2378,HI001482,EFS1,15003007000,1956,1,1162200,3874,21.346382,-157.930511,MERBL,EDU1,Pearl Harbor Elementary - Bldg H,3801 SALT LAKE,HONOLULU,96818,HI,NULL,NULL,0,0,0,NULL,0
2379,HI001483,EFS1,15003007000,1956,1,1162200,3874,21.346382,-157.930511,MERBL,EDU1,Pearl Harbor Elementary - Bldg I,3801 SALT LAKE,HONOLULU,96818,HI,NULL,NULL,0,0,0,NULL,0
2380,HI001484,EFS1,15003007000,1956,1,1008000,3360,21.346382,-157.930511,MERBL,EDU1,Pearl Harbor Elementary - Bldg J,3801 SALT LAKE,HONOLULU,96818,HI,NULL,NULL,0,0,0,NULL,0
2381,HI001485,EFS1,15003007400,1960,2,3607200,12024,21.34907,-157.938152,MERBL,EDU1,Pearl Harbor Kai Elem - Bldg B,99-659 KAM HWY,HONOLULU,96818,HI,NULL,NULL,0,0,0,NULL,0
2382,HI001486,EFS1,15003007400,1959,2,3895200,12984,21.34907,-157.938152,MERBL,EDU1,Pearl Harbor Kai Elem - Bldg C,99-659 KAM HWY,HONOLULU,96818,HI,NULL,NULL,0,0,0,NULL,0
2383,HI001487,EFS1,15003007400,1963,1,1492050,8526,21.34907,-157.938152,WSF1,EDU1,Pearl Harbor Kai Elem - Bldg E,99-659 KAM HWY,HONOLULU,96818,HI,NULL,NULL,0,0,0,NULL,0
2384,HI001488,EFS1,15003007400,1968,2,2586300,8621,21.34907,-157.938152,MERBL,EDU1,Pearl Harbor Kai Elem - Bldg I,99-659 KAM HWY,HONOLULU,96818,HI,NULL,NULL,0,0,0,NULL,0
2385,HI001489,EFS1,15003007807,1974,1,2707500,9025,21.388587,-157.944984,MERBL,EDU1,Pearl Ridge Elementary - Bldg C,98-940 MOANALUA RD,AIEA,96701,HI,NULL,NULL,0,0,0,NULL,0
2386,HI001490,EFS1,15003007807,1991,1,814500,2715,21.388587,-157.944984,MERBL,EDU1,Pearl Ridge Elementary - Bldg D,98-940 MOANALUA RD,AIEA,96701,HI,NULL,NULL,0,0,0,NULL,0
2387,HI001491,EFS1,15003007807,1991,1,814500,2715,21.388587,-157.944984,MERBL,EDU1,Pearl Ridge Elementary - Bldg E,98-940 MOANALUA RD,AIEA,96701,HI,NULL,NULL,0,0,0,NULL,0
2388,HI001492,EFS1,15003007807,1976,1,1329900,4433,21.388587,-157.944984,MERBL,EDU1,Pearl Ridge Elementary - Bldg G,98-940 MOANALUA RD,AIEA,96701,HI,NULL,NULL,0,0,0,NULL,0
2389,HI001493,EFS1,15003007807,1972,1,1898100,6327,21.388587,-157.944984,MERBL,EDU1,Pearl Ridge Elementary - Bldg H,98-940 MOANALUA RD,AIEA,96701,HI,NULL,NULL,0,0,0,NULL,0
2390,HI001494,EFS1,15003007807,1972,1,2380500,7935,21.388587,-157.944984,MERBL,EDU1,Pearl Ridge Elementary - Bldg J,98-940 MOANALUA RD,AIEA,96701,HI,NULL,NULL,0,0,0,NULL,0
2391,HI001495,EFS1,15003008302,1965,2,3590700,11969,21.313723,-158.009911,MERBL,EDU1,Pohakea Elementary - Bldg A,91-950 NORTH RD EWA BCH,EWA BEACH,96706,HI,NULL,NULL,0,0,0,NULL,0
2392,HI001496,EFS1,15003008302,1965,2,3373500,11245,21.313723,-158.009911,MERBL,EDU1,Pohakea Elementary - Bldg B,91-950 NORTH RD EWA BCH,EWA BEACH,96706,HI,NULL,NULL,0,0,0,NULL,0
2393,HI001497,EFS1,15003008302,1965,2,3304200,11014,21.313723,-158.009911,MERBL,EDU1,Pohakea Elementary - Bldg C,91-950 NORTH RD EWA BCH,EWA BEACH,96706,HI,NULL,NULL,0,0,0,NULL,0
2394,HI001498,EFS1,15003008302,1965,1,1249150,7138,21.313723,-158.009911,WSF1,EDU1,Pohakea Elementary - Bldg D,91-950 NORTH RD EWA BCH,EWA BEACH,96706,HI,NULL,NULL,0,0,0,NULL,0
2395,HI001499,EFS1,15003010601,1967,2,3537900,11793,21.409752,-157.791013,MERBL,EDU1,Puohala Elementary - Bldg A,45-235 KULAULI ST,KANEOHE,96744,HI,NULL,NULL,0,0,0,NULL,0
2396,HI001500,EFS1,15003010601,1967,2,3624000,12080,21.409752,-157.791013,MERBL,EDU1,Puohala Elementary - Bldg B,45-235 KULAULI ST,KANEOHE,96744,HI,NULL,NULL,0,0,0,NULL,0
2397,HI001501,EFS1,15003010601,1967,2,3962100,13207,21.409752,-157.791013,MERBL,EDU1,Puohala Elementary - Bldg C,45-235 KULAULI ST,KANEOHE,96744,HI,NULL,NULL,0,0,0,NULL,0
2398,HI001502,EFS1,15003005900,1972,2,5929700,33884,21.326798,-157.884154,WSF2,EDU1,Puuhale Elementary - Bldg A,336 MOKAUEA ST,HONOLULU,96819,HI,NULL,NULL,0,0,0,NULL,0
2399,HI001503,EFS1,15003005900,1973,1,1175650,6718,21.326798,-157.884154,WSF1,EDU1,Puuhale Elementary - Bldg B,336 MOKAUEA ST,HONOLULU,96819,HI,NULL,NULL,0,0,0,NULL,0
2400,HI001504,EFS1,15003005900,1966,1,156800,896,21.326798,-157.884154,WSF1,EDU1,Puuhale Elementary - Bldg P5,336 MOKAUEA ST,HONOLULU,96819,HI,NULL,NULL,0,0,0,NULL,0
2401,HI001505,EFS1,15003005900,1966,1,156800,896,21.326798,-157.884154,WSF1,EDU1,Puuhale Elementary - Bldg P6,336 MOKAUEA ST,HONOLULU,96819,HI,NULL,NULL,0,0,0,NULL,0
2402,HI001506,EFS1,15003007400,1956,2,2944200,9814,21.359431,-157.929088,MERBL,EDU1,Radford High - Bldg B,4361 SALT LAKE BLVD,HONOLULU,96819,HI,NULL,NULL,0,0,0,NULL,0
2403,HI001507,EFS1,15003007400,1956,2,4029000,13430,21.359431,-157.929088,MERBL,EDU1,Radford High - Bldg C,4361 SALT LAKE BLVD,HONOLULU,96819,HI,NULL,NULL,0,0,0,NULL,0
2404,HI001508,EFS1,15003007400,1956,2,3999600,13332,21.359431,-157.929088,MERBL,EDU1,Radford High - Bldg D,4361 SALT LAKE BLVD,HONOLULU,96819,HI,NULL,NULL,0,0,0,NULL,0
2405,HI001509,EFS1,15003007400,1956,1,2701800,9006,21.359431,-157.929088,MERBL,EDU1,Radford High - Bldg F,4361 SALT LAKE BLVD,HONOLULU,96819,HI,NULL,NULL,0,0,0,NULL,0
2406,HI001510,EFS1,15003007400,1980,2,1997700,6659,21.359431,-157.929088,MERBL,EDU1,Radford High - Bldg I,4361 SALT LAKE BLVD,HONOLULU,96819,HI,NULL,NULL,0,0,0,NULL,0
2407,HI001511,EFS1,15003007400,1957,2,2431200,8104,21.359431,-157.929088,MERBL,EDU1,Radford High - Bldg L,4361 SALT LAKE BLVD,HONOLULU,96819,HI,NULL,NULL,0,0,0,NULL,0
2408,HI001512,EFS1,15003007400,1957,2,4029000,13430,21.359431,-157.929088,MERBL,EDU1,Radford High - Bldg M,4361 SALT LAKE BLVD,HONOLULU,96819,HI,NULL,NULL,0,0,0,NULL,0
2409,HI001513,EFS1,15003007400,1963,2,4666800,15556,21.359431,-157.929088,MERBL,EDU1,Radford High - Bldg N,4361 SALT LAKE BLVD,HONOLULU,96819,HI,NULL,NULL,0,0,0,NULL,0
2410,HI001514,EFS1,15003007400,1993,2,4062600,13542,21.359431,-157.929088,MERBL,EDU1,Radford High - Bldg O,4361 SALT LAKE BLVD,HONOLULU,96819,HI,NULL,NULL,0,0,0,NULL,0
2411,HI001515,EFS1,15003006702,1974,2,1495025,8543,21.368342,-157.900097,WSF2,EDU1,Red Hill Elementary - Bldg A,1265 ALA KULA PL,HONOLULU,96819,HI,NULL,NULL,0,0,0,NULL,0
2412,HI001516,EFS1,15003006702,1969,2,2961000,9870,21.368342,-157.900097,MERBL,EDU1,Red Hill Elementary - Bldg B,1265 ALA KULA PL,HONOLULU,96819,HI,NULL,NULL,0,0,0,NULL,0
2413,HI001517,EFS1,15003006702,1969,2,2994900,9983,21.368342,-157.900097,MERBL,EDU1,Red Hill Elementary - Bldg C,1265 ALA KULA PL,HONOLULU,96819,HI,NULL,NULL,0,0,0,NULL,0
2414,HI001518,EFS1,15003003300,1932,3,14057925,80331,21.310553,-157.837321,WMUH3,EDU1,Roosevelt High - Bldg A,1120 NEHOA ST,HONOLULU,96822,HI,NULL,NULL,0,0,0,NULL,0
2415,HI001519,EFS1,15003003300,1959,2,2957400,9858,21.310553,-157.837321,MERBL,EDU1,Roosevelt High - Bldg C,1120 NEHOA ST,HONOLULU,96822,HI,NULL,NULL,0,0,0,NULL,0
2416,HI001520,EFS1,15003003300,1956,1,1101900,3673,21.310553,-157.837321,MERBL,EDU1,Roosevelt High - Bldg D,1120 NEHOA ST,HONOLULU,96822,HI,NULL,NULL,0,0,0,NULL,0
2417,HI001521,EFS1,15003003300,1963,1,2202300,7341,21.310553,-157.837321,MERBL,EDU1,Roosevelt High - Bldg F,1120 NEHOA ST,HONOLULU,96822,HI,NULL,NULL,0,0,0,NULL,0
2418,HI001522,EFS1,15003003300,1965,2,5560200,18534,21.310553,-157.837321,MERBL,EDU1,Roosevelt High - Bldg G,1120 NEHOA ST,HONOLULU,96822,HI,NULL,NULL,0,0,0,NULL,0
2419,HI001523,EFS1,15009030202,1981,1,5382.08,0,20.93216,-156.3253,MERBL,EDU1,HAIKU ELEMENTARY SCHOOL,105 PAUWELA ROAD,HAIKU,NULL,HI,NULL,(808) 575-3000,424,0,0,NULL,0
2420,HI001524,EFS1,15003000302,1967,1,280800,936,21.279147,-157.756841,MERBL,EDU1,Aina Haina Elementary - Bldg P1,827 HIND DR,HONOLULU,96821,HI,NULL,NULL,0,0,0,NULL,0
2421,HI001525,EFS1,15009030100,1982,1,19977.65,69.31800079,20.78989,-156.04087,MERBL,EDU1,HANA HIGH & ELEMENTARY SCHOOL,4111 HANA HIGHWAY,HANA,NULL,HI,NULL,(808) 248-8272,700,0,0,NULL,0
2422,HI001526,EFS1,15003000302,1967,1,270000,900,21.279147,-157.756841,MERBL,EDU1,Aina Haina Elementary - Bldg P2,827 HIND DR,HONOLULU,96821,HI,NULL,NULL,0,0,0,NULL,0
2423,HI001527,EFS1,15009030901,1964,2,17253.61,62.22399902,20.88732,-156.50358,MERBL,EDU1,IAO INTERMEDIATE SCHOOL,1910 KAOHU STREET,WAILUKU,NULL,HI,NULL,(808) 984-5610,830,0,0,NULL,0
2424,HI001528,EFS1,15003000302,1967,1,270000,900,21.279147,-157.756841,MERBL,EDU1,Aina Haina Elementary - Bldg P3,827 HIND DR,HONOLULU,96821,HI,NULL,NULL,0,0,0,NULL,0
2425,HI001529,EFS1,15009031900,1956,1,10419.44,0,20.88172,-156.47168,MERBL,EDU1,KAHULUI ELEMENTARY SCHOOL,410 HINA AVENUE,KAHULUI,NULL,HI,NULL,(808) 873-3055,877,0,0,NULL,0
2426,HI001530,EFS1,15003007000,1958,1,1368000,4560,21.342941,-157.913366,MERBL,EDU1,Aliamanu Elem - Bldg A,3271 SALT LAKE BLVD,HONOLULU,96819,HI,NULL,NULL,0,0,0,NULL,0
2427,HI001531,EFS1,15009031404,1971,1,9007.2,0,20.87093,-156.67668,MERBL,EDU1,KAMEHAMEHA III ELEM SCHOOL,611 FRONT STREET,LAHAINA,NULL,HI,NULL,(808) 662-3955,750,0,0,NULL,0
2428,HI001532,EFS1,15003007000,1958,1,1368000,4560,21.342941,-157.913366,MERBL,EDU1,Aliamanu Elementary - Bldg B,3271 SALT LAKE BLVD,HONOLULU,96819,HI,NULL,NULL,0,0,0,NULL,0
2429,HI001533,EFS1,15009031700,1958,1,9553.55,35.38999939,21.08844,-157.01839,WSF1,EDU1,KAUNAKAKAI ELEMENTARY SCHOOL,30 AILOA STREET,KAUNAKAKAI,NULL,HI,NULL,(808) 553-3271,231,0,0,NULL,0
2430,HI001534,EFS1,15003007000,1958,1,1368000,4560,21.342941,-157.913366,MERBL,EDU1,Aliamanu Elementary - Bldg C,3271 SALT LAKE BLVD,HONOLULU,96819,HI,NULL,NULL,0,0,0,NULL,0
2431,HI001535,EFS1,15009030100,1971,1,1390,0,20.7537,-156.0788,WSF1,EDU1,KEANAE ELEMENTARY SCHOOL,4111 HANA HIGHWAY,KEANAE,NULL,HI,NULL,(808) 248-8013,0,0,0,NULL,0
2432,HI001536,EFS1,15003007000,1958,1,1368000,4560,21.342941,-157.913366,MERBL,EDU1,Aliamanu Elementary - Bldg D,3271 SALT LAKE BLVD,HONOLULU,96819,HI,NULL,NULL,0,0,0,NULL,0
2433,HI001537,EFS1,15009030707,1981,1,12642.53,70.63200378,20.75143,-156.45121,MERBL,EDU1,KIHEI ELEMENTARY SCHOOL,250 EAST LIPOA STREET,KIHEI,NULL,HI,NULL,(808) 875-6818,818,0,0,NULL,0
2434,HI001538,EFS1,15003007000,1958,1,1368000,4560,21.342941,-157.913366,MERBL,EDU1,Aliamanu Elementary - Bldg E,3271 SALT LAKE BLVD,HONOLULU,96819,HI,NULL,NULL,0,0,0,NULL,0
2435,HI001539,EFS1,15009031700,1971,1,1390,0,21.0946,-156.9337,WSF1,EDU1,KILOHANA ELEMENTARY SCHOOL,HC 01  BOX 334,KAUNAKAKAI,NULL,HI,NULL,(808) 558-2200,98,0,0,NULL,0
2436,HI001540,EFS1,15003007000,1958,1,1420800,4736,21.342941,-157.913366,MERBL,EDU1,Aliamanu Elementary - Bldg F,3271 SALT LAKE BLVD,HONOLULU,96819,HI,NULL,NULL,0,0,0,NULL,0
2437,HI001541,EFS1,15009031801,1973,1,7234.07,28.71100044,21.15912,-157.04221,MERBL,EDU1,KUALAPUU PUBLIC CHARTER SCHOOL,260 FARRINGTON HIGHWAY,KUALAPUU,NULL,HI,NULL,(808) 567-6126,363,0,0,NULL,0
2438,HI001542,EFS1,15003007000,1960,1,1420800,4736,21.342941,-157.913366,MERBL,EDU1,Aliamanu Elementary - Bldg G,3271 SALT LAKE BLVD,HONOLULU,96819,HI,NULL,NULL,0,0,0,NULL,0
2439,HI001543,EFS1,15009030301,1983,1,5548.88,0,20.80234,-156.32979,MERBL,EDU1,KULA ELEMENTARY SCHOOL,5000 KULA HIGHWAY,KULA,NULL,HI,NULL,(808) 876-7610,439,0,0,NULL,0
2440,HI001544,EFS1,15003007000,1960,1,1420800,4736,21.342941,-157.913366,MERBL,EDU1,Aliamanu Elementary - Bldg H,3271 SALT LAKE BLVD,HONOLULU,96819,HI,NULL,NULL,0,0,0,NULL,0
2441,HI001545,EFS1,15009031405,1984,2,16402.57,58.68799973,20.88849,-156.66491,MERBL,EDU1,LAHAINA INTERMEDIATE SCHOOL,871 LAHAINALUNA ROAD,LAHAINA,NULL,HI,NULL,(808) 662-3965,578,0,0,NULL,0
2442,HI001546,EFS1,15003007000,1959,2,1648800,5496,21.342814,-157.915655,MERBL,EDU1,Aliamanu Intermediate - Bldg A,3271 SALT LAKE BLVD,HONOLULU,96819,HI,NULL,NULL,0,0,0,NULL,0
2443,HI001547,EFS1,15009031405,1983,1,15238.57,0,20.89047,-156.66275,MERBL,EDU1,LAHAINALUNA HIGH SCHOOL,980 LAHAINALUNA ROAD,LAHAINA,NULL,HI,NULL,(808) 662-4000,833,0,0,NULL,0
2444,HI001548,EFS1,15003007000,1959,2,3747000,12490,21.342814,-157.915655,MERBL,EDU1,Aliamanu Intermediate - Bldg B,3271 SALT LAKE BLVD,HONOLULU,96819,HI,NULL,NULL,0,0,0,NULL,0
2445,HI001549,EFS1,15009031601,1966,1,27088.43,93.22899628,20.8295,-156.92468,MERBL,EDU1,LANAI HIGH & ELEMENTARY SCHOOL,555 FRASIER AVENUE,LANAI CITY,NULL,HI,NULL,(808) 565-7224,800,0,0,NULL,0
2446,HI001550,EFS1,15003007000,1959,2,3292200,10974,21.342814,-157.915655,MERBL,EDU1,Aliamanu Intermediate - Bldg C,3271 SALT LAKE BLVD,HONOLULU,96819,HI,NULL,NULL,0,0,0,NULL,0
2447,HI001551,EFS1,15009031101,1968,1,17135.04,68.64399719,20.88341,-156.48774,MERBL,EDU1,LIHIKAI ELEMENTARY SCHOOL,335 SOUTH PAPA AVENUE,KAHULUI,NULL,HI,NULL,(808) 873-3033,1127,0,0,NULL,0
2448,HI001552,EFS1,15003007000,1960,2,3796800,12656,21.342814,-157.915655,MERBL,EDU1,Aliamanu Intermediate - Bldg D,3271 SALT LAKE BLVD,HONOLULU,96819,HI,NULL,NULL,0,0,0,NULL,0
2449,HI001553,EFS1,15003003300,1935,1,3777600,12592,21.310553,-157.837321,MERBL,EDU1,Roosevelt High - Bldg J,1120 NEHOA ST,HONOLULU,96822,HI,NULL,NULL,0,0,0,NULL,0
2450,HI001554,EFS1,15003003300,1970,2,1858800,6196,21.310553,-157.837321,MERBL,EDU1,Roosevelt High - Bldg N,1120 NEHOA ST,HONOLULU,96822,HI,NULL,NULL,0,0,0,NULL,0
2451,HI001555,EFS1,15003004100,1967,2,3656100,12187,21.31175,-157.85378,MERBL,EDU1,Royal Elementary - Bldg A,1519 QUEEN EMMA ST,HONOLULU,96813,HI,NULL,NULL,0,0,0,NULL,0
2452,HI001556,EFS1,15003004100,1965,2,3561300,11871,21.31175,-157.85378,MERBL,EDU1,Royal Elementary - Bldg B,1519 QUEEN EMMA ST,HONOLULU,96813,HI,NULL,NULL,0,0,0,NULL,0
2453,HI001557,EFS1,15003004100,1951,1,1248000,4160,21.31175,-157.85378,MERBL,EDU1,Royal Elementary - Bldg C,1519 QUEEN EMMA ST,HONOLULU,96813,HI,NULL,NULL,0,0,0,NULL,0
2454,HI001558,EFS1,15003006805,1972,1,1125250,6430,21.35171,-157.91178,WSF1,EDU1,Salt Lake Elem - Bldg A,1131 ALA LILIKOI,HONOLULU,96819,HI,NULL,NULL,0,0,0,NULL,0
2455,HI001559,EFS1,15003006805,1973,1,2587200,8624,21.35171,-157.91178,MERBL,EDU1,Salt Lake Elem - Bldg C,1131 ALA LILIKOI,HONOLULU,96819,HI,NULL,NULL,0,0,0,NULL,0
2456,HI001560,EFS1,15003006805,1973,2,5005200,16684,21.35171,-157.91178,MERBL,EDU1,Salt Lake Elem - Bldg F,1131 ALA LILIKOI,HONOLULU,96819,HI,NULL,NULL,0,0,0,NULL,0
2457,HI001561,EFS1,15003006600,1966,2,3470100,11567,21.341911,-157.884695,MERBL,EDU1,Shafter Elementary - Bldg A,2508 KAUA ST,FORT SHAFTER,96858,HI,NULL,NULL,0,0,0,NULL,0
2458,HI001562,EFS1,15003006600,1966,2,1927975,11017,21.341911,-157.884695,WSF2,EDU1,Shafter Elementary - Bldg B,2508 KAUA ST,FORT SHAFTER,96858,HI,NULL,NULL,0,0,0,NULL,0
2459,HI001563,EFS1,15003006600,1968,1,834925,4771,21.341911,-157.884695,WSF1,EDU1,Shafter Elementary - Bldg C,2508 KAUA ST,FORT SHAFTER,96858,HI,NULL,NULL,0,0,0,NULL,0
2460,HI001564,EFS1,15003009501,1969,2,1752000,5840,21.491057,-158.0725,MERBL,EDU1,Solomon Elementary - Bldg A,1701 *WILIKINA DR,SCHOFIELD BARRACKS,96857,HI,NULL,NULL,0,0,0,NULL,0
2461,HI001565,EFS1,15003009501,1969,2,2891350,16522,21.491057,-158.0725,WSF2,EDU1,Solomon Elementary - Bldg B,1701 *WILIKINA DR,SCHOFIELD BARRACKS,96857,HI,NULL,NULL,0,0,0,NULL,0
2462,HI001566,EFS1,15003009501,1969,2,4223400,14078,21.491057,-158.0725,MERBL,EDU1,Solomon Elementary - Bldg C,1701 *WILIKINA DR,SCHOFIELD BARRACKS,96857,HI,NULL,NULL,0,0,0,NULL,0
2463,HI001567,EFS1,15003009501,1976,2,3713400,12378,21.491057,-158.0725,MERBL,EDU1,Solomon Elementary - Bldg E,1701 *WILIKINA DR,SCHOFIELD BARRACKS,96857,HI,NULL,NULL,0,0,0,NULL,0
2464,HI001568,EFS1,15003009501,1994,1,142100,812,21.491057,-158.0725,WSF1,EDU1,Solomon Elementary - Bldg P21,1701 *WILIKINA DR,SCHOFIELD BARRACKS,96857,HI,NULL,NULL,0,0,0,NULL,0
2465,HI001569,EFS1,15003009501,1994,1,142100,812,21.491057,-158.0725,WSF1,EDU1,Solomon Elementary - Bldg P22,1701 *WILIKINA DR,SCHOFIELD BARRACKS,96857,HI,NULL,NULL,0,0,0,NULL,0
2466,HI001570,EFS1,15003009501,1994,1,142100,812,21.491057,-158.0725,WSF1,EDU1,Solomon Elementary - Bldg P23,1701 *WILIKINA DR,SCHOFIELD BARRACKS,96857,HI,NULL,NULL,0,0,0,NULL,0
2467,HI001571,EFS1,15003004300,1951,2,9114700,52084,21.310328,-157.840243,WSF2,EDU1,Stevenson Middle - Bldg A,1202 PROSPECT ST,HONOLULU,96813,HI,NULL,NULL,0,0,0,NULL,0
2468,HI001572,EFS1,15003004300,1954,1,2130300,7101,21.310328,-157.840243,MERBL,EDU1,Stevenson Middle - Bldg B,1202 PROSPECT ST,HONOLULU,96813,HI,NULL,NULL,0,0,0,NULL,0
2469,HI001573,EFS1,15003004300,1954,1,703675,4021,21.310328,-157.840243,WSF1,EDU1,Stevenson Middle - Bldg C,1202 PROSPECT ST,HONOLULU,96813,HI,NULL,NULL,0,0,0,NULL,0
2470,HI001574,EFS1,15003004300,1954,1,1648800,5496,21.310328,-157.840243,MERBL,EDU1,Stevenson Middle - Bldg E,1202 PROSPECT ST,HONOLULU,96813,HI,NULL,NULL,0,0,0,NULL,0
2471,HI001575,EFS1,15003004300,1954,1,2154000,7180,21.310328,-157.840243,MERBL,EDU1,Stevenson Middle - Bldg F,1202 PROSPECT ST,HONOLULU,96813,HI,NULL,NULL,0,0,0,NULL,0
2472,HI001576,EFS1,15003009200,1950,1,1827600,6092,21.504881,-158.017807,MERBL,EDU1,Wahiawa Elementary - Bldg B,1390 GLEN AVE,WAHIAWA,96786,HI,NULL,NULL,0,0,0,NULL,0
2473,HI001577,EFS1,15003009200,1950,1,1827600,6092,21.504881,-158.017807,MERBL,EDU1,Wahiawa Elementary - Bldg C,1390 GLEN AVE,WAHIAWA,96786,HI,NULL,NULL,0,0,0,NULL,0
2474,HI001578,EFS1,15003009200,1955,1,1845600,6152,21.504881,-158.017807,MERBL,EDU1,Wahiawa Elementary - Bldg D,1390 GLEN AVE,WAHIAWA,96786,HI,NULL,NULL,0,0,0,NULL,0
2475,HI001579,EFS1,15003009200,1950,1,318000,1060,21.504881,-158.017807,MERBL,EDU1,Wahiawa Elementary - Bldg E,1390 GLEN AVE,WAHIAWA,96786,HI,NULL,NULL,0,0,0,NULL,0
2476,HI001580,EFS1,15003009200,1950,1,1827600,6092,21.504881,-158.017807,MERBL,EDU1,Wahiawa Elementary - Bldg F,1390 GLEN AVE,WAHIAWA,96786,HI,NULL,NULL,0,0,0,NULL,0
2477,HI001581,EFS1,15003009200,1950,1,1827600,6092,21.504881,-158.017807,MERBL,EDU1,Wahiawa Elementary - Bldg G,1390 GLEN AVE,WAHIAWA,96786,HI,NULL,NULL,0,0,0,NULL,0
2478,HI001582,EFS1,15003009200,1950,1,1827600,6092,21.504881,-158.017807,MERBL,EDU1,Wahiawa Elementary - Bldg H,1390 GLEN AVE,WAHIAWA,96786,HI,NULL,NULL,0,0,0,NULL,0
2479,HI001583,EFS1,15003009000,1961,2,3405600,11352,21.49405,-158.018641,MERBL,EDU1,Wahiawa Middle - Bldg A,275 ROSE ST WAHI,WAHIAWA,96786,HI,NULL,NULL,0,0,0,NULL,0
2480,HI001584,EFS1,15003009000,1963,2,3397200,11324,21.49405,-158.018641,MERBL,EDU1,Wahiawa Middle - Bldg B,275 ROSE ST WAHI,WAHIAWA,96786,HI,NULL,NULL,0,0,0,NULL,0
2481,HI001585,EFS1,15007040604,1983,1,2557.6,0,21.90216,-159.4692,WSF1,EDU1,KOLOA ELEMENTARY SCHOOL,3223 POIPU ROAD,KOLOA,NULL,HI,NULL,(808) 742-9966,334,0,0,NULL,0
2482,HI001586,EFS1,15003008500,1954,1,1610700,9204,21.322413,-158.081912,WSF1,EDU1,Barbers Point Elem - Bldg B,91-1001 BOXER ST BPNAS,BARBERS POINT,96862,HI,NULL,NULL,0,0,0,NULL,0
2483,HI001587,EFS1,15007040900,1983,1,5120.76,0,22.0299,-159.6762,MERBL,EDU1,NIIHAU HIGH & ELEMENTARY SCHOOL,Tsuchiya Rd,WAIMEA,NULL,HI,NULL,(808) 338-6800,307,0,0,NULL,0
2484,HI001588,EFS1,15003011302,1965,2,3596100,11987,21.328112,-157.695197,MERBL,EDU1,Blanche Pope Elementary - Bldg A,41-133 HULI ST WAIM,WAIMANALO,96795,HI,NULL,NULL,0,0,0,NULL,0
2485,HI001589,EFS1,15007040900,1981,1,6071.52,0,21.95892,-159.66709,MERBL,EDU1,WAIMEA CANYON ELEM & INTER,9555 HUAKAI ROAD,WAIMEA,NULL,HI,NULL,(808) 338-6830,486,0,0,NULL,0
2486,HI001590,EFS1,15003011302,1969,2,3402000,11340,21.328112,-157.695197,MERBL,EDU1,Blanche Pope Elementary - Bldg B,41-133 HULI ST WAIM,WAIMANALO,96795,HI,NULL,NULL,0,0,0,NULL,0
2487,HI001591,EFS1,15007040900,1981,2,12318.18,0,21.95721,-159.66861,MERBL,EDU1,WAIMEA HIGH SCHOOL,9707 TSUCHIYA ROAD,WAIMEA,NULL,HI,NULL,(808) 338-6800,642,0,0,NULL,0
2488,HI001592,EFS1,15003011302,1975,2,4614900,15383,21.328112,-157.695197,MERBL,EDU1,Blanche Pope Elementary - Bldg C,41-133 HULI ST WAIM,WAIMANALO,96795,HI,NULL,NULL,0,0,0,NULL,0
2489,HI001593,EFS1,15007040500,1980,1,10564,0,21.97957,-159.3668,MERBL,EDU1,WILCOX ELEMENTARY SCHOOL,4319 HARDY STREET,LIHUE,NULL,HI,NULL,(808) 274-3150,890,0,0,NULL,0
2490,HI001594,EFS1,15003011302,1965,1,1081675,6181,21.328112,-157.695197,WSF1,EDU1,Blanche Pope Elementary - Bldg D,41-133 HULI ST WAIM,WAIMANALO,96795,HI,NULL,NULL,0,0,0,NULL,0
2491,HI001595,EFS1,15003008302,1975,3,11876400,39588,21.315775,-158.008347,MERBL,EDU1,Campbell High - Bldg D,91-950 NORTH RD EWA BCH,EWA BEACH,96706,HI,NULL,NULL,0,0,0,NULL,0
2492,HI001596,EFS1,15003008302,1973,1,1478050,8446,21.315775,-158.008347,WSF1,EDU1,Campbell High - Bldg E,91-950 NORTH RD EWA BCH,EWA BEACH,96706,HI,NULL,NULL,0,0,0,NULL,0
2493,HI001597,EFS1,15003008302,1973,1,1282500,4275,21.315775,-158.008347,MERBL,EDU1,Campbell High - Bldg F,91-950 NORTH RD EWA BCH,EWA BEACH,96706,HI,NULL,NULL,0,0,0,NULL,0
2494,HI001598,EFS1,15003008302,1968,2,6901500,23005,21.315775,-158.008347,MERBL,EDU1,Campbell High - Bldg G,91-950 NORTH RD EWA BCH,EWA BEACH,96706,HI,NULL,NULL,0,0,0,NULL,0
2495,HI001599,EFS1,15003008302,1976,1,7053300,23511,21.315775,-158.008347,MERBL,EDU1,Campbell High - Bldg H,91-950 NORTH RD EWA BCH,EWA BEACH,96706,HI,NULL,NULL,0,0,0,NULL,0
2496,HI001600,EFS1,15003008302,1974,1,4704900,15683,21.315775,-158.008347,MERBL,EDU1,Campbell High - Bldg J,91-950 NORTH RD EWA BCH,EWA BEACH,96706,HI,NULL,NULL,0,0,0,NULL,0
2497,HI001601,EFS1,15003008302,1968,1,5042400,16808,21.315775,-158.008347,MERBL,EDU1,Campbell High - Bldg K,91-950 NORTH RD EWA BCH,EWA BEACH,96706,HI,NULL,NULL,0,0,0,NULL,0
2498,HI001602,EFS1,15003008302,1972,1,1940700,6469,21.315775,-158.008347,MERBL,EDU1,Campbell High - Bldg L,91-950 NORTH RD EWA BCH,EWA BEACH,96706,HI,NULL,NULL,0,0,0,NULL,0
2499,HI001603,EFS1,15003008302,1971,1,3893400,22248,21.315775,-158.008347,WSF1,EDU1,Campbell High - Bldg N,91-950 NORTH RD EWA BCH,EWA BEACH,96706,HI,NULL,NULL,0,0,0,NULL,0
2500,HI001604,EFS1,15003008302,1963,2,6375900,21253,21.315775,-158.008347,MERBL,EDU1,Campbell High - Bldg O,91-950 NORTH RD EWA BCH,EWA BEACH,96706,HI,NULL,NULL,0,0,0,NULL,0
2501,HI001605,EFS1,15003008302,1974,1,4704900,15683,21.315775,-158.008347,MERBL,EDU1,Campbell High - Bldg I,91-950 NORTH RD EWA BCH,EWA BEACH,96706,HI,NULL,NULL,0,0,0,NULL,0
2502,HI001606,EFS1,15003010602,1980,1,6997200,23324,21.403144,-157.794583,MERBL,EDU1,Castle High - Bldg BB,45-386 KANEOHE BAY DR,KANEOHE,96744,HI,NULL,NULL,0,0,0,NULL,0
2503,HI001607,EFS1,15003010602,1955,1,1140000,3800,21.403144,-157.794583,MERBL,EDU1,Castle High - Bldg C,45-386 KANEOHE BAY DR,KANEOHE,96744,HI,NULL,NULL,0,0,0,NULL,0
2504,HI001608,EFS1,15003010602,1990,1,1169525,6683,21.403144,-157.794583,WSF1,EDU1,Castle High - Bldg CC,45-386 KANEOHE BAY DR,KANEOHE,96744,HI,NULL,NULL,0,0,0,NULL,0
2505,HI001609,EFS1,15003010602,1955,1,1338000,4460,21.403144,-157.794583,MERBL,EDU1,Castle High - Bldg D,45-386 KANEOHE BAY DR,KANEOHE,96744,HI,NULL,NULL,0,0,0,NULL,0
2506,HI001610,EFS1,15003010602,1991,1,1100400,6288,21.403144,-157.794583,WSF1,EDU1,Castle High - Bldg DD,45-386 KANEOHE BAY DR,KANEOHE,96744,HI,NULL,NULL,0,0,0,NULL,0
2507,HI001611,EFS1,15003010602,1955,1,2034300,6781,21.403144,-157.794583,MERBL,EDU1,Castle High - Bldg E,45-386 KANEOHE BAY DR,KANEOHE,96744,HI,NULL,NULL,0,0,0,NULL,0
2508,HI001612,EFS1,15003010602,1997,1,6699300,22331,21.403144,-157.794583,MERBL,EDU1,Castle High - Bldg EE,45-386 KANEOHE BAY DR,KANEOHE,96744,HI,NULL,NULL,0,0,0,NULL,0
2509,HI001613,EFS1,15003010602,1950,1,2016900,6723,21.403144,-157.794583,MERBL,EDU1,Castle High - Bldg F,45-386 KANEOHE BAY DR,KANEOHE,96744,HI,NULL,NULL,0,0,0,NULL,0
2510,HI001614,EFS1,15003010602,1999,1,50000,1000,21.403144,-157.794583,WSF1,EDU1,Castle High - Bldg FF,45-386 KANEOHE BAY DR,KANEOHE,96744,HI,NULL,NULL,0,0,0,NULL,0
2511,HI001615,EFS1,15003010602,1958,1,1390500,4635,21.403144,-157.794583,MERBL,EDU1,Castle High - Bldg K,45-386 KANEOHE BAY DR,KANEOHE,96744,HI,NULL,NULL,0,0,0,NULL,0
2512,HI001616,EFS1,15003009000,1963,2,3397200,11324,21.49405,-158.018641,MERBL,EDU1,Wahiawa Middle - Bldg C,275 ROSE ST WAHI,WAHIAWA,96786,HI,NULL,NULL,0,0,0,NULL,0
2513,HI001617,EFS1,15003009000,1963,1,1500300,5001,21.49405,-158.018641,MERBL,EDU1,Wahiawa Middle - Bldg H,275 ROSE ST WAHI,WAHIAWA,96786,HI,NULL,NULL,0,0,0,NULL,0
2514,HI001618,EFS1,15003010303,1957,1,1469700,4899,21.483287,-157.851652,MERBL,EDU1,Waiahole Elementary - Bldg G,48-215 WAIAHOLE VALLEY RD,KANEOHE,96744,HI,NULL,NULL,0,0,0,NULL,0
2515,HI001619,EFS1,15003010303,1966,1,156800,896,21.483287,-157.851652,WSF1,EDU1,Waiahole Elementary - Bldg P1,48-215 WAIAHOLE VALLEY RD,KANEOHE,96744,HI,NULL,NULL,0,0,0,NULL,0
2516,HI001620,EFS1,15003010303,1966,1,156800,896,21.483287,-157.851652,WSF1,EDU1,Waiahole Elementary - Bldg P2,48-215 WAIAHOLE VALLEY RD,KANEOHE,96744,HI,NULL,NULL,0,0,0,NULL,0
2517,HI001621,EFS1,15003000700,1964,2,2435475,13917,21.276112,-157.792563,WSF2,EDU1,Waialae Elementary PCS - Bldg A,1045 19TH AVE,HONOLULU,96816,HI,NULL,NULL,0,0,0,NULL,0
2518,HI001622,EFS1,15003000700,1965,2,3819900,12733,21.276112,-157.792563,MERBL,EDU1,Waialae Elementary PCS - Bldg B,1045 19TH AVE,HONOLULU,96816,HI,NULL,NULL,0,0,0,NULL,0
2519,HI001623,EFS1,15003009901,1966,2,2677675,15301,21.575492,-158.121635,WSF2,EDU1,Waialua Elementary - Bldg A,67-20 WAIALUA BEACH RD,WAIALUA,96791,HI,NULL,NULL,0,0,0,NULL,0
2520,HI001624,EFS1,15003009901,1993,2,2812500,9375,21.575492,-158.121635,MERBL,EDU1,Waialua Elementary - Bldg D,67-20 WAIALUA BEACH RD,WAIALUA,96791,HI,NULL,NULL,0,0,0,NULL,0
2521,HI001625,EFS1,15003009901,1972,1,2562300,8541,21.565831,-158.126461,MERBL,EDU1,Waialua High & Interm - Bldg C,67-595A KAHUI ST,WAIALUA,96791,HI,NULL,NULL,0,0,0,NULL,0
2522,HI001626,EFS1,15003009901,1955,1,1896125,10835,21.565831,-158.126461,WSF1,EDU1,Waialua High & Interm - Bldg F,67-595A KAHUI ST,WAIALUA,96791,HI,NULL,NULL,0,0,0,NULL,0
2523,HI001627,EFS1,15003009901,1965,1,1316100,4387,21.565831,-158.126461,MERBL,EDU1,Waialua High & Interm - Bldg L,67-595A KAHUI ST,WAIALUA,96791,HI,NULL,NULL,0,0,0,NULL,0
2524,HI001628,EFS1,15003009901,1978,2,3767700,12559,21.565831,-158.126461,MERBL,EDU1,Waialua High & Interm - Bldg S,67-595A KAHUI ST,WAIALUA,96791,HI,NULL,NULL,0,0,0,NULL,0
2525,HI001629,EFS1,15003009901,1980,2,8297100,27657,21.565831,-158.126461,MERBL,EDU1,Waialua High & Interm - Bldg T,67-595A KAHUI ST,WAIALUA,96791,HI,NULL,NULL,0,0,0,NULL,0
2526,HI001630,EFS1,15003009901,1985,1,1998300,6661,21.565831,-158.126461,MERBL,EDU1,Waialua High & Interm - Bldg U,67-595A KAHUI ST,WAIALUA,96791,HI,NULL,NULL,0,0,0,NULL,0
2527,HI001631,EFS1,15003009901,1993,1,1831200,6104,21.565831,-158.126461,MERBL,EDU1,Waialua High & Interm - Bldg V,67-595A KAHUI ST,WAIALUA,96791,HI,NULL,NULL,0,0,0,NULL,0
2528,HI001632,EFS1,15003009901,1971,1,2217600,7392,21.565831,-158.126461,MERBL,EDU1,Waialua High & Interm - Bldg W,67-595A KAHUI ST,WAIALUA,96791,HI,NULL,NULL,0,0,0,NULL,0
2529,HI001633,EFS1,15003009701,1950,1,1342500,4475,21.445894,-158.184531,MERBL,EDU1,Waianae Elementary - Bldg B,85-220 MCARTHUR ST,WAIANAE,96792,HI,NULL,NULL,0,0,0,NULL,0
2530,HI001634,EFS1,15003009701,1949,1,659400,3768,21.445894,-158.184531,WSF1,EDU1,Waianae Elementary - Bldg C,85-220 MCARTHUR ST,WAIANAE,96792,HI,NULL,NULL,0,0,0,NULL,0
2531,HI001635,EFS1,15003009701,1950,1,1239600,4132,21.445894,-158.184531,MERBL,EDU1,Waianae Elementary - Bldg D,85-220 MCARTHUR ST,WAIANAE,96792,HI,NULL,NULL,0,0,0,NULL,0
2532,HI001636,EFS1,15003009701,1965,1,927000,3090,21.445894,-158.184531,MERBL,EDU1,Waianae Elementary - Bldg F,85-220 MCARTHUR ST,WAIANAE,96792,HI,NULL,NULL,0,0,0,NULL,0
2533,HI001637,EFS1,15003009701,1982,2,3253500,10845,21.445894,-158.184531,MERBL,EDU1,Waianae Elementary - Bldg G,85-220 MCARTHUR ST,WAIANAE,96792,HI,NULL,NULL,0,0,0,NULL,0
2534,HI001638,EFS1,15003009701,1969,1,1545900,5153,21.445894,-158.184531,MERBL,EDU1,Waianae Elementary - Bldg L,85-220 MCARTHUR ST,WAIANAE,96792,HI,NULL,NULL,0,0,0,NULL,0
2535,HI001639,EFS1,15003007805,1974,2,5241900,17473,21.398872,-157.953306,MERBL,EDU1,Waiau Elementary - Bldg D,98-450 HOOKANIKE ST,PEARL CITY,96782,HI,NULL,NULL,0,0,0,NULL,0
2536,HI001640,EFS1,15003007805,1979,2,2921400,9738,21.398872,-157.953306,MERBL,EDU1,Waiau Elementary - Bldg F,98-450 HOOKANIKE ST,PEARL CITY,96782,HI,NULL,NULL,0,0,0,NULL,0
2537,HI001641,EFS1,15003001700,1964,2,3047400,10158,21.267946,-157.814481,MERBL,EDU1,Waikiki Elementary - Bldg B,3710 LEAHI AVE,HONOLULU,96815,HI,NULL,NULL,0,0,0,NULL,0
2538,HI001642,EFS1,15003001700,1964,2,3047400,10158,21.267946,-157.814481,MERBL,EDU1,Waikiki Elementary - Bldg C,3710 LEAHI AVE,HONOLULU,96815,HI,NULL,NULL,0,0,0,NULL,0
2539,HI001643,EFS1,15003008002,1961,1,1679400,5598,21.389983,-157.950386,MERBL,EDU1,Waimalu Elementary - Bldg A,98-825 MOANALUA RD,AIEA,96701,HI,NULL,NULL,0,0,0,NULL,0
2540,HI001644,EFS1,15003008002,1961,1,1200325,6859,21.389983,-157.950386,WSF1,EDU1,Waimalu Elementary - Bldg B,98-825 MOANALUA RD,AIEA,96701,HI,NULL,NULL,0,0,0,NULL,0
2541,HI001645,EFS1,15003008002,1961,2,4057800,13526,21.389983,-157.950386,MERBL,EDU1,Waimalu Elementary - Bldg D,98-825 MOANALUA RD,AIEA,96701,HI,NULL,NULL,0,0,0,NULL,0
2542,HI001646,EFS1,15003008002,1961,2,4008600,13362,21.389983,-157.950386,MERBL,EDU1,Waimalu Elementary - Bldg E,98-825 MOANALUA RD,AIEA,96701,HI,NULL,NULL,0,0,0,NULL,0
2543,HI001647,EFS1,15003000106,1967,1,1323300,4411,21.296229,-157.710167,MERBL,EDU1,Hahaione Elementary - Bldg A,595 PEPEEKEO ST,HONOLULU,96825,HI,NULL,NULL,0,0,0,NULL,0
2544,HI001648,EFS1,15003000106,1967,1,1323300,4411,21.296229,-157.710167,MERBL,EDU1,Hahaione Elementary - Bldg B,595 PEPEEKEO ST,HONOLULU,96825,HI,NULL,NULL,0,0,0,NULL,0
2545,HI001649,EFS1,15003000106,1967,1,1323300,4411,21.296229,-157.710167,MERBL,EDU1,Hahaione Elementary - Bldg C,595 PEPEEKEO ST,HONOLULU,96825,HI,NULL,NULL,0,0,0,NULL,0
2546,HI001650,EFS1,15003000106,1972,1,3258000,10860,21.296229,-157.710167,MERBL,EDU1,Hahaione Elementary - Bldg H,595 PEPEEKEO ST,HONOLULU,96825,HI,NULL,NULL,0,0,0,NULL,0
2547,HI001651,EFS1,15003000106,1967,1,1176350,6722,21.296229,-157.710167,WSF1,EDU1,Hahaione Elementary - Bldg I,595 PEPEEKEO ST,HONOLULU,96825,HI,NULL,NULL,0,0,0,NULL,0
2548,HI001652,EFS1,15003010506,1960,1,4022400,13408,21.418251,-157.808585,MERBL,EDU1,Heeia Elementary - Bldg B,46-202 HAIKU RD,KANEOHE,96744,HI,NULL,NULL,0,0,0,NULL,0
2549,HI001653,EFS1,15003010506,1961,1,4022400,13408,21.418251,-157.808585,MERBL,EDU1,Heeia Elementary - Bldg C,46-202 HAIKU RD,KANEOHE,96744,HI,NULL,NULL,0,0,0,NULL,0
2550,HI001654,EFS1,15003010506,1971,1,1411500,4705,21.418251,-157.808585,MERBL,EDU1,Heeia Elementary - Bldg F,46-202 HAIKU RD,KANEOHE,96744,HI,NULL,NULL,0,0,0,NULL,0
2551,HI001655,EFS1,15003010506,1994,1,142100,812,21.418251,-157.808585,WSF1,EDU1,Heeia Elementary - Bldg P1,46-202 HAIKU RD,KANEOHE,96744,HI,NULL,NULL,0,0,0,NULL,0
2552,HI001656,EFS1,15003010506,1996,1,142100,812,21.418251,-157.808585,WSF1,EDU1,Heeia Elementary - Bldg P2,46-202 HAIKU RD,KANEOHE,96744,HI,NULL,NULL,0,0,0,NULL,0
2553,HI001657,EFS1,15003009100,1992,2,2386800,7956,21.514167,-158.023312,MERBL,EDU1,Helemano Elem - Bldg F,1001 IHIIHI AVE,WAHIAWA,96786,HI,NULL,NULL,0,0,0,NULL,0
2554,HI001658,EFS1,15003009100,1996,2,2581500,8605,21.514167,-158.023312,MERBL,EDU1,Helemano Elem - Bldg G,1001 IHIIHI AVE,WAHIAWA,96786,HI,NULL,NULL,0,0,0,NULL,0
2555,HI001659,EFS1,15003009100,1994,1,142100,812,21.514167,-158.023312,WSF1,EDU1,Helemano Elem - Bldg P12,1001 IHIIHI AVE,WAHIAWA,96786,HI,NULL,NULL,0,0,0,NULL,0
2556,HI001660,EFS1,15003009100,1994,1,142100,812,21.514167,-158.023312,WSF1,EDU1,Helemano Elem - Bldg P13,1001 IHIIHI AVE,WAHIAWA,96786,HI,NULL,NULL,0,0,0,NULL,0
2557,HI001661,EFS1,15003009100,1994,1,142100,812,21.514167,-158.023312,WSF1,EDU1,Helemano Elem - Bldg P14,1001 IHIIHI AVE,WAHIAWA,96786,HI,NULL,NULL,0,0,0,NULL,0
2558,HI001662,EFS1,15003007300,1950,1,1224300,4081,21.342489,-157.963694,MERBL,EDU1,Hickam Elementary - Bldg F,MANZELMAN ST,HICKAM AFB,96853,HI,NULL,NULL,0,0,0,NULL,0
2559,HI001663,EFS1,15003007300,1950,1,956550,5466,21.342489,-157.963694,WSF1,EDU1,Hickam Elementary - Bldg G,MANZELMAN ST,HICKAM AFB,96853,HI,NULL,NULL,0,0,0,NULL,0
2560,HI001664,EFS1,15003007300,1950,1,1426800,4756,21.342489,-157.963694,MERBL,EDU1,Hickam Elementary - Bldg H,MANZELMAN ST,HICKAM AFB,96853,HI,NULL,NULL,0,0,0,NULL,0
2561,HI001665,EFS1,15003007300,1950,1,775800,2586,21.342489,-157.963694,MERBL,EDU1,Hickam Elementary - Bldg I,MANZELMAN ST,HICKAM AFB,96853,HI,NULL,NULL,0,0,0,NULL,0
2562,HI001666,EFS1,15003007300,1965,2,3396000,11320,21.342489,-157.963694,MERBL,EDU1,Hickam Elementary - Bldg K,MANZELMAN ST,HICKAM AFB,96853,HI,NULL,NULL,0,0,0,NULL,0
2563,HI001667,EFS1,15003007300,1994,1,142100,812,21.342489,-157.963694,WSF1,EDU1,Hickam Elementary - Bldg P8,MANZELMAN ST,HICKAM AFB,96853,HI,NULL,NULL,0,0,0,NULL,0
2564,HI001668,EFS1,15003007300,1950,1,2334000,7780,21.342489,-157.963694,MERBL,EDU1,Hickam Elementary - Bldg C,MANZELMAN ST,HICKAM AFB,96853,HI,NULL,NULL,0,0,0,NULL,0
2565,HI001669,EFS1,15003007300,1950,1,621000,2070,21.342489,-157.963694,MERBL,EDU1,Hickam Elementary - Bldg E,MANZELMAN ST,HICKAM AFB,96853,HI,NULL,NULL,0,0,0,NULL,0
2566,HI001670,EFS1,15003008007,1959,2,4601400,15338,21.400958,-157.962619,MERBL,EDU1,Highlands Intermediate - Bldg A,1460 HOOLAULEA ST,PEARL CITY,96782,HI,NULL,NULL,0,0,0,NULL,0
2567,HI001671,EFS1,15003008007,1959,2,3836400,12788,21.400958,-157.962619,MERBL,EDU1,Highlands Intermediate - Bldg B,1460 HOOLAULEA ST,PEARL CITY,96782,HI,NULL,NULL,0,0,0,NULL,0
2568,HI001672,EFS1,15003008007,1961,1,1899300,6331,21.400958,-157.962619,MERBL,EDU1,Highlands Intermediate - Bldg C,1460 HOOLAULEA ST,PEARL CITY,96782,HI,NULL,NULL,0,0,0,NULL,0
2569,HI001673,EFS1,15003008007,1961,1,4083600,13612,21.400958,-157.962619,MERBL,EDU1,Highlands Intermediate - Bldg D,1460 HOOLAULEA ST,PEARL CITY,96782,HI,NULL,NULL,0,0,0,NULL,0
2570,HI001674,EFS1,15003008007,1963,1,1939800,6466,21.400958,-157.962619,MERBL,EDU1,Highlands Intermediate - Bldg G,1460 HOOLAULEA ST,PEARL CITY,96782,HI,NULL,NULL,0,0,0,NULL,0
2571,HI001675,EFS1,15003008007,1963,1,1292400,4308,21.400958,-157.962619,MERBL,EDU1,Highlands Intermediate - Bldg H,1460 HOOLAULEA ST,PEARL CITY,96782,HI,NULL,NULL,0,0,0,NULL,0
2572,HI001676,EFS1,15003008007,1959,1,1499925,8571,21.400958,-157.962619,WSF1,EDU1,Highlands Intermediate - Bldg J,1460 HOOLAULEA ST,PEARL CITY,96782,HI,NULL,NULL,0,0,0,NULL,0
2573,HI001677,EFS1,15003008007,1967,1,1503775,8593,21.400958,-157.962619,WSF1,EDU1,Highlands Intermediate - Bldg K,1460 HOOLAULEA ST,PEARL CITY,96782,HI,NULL,NULL,0,0,0,NULL,0
2574,HI001678,EFS1,15003002701,1957,1,1531800,5106,21.291637,-157.81307,MERBL,EDU1,Hokulani Elementary - Bldg A,2940 KAMAKINI ST,HONOLULU,96816,HI,NULL,NULL,0,0,0,NULL,0
2575,HI001679,EFS1,15003011301,1950,1,993900,3313,21.345527,-157.715249,MERBL,EDU1,Waimanalo Elem & Inter - Bldg C,41-1312 KALANIANAOLE HWY,WAIMANALO,96795,HI,NULL,NULL,0,0,0,NULL,0
2576,HI001680,EFS1,15003011301,1952,1,1187700,3959,21.345527,-157.715249,MERBL,EDU1,Waimanalo Elem & Inter - Bldg D,41-1312 KALANIANAOLE HWY,WAIMANALO,96795,HI,NULL,NULL,0,0,0,NULL,0
2577,HI001681,EFS1,15003011301,1955,1,1511100,5037,21.345527,-157.715249,MERBL,EDU1,Waimanalo Elem & Inter - Bldg N,41-1312 KALANIANAOLE HWY,WAIMANALO,96795,HI,NULL,NULL,0,0,0,NULL,0
2578,HI001682,EFS1,15003011301,1961,1,1336800,4456,21.345527,-157.715249,MERBL,EDU1,Waimanalo Elem & Inter - Bldg O,41-1312 KALANIANAOLE HWY,WAIMANALO,96795,HI,NULL,NULL,0,0,0,NULL,0
2579,HI001683,EFS1,15003011301,1962,1,3460500,11535,21.345527,-157.715249,MERBL,EDU1,Waimanalo Elem & Inter - Bldg Q,41-1312 KALANIANAOLE HWY,WAIMANALO,96795,HI,NULL,NULL,0,0,0,NULL,0
2580,HI001684,EFS1,15003011301,1975,1,778750,4450,21.345527,-157.715249,WSF1,EDU1,Waimanalo Elem & Inter - Bldg R,41-1312 KALANIANAOLE HWY,WAIMANALO,96795,HI,NULL,NULL,0,0,0,NULL,0
2581,HI001685,EFS1,15003011301,1976,1,1455475,8317,21.345527,-157.715249,WSF1,EDU1,Waimanalo Elem & Inter - Bldg S,41-1312 KALANIANAOLE HWY,WAIMANALO,96795,HI,NULL,NULL,0,0,0,NULL,0
2582,HI001686,EFS1,15003011301,1972,1,539700,1799,21.345527,-157.715249,MERBL,EDU1,Waimanalo Elem & Inter - Bldg T,41-1312 KALANIANAOLE HWY,WAIMANALO,96795,HI,NULL,NULL,0,0,0,NULL,0
2583,HI001687,EFS1,15003011301,1972,1,1416600,4722,21.345527,-157.715249,MERBL,EDU1,Waimanalo Elem & Inter - Bldg U,41-1312 KALANIANAOLE HWY,WAIMANALO,96795,HI,NULL,NULL,0,0,0,NULL,0
2584,HI001688,EFS1,15003011301,1972,1,986400,3288,21.345527,-157.715249,MERBL,EDU1,Waimanalo Elem & Inter - Bldg V,41-1312 KALANIANAOLE HWY,WAIMANALO,96795,HI,NULL,NULL,0,0,0,NULL,0
2585,HI001689,EFS1,15003008703,1967,1,1334025,7623,21.384952,-158.015923,WSF1,EDU1,Waipahu Elementary - Bldg B,94-465 WAIPAHU ST,WAIPAHU,96797,HI,NULL,NULL,0,0,0,NULL,0
2586,HI001690,EFS1,15003008703,1969,2,2591400,8638,21.384952,-158.015923,MERBL,EDU1,Waipahu Elementary - Bldg D,94-465 WAIPAHU ST,WAIPAHU,96797,HI,NULL,NULL,0,0,0,NULL,0
2587,HI001691,EFS1,15003008703,1964,2,4096800,13656,21.384952,-158.015923,MERBL,EDU1,Waipahu Elementary - Bldg E,94-465 WAIPAHU ST,WAIPAHU,96797,HI,NULL,NULL,0,0,0,NULL,0
2588,HI001692,EFS1,15003008703,1955,1,777600,2592,21.384952,-158.015923,MERBL,EDU1,Waipahu Elementary - Bldg F,94-465 WAIPAHU ST,WAIPAHU,96797,HI,NULL,NULL,0,0,0,NULL,0
2589,HI001693,EFS1,15003008703,1970,2,2830500,9435,21.384952,-158.015923,MERBL,EDU1,Waipahu Elementary - Bldg I,94-465 WAIPAHU ST,WAIPAHU,96797,HI,NULL,NULL,0,0,0,NULL,0
2590,HI001694,EFS1,15003008701,1968,1,710400,2368,21.387585,-157.993974,MERBL,EDU1,Waipahu High - Bldg A,94-1211 FARRINGTON HWY,WAIPAHU,96797,HI,NULL,NULL,0,0,0,NULL,0
2591,HI001695,EFS1,15003008701,1971,1,2538600,8462,21.387585,-157.993974,MERBL,EDU1,Waipahu High - Bldg B,94-1211 FARRINGTON HWY,WAIPAHU,96797,HI,NULL,NULL,0,0,0,NULL,0
2592,HI001696,EFS1,15003008701,1967,1,2574900,8583,21.387585,-157.993974,MERBL,EDU1,Waipahu High - Bldg C,94-1211 FARRINGTON HWY,WAIPAHU,96797,HI,NULL,NULL,0,0,0,NULL,0
2593,HI001697,EFS1,15003008701,1967,1,919200,3064,21.387585,-157.993974,MERBL,EDU1,Waipahu High - Bldg D,94-1211 FARRINGTON HWY,WAIPAHU,96797,HI,NULL,NULL,0,0,0,NULL,0
2594,HI001698,EFS1,15003008701,1969,2,2919600,9732,21.387585,-157.993974,MERBL,EDU1,Waipahu High - Bldg E,94-1211 FARRINGTON HWY,WAIPAHU,96797,HI,NULL,NULL,0,0,0,NULL,0
2595,HI001699,EFS1,15003008701,1969,2,4133700,13779,21.387585,-157.993974,MERBL,EDU1,Waipahu High - Bldg F,94-1211 FARRINGTON HWY,WAIPAHU,96797,HI,NULL,NULL,0,0,0,NULL,0
2596,HI001700,EFS1,15003008701,1968,2,1931475,11037,21.387585,-157.993974,WSF2,EDU1,Waipahu High - Bldg G,94-1211 FARRINGTON HWY,WAIPAHU,96797,HI,NULL,NULL,0,0,0,NULL,0
2597,HI001701,EFS1,15003008701,1967,2,3011400,10038,21.387585,-157.993974,MERBL,EDU1,Waipahu High - Bldg H,94-1211 FARRINGTON HWY,WAIPAHU,96797,HI,NULL,NULL,0,0,0,NULL,0
2598,HI001702,EFS1,15003008701,1967,2,6015600,20052,21.387585,-157.993974,MERBL,EDU1,Waipahu High - Bldg I,94-1211 FARRINGTON HWY,WAIPAHU,96797,HI,NULL,NULL,0,0,0,NULL,0
2599,HI001703,EFS1,15003008701,1967,1,3859800,12866,21.387585,-157.993974,MERBL,EDU1,Waipahu High - Bldg J,94-1211 FARRINGTON HWY,WAIPAHU,96797,HI,NULL,NULL,0,0,0,NULL,0
2600,HI001704,EFS1,15003008701,1967,1,2139725,12227,21.387585,-157.993974,WSF1,EDU1,Waipahu High - Bldg M,94-1211 FARRINGTON HWY,WAIPAHU,96797,HI,NULL,NULL,0,0,0,NULL,0
2601,HI001705,EFS1,15003008701,1977,1,6944700,23149,21.387585,-157.993974,MERBL,EDU1,Waipahu High - Bldg N,94-1211 FARRINGTON HWY,WAIPAHU,96797,HI,NULL,NULL,0,0,0,NULL,0
2602,HI001706,EFS1,15003008701,1988,2,3604500,12015,21.387585,-157.993974,MERBL,EDU1,Waipahu High - Bldg Q,94-1211 FARRINGTON HWY,WAIPAHU,96797,HI,NULL,NULL,0,0,0,NULL,0
2603,HI001707,EFS1,15003008701,1988,2,5113800,17046,21.387585,-157.993974,MERBL,EDU1,Waipahu High - Bldg U,94-1211 FARRINGTON HWY,WAIPAHU,96797,HI,NULL,NULL,0,0,0,NULL,0
2604,HI001708,EFS1,15003008703,1987,2,3226200,10754,21.380558,-158.012875,MERBL,EDU1,Waipahu Intermediate - Bldg C,94-427 FARRINGTON HWY,WAIPAHU,96797,HI,NULL,NULL,0,0,0,NULL,0
2605,HI001709,EFS1,15003008703,1996,2,3313500,11045,21.380558,-158.012875,MERBL,EDU1,Waipahu Intermediate - Bldg E,94-427 FARRINGTON HWY,WAIPAHU,96797,HI,NULL,NULL,0,0,0,NULL,0
2606,HI001710,EFS1,15003001802,1951,1,1900800,6336,21.273255,-157.818276,MERBL,EDU1,Jefferson Elem - Bldg C,324 KAPAHULU AVE,HONOLULU,96815,HI,NULL,NULL,0,0,0,NULL,0
2607,HI001711,EFS1,15003001802,1973,1,2437200,8124,21.273255,-157.818276,MERBL,EDU1,Jefferson Elem - Bldg L,324 KAPAHULU AVE,HONOLULU,96815,HI,NULL,NULL,0,0,0,NULL,0
2608,HI001712,EFS1,15003001802,1973,1,1429200,4764,21.273255,-157.818276,MERBL,EDU1,Jefferson Elem - Bldg M,324 KAPAHULU AVE,HONOLULU,96815,HI,NULL,NULL,0,0,0,NULL,0
2609,HI001713,EFS1,15003001802,1973,1,1429200,4764,21.273255,-157.818276,MERBL,EDU1,Jefferson Elem - Bldg N,324 KAPAHULU AVE,HONOLULU,96815,HI,NULL,NULL,0,0,0,NULL,0
2610,HI001714,EFS1,15003001802,1973,1,1429200,4764,21.273255,-157.818276,MERBL,EDU1,Jefferson Elem - Bldg O,324 KAPAHULU AVE,HONOLULU,96815,HI,NULL,NULL,0,0,0,NULL,0
2611,HI001715,EFS1,15003001802,1973,1,3014400,10048,21.273255,-157.818276,MERBL,EDU1,Jefferson Elem - Bldg Q,324 KAPAHULU AVE,HONOLULU,96815,HI,NULL,NULL,0,0,0,NULL,0
2612,HI001716,EFS1,15003001802,1975,2,3161200,18064,21.273255,-157.818276,WSF2,EDU1,Jefferson Elem - Bldg R,324 KAPAHULU AVE,HONOLULU,96815,HI,NULL,NULL,0,0,0,NULL,0
2613,HI001717,EFS1,15003003500,1967,1,2384400,7948,21.302108,-157.843755,MERBL,EDU1,Kaahumanu Elem - Bldg C,1141 KINAU ST,HONOLULU,96814,HI,NULL,NULL,0,0,0,NULL,0
2614,HI001718,EFS1,15003009400,1958,1,1857300,6191,21.494287,-158.036533,MERBL,EDU1,Kaala Elementary - Bldg A,130 CALIFORNIA AVE,WAHIAWA,96786,HI,NULL,NULL,0,0,0,NULL,0
2615,HI001719,EFS1,15003009400,1959,2,3795300,12651,21.494287,-158.036533,MERBL,EDU1,Kaala Elementary - Bldg D,130 CALIFORNIA AVE,WAHIAWA,96786,HI,NULL,NULL,0,0,0,NULL,0
2616,HI001720,EFS1,15003006301,1956,1,998400,3328,21.344648,-157.869226,MERBL,EDU1,Kaewai Elementary - Bldg A,1929 KAM IV RD,HONOLULU,96819,HI,NULL,NULL,0,0,0,NULL,0
2617,HI001721,EFS1,15003006301,1956,1,998400,3328,21.344648,-157.869226,MERBL,EDU1,Kaewai Elementary - Bldg B,1929 KAM IV RD,HONOLULU,96819,HI,NULL,NULL,0,0,0,NULL,0
2618,HI001722,EFS1,15003006301,1956,1,998400,3328,21.344648,-157.869226,MERBL,EDU1,Kaewai Elementary - Bldg C,1929 KAM IV RD,HONOLULU,96819,HI,NULL,NULL,0,0,0,NULL,0
2619,HI001723,EFS1,15003006301,1956,1,1102800,3676,21.344648,-157.869226,MERBL,EDU1,Kaewai Elementary - Bldg D,1929 KAM IV RD,HONOLULU,96819,HI,NULL,NULL,0,0,0,NULL,0
2620,HI001724,EFS1,15003006301,1956,1,1069500,3565,21.344648,-157.869226,MERBL,EDU1,Kaewai Elementary - Bldg E,1929 KAM IV RD,HONOLULU,96819,HI,NULL,NULL,0,0,0,NULL,0
2621,HI001725,EFS1,15003006301,1956,1,1069500,3565,21.344648,-157.869226,MERBL,EDU1,Kaewai Elementary - Bldg F,1929 KAM IV RD,HONOLULU,96819,HI,NULL,NULL,0,0,0,NULL,0
2622,HI001726,EFS1,15003006301,1963,1,1257300,4191,21.344648,-157.869226,MERBL,EDU1,Kaewai Elementary - Bldg G,1929 KAM IV RD,HONOLULU,96819,HI,NULL,NULL,0,0,0,NULL,0
2623,HI001727,EFS1,15003006301,1970,1,910200,3034,21.344648,-157.869226,MERBL,EDU1,Kaewai Elementary - Bldg K,1929 KAM IV RD,HONOLULU,96819,HI,NULL,NULL,0,0,0,NULL,0
2624,HI001728,EFS1,15003000500,1958,1,1616700,5389,21.27322,-157.78448,MERBL,EDU1,Kahala Elementary - Bldg A,4559 KILAUEA AVE,HONOLULU,96816,HI,NULL,NULL,0,0,0,NULL,0
2625,HI001729,EFS1,15001021604,1988,1,19601.22,67.34100342,19.61354,-155.97978,MERBL,EDU1,KAHAKAI ELEMENTARY SCHOOL,76-147 ROYAL POINCIANA DRIVE,KAILUA KONA,NULL,HI,NULL,(808) 327-4313,623,0,0,NULL,0
2626,HI001730,EFS1,15003000500,1955,1,1070400,3568,21.27322,-157.78448,MERBL,EDU1,Kahala Elementary - Bldg B,4559 KILAUEA AVE,HONOLULU,96816,HI,NULL,NULL,0,0,0,NULL,0
2627,HI001731,EFS1,15009030404,1989,2,29682.48,102.2860031,20.85297,-156.32537,MERBL,EDU1,KALAMA INTERMEDIATE SCHOOL,120 MAKANI ROAD,MAKAWAO,NULL,HI,NULL,(808) 572-7719,945,0,0,NULL,0
2628,HI001732,EFS1,15003000500,1955,1,1248900,4163,21.27322,-157.78448,MERBL,EDU1,Kahala Elementary - Bldg C,4559 KILAUEA AVE,HONOLULU,96816,HI,NULL,NULL,0,0,0,NULL,0
2629,HI001733,EFS1,15001021106,1964,1,9890.77,35.30099869,19.51461,-154.90462,WSF1,EDU1,PAHOA ELEMENTARY SCHOOL,15-3030 PUNA ROAD,PAHOA,NULL,HI,NULL,(808) 965-2141,342,0,0,NULL,0
2630,HI001734,EFS1,15003000500,1954,1,1713600,5712,21.27322,-157.78448,MERBL,EDU1,Kahala Elementary - Bldg D,4559 KILAUEA AVE,HONOLULU,96816,HI,NULL,NULL,0,0,0,NULL,0
2631,HI001735,EFS1,15001021504,1985,1,21322.48,90.61399841,19.67408,-155.98765,MERBL,EDU1,KEALAKEHE INTERMEDIATE SCHOOL,74-5062 ONIPAA STREET,KAILUA KONA,NULL,HI,NULL,(808) 327-4314,965,0,0,NULL,0
2632,HI001736,EFS1,15003000500,1956,1,2644200,8814,21.27322,-157.78448,MERBL,EDU1,Kahala Elementary - Bldg E,4559 KILAUEA AVE,HONOLULU,96816,HI,NULL,NULL,0,0,0,NULL,0
2633,HI001737,EFS1,15003000500,1956,1,2152800,7176,21.27322,-157.78448,MERBL,EDU1,Kahala Elementary - Bldg G,4559 KILAUEA AVE,HONOLULU,96816,HI,NULL,NULL,0,0,0,NULL,0
2634,HI001738,EFS1,15009031402,1984,1,14454.01,50.94900131,20.88945,-156.66701,MERBL,EDU1,NAHIENAENA ELEMENTARY SCHOOL,816 NIHEU STREET,LAHAINA,NULL,HI,NULL,(808) 662-4020,662,0,0,NULL,0
2635,HI001739,EFS1,15003010303,1963,1,1929000,6430,21.457379,-157.845865,MERBL,EDU1,Kahaluu Elementary - Bldg A,47-248 WAIHEE RD,KANEOHE,96744,HI,NULL,NULL,0,0,0,NULL,0
2636,HI001740,EFS1,15009030707,1991,1,15514.18,56.99900055,20.75143,-156.45121,MERBL,EDU1,LOKELANI INTERMEDIATE SCHOOL,250-A EAST LIPOA STREET,KIHEI,NULL,HI,NULL,(808) 875-6800,762,0,0,NULL,0
2637,HI001741,EFS1,15003010303,1967,1,3928800,13096,21.457379,-157.845865,MERBL,EDU1,Kahaluu Elementary - Bldg B,47-248 WAIHEE RD,KANEOHE,96744,HI,NULL,NULL,0,0,0,NULL,0
2638,HI001742,EFS1,15001020202,1980,1,6549.68,0,19.72489,-155.09751,MERBL,EDU1,HILO UNION ELEM SCHOOL,506 WAIANUENUE AVENUE,HILO,NULL,HI,NULL,(808) 933-0900,529,0,0,NULL,0
2639,HI001743,EFS1,15003011105,1957,1,1464400,8368,21.395074,-157.74136,WSF1,EDU1,Kailua Elementary - Bldg H,315 KUULEI RD,KAILUA,96734,HI,NULL,NULL,0,0,0,NULL,0
2640,HI001744,EFS1,15001021502,1954,1,2923.72,18.4489994,19.62176,-155.95145,WSF1,EDU1,HOLUALOA ELEMENTARY SCHOOL,76-5957 MAMALAHOA HIGHWAY,HOLUALOA,NULL,HI,NULL,(808) 322-4800,451,0,0,NULL,0
2641,HI001745,EFS1,15003011105,1951,1,799800,2666,21.395074,-157.74136,MERBL,EDU1,Kailua Elementary - Bldg J,315 KUULEI RD,KAILUA,96734,HI,NULL,NULL,0,0,0,NULL,0
2642,HI001746,EFS1,15001021300,1980,1,1876.5,0,19.4522,-155.88235,MERBL,EDU1,HONAUNAU ELEMENTARY SCHOOL,83-5360 MAMALAHOA HIGHWAY,CAPTAIN COOK,NULL,HI,NULL,(808) 328-2727,135,0,0,NULL,0
2643,HI001747,EFS1,15003011103,1960,2,3975300,13251,21.384813,-157.748181,MERBL,EDU1,Kailua High - Bldg A,451 ULUMANU DR,KAILUA,96734,HI,NULL,NULL,0,0,0,NULL,0
2644,HI001748,EFS1,15001021902,1986,1,2197.04,13.56599998,20.07618,-155.46638,MERBL,EDU1,HONOKAA HIGH SCHOOL,45-527 PAKALANA STREET,HONOKAA,NULL,HI,NULL,(808) 775-8800,835,0,0,NULL,0
2645,HI001749,EFS1,15003011103,1958,2,3884400,12948,21.384813,-157.748181,MERBL,EDU1,Kailua High - Bldg B,451 ULUMANU DR,KAILUA,96734,HI,NULL,NULL,0,0,0,NULL,0
2646,HI001750,EFS1,15001021300,1962,1,5122.15,0,19.39619,-155.88105,WSF1,EDU1,HOOKENA ELEMENTARY SCHOOL,86-4355 MAMALAHOA HIGHWAY,CAPTAIN COOK,NULL,HI,NULL,(808) 328-2710,141,0,0,NULL,0
2647,HI001751,EFS1,15003011103,1958,2,4184400,13948,21.384813,-157.748181,MERBL,EDU1,Kailua High - Bldg C,451 ULUMANU DR,KAILUA,96734,HI,NULL,NULL,0,0,0,NULL,0
2648,HI001752,EFS1,15001020100,1960,1,4792.72,0,19.7947,-155.097,MERBL,EDU1,KALANIANAOLE ELEM & INTER,27-330 OLD MAMALAHOA HIGHWAY,PAPAIKOU,NULL,HI,NULL,(808) 964-9700,371,0,0,NULL,0
2649,HI001753,EFS1,15003011103,1959,2,5250000,17500,21.384813,-157.748181,MERBL,EDU1,Kailua High - Bldg D,451 ULUMANU DR,KAILUA,96734,HI,NULL,NULL,0,0,0,NULL,0
2650,HI001754,EFS1,15001020400,1963,1,5237.52,0,19.71718,-155.08049,MERBL,EDU1,KAPIOLANI ELEMENTARY SCHOOL,966 KILAUEA AVENUE,HILO,NULL,HI,NULL,(808) 974-4160,411,0,0,NULL,0
2651,HI001755,EFS1,15003011103,1959,2,5150400,17168,21.384813,-157.748181,MERBL,EDU1,Kailua High - Bldg E,451 ULUMANU DR,KAILUA,96734,HI,NULL,NULL,0,0,0,NULL,0
2652,HI001756,EFS1,15001021202,1957,1,18504.02,71.1969986,19.20383,-155.47713,MERBL,EDU1,KA'U HIGH & PAHALA ELEMENTARY,96-3150 PIKAKE STREET,PAHALA,NULL,HI,NULL,(808) 928-2088,502,0,0,NULL,0
2653,HI001757,EFS1,15003011103,1962,2,3001200,10004,21.384813,-157.748181,MERBL,EDU1,Kailua High - Bldg F,451 ULUMANU DR,KAILUA,96734,HI,NULL,NULL,0,0,0,NULL,0
2654,HI001758,EFS1,15001020801,1973,1,7453.12,23.38899994,19.68849,-155.13894,MERBL,EDU1,KAUMANA ELEMENTARY SCHOOL,1710 KAUMANA DRIVE,HILO,NULL,HI,NULL,(808) 974-4190,227,0,0,NULL,0
2655,HI001759,EFS1,15003011103,1962,1,1361400,4538,21.384813,-157.748181,MERBL,EDU1,Kailua High - Bldg Q,451 ULUMANU DR,KAILUA,96734,HI,NULL,NULL,0,0,0,NULL,0
2656,HI001760,EFS1,15001021013,1970,1,27879.07,104.6839981,19.62361,-155.04097,MERBL,EDU1,KEAAU MIDDLE SCHOOL,16-565 KEAAU-PAHOA ROAD,KEAAU,NULL,HI,NULL,(808) 966-9313,633,0,0,NULL,0
2657,HI001761,EFS1,15003011103,1969,1,875000,5000,21.384813,-157.748181,WSF1,EDU1,Kailua High - Bldg T,451 ULUMANU DR,KAILUA,96734,HI,NULL,NULL,0,0,0,NULL,0
2658,HI001762,EFS1,15001021504,1976,1,20938.74,67.54399872,19.67456,-155.98625,MERBL,EDU1,KEALAKEHE ELEMENTARY SCHOOL,74-5118 KEALAKAA STREET,KAILUA KONA,NULL,HI,NULL,(808) 327-4308,969,0,0,NULL,0
2659,HI001763,EFS1,15003011105,1953,1,2599450,14854,21.394057,-157.736191,WSF1,EDU1,Kailua Intermediate - Bldg A,211 KUULEI RD,KAILUA,96734,HI,NULL,NULL,0,0,0,NULL,0
2660,HI001764,EFS1,15001020600,1963,1,3447.2,0,19.73187,-155.0481,MERBL,EDU1,KEAUKAHA ELEMENTARY SCHOOL,240 DESHA AVENUE,HILO,NULL,HI,NULL,(808) 974-4181,250,0,0,NULL,0
2661,HI001765,EFS1,15003011105,1953,1,8670300,28901,21.394057,-157.736191,MERBL,EDU1,Kailua Intermediate - Bldg B,211 KUULEI RD,KAILUA,96734,HI,NULL,NULL,0,0,0,NULL,0
2662,HI001766,EFS1,15001021800,1953,1,8804.93,65.79299927,20.2338,-155.803,WSF1,EDU1,KOHALA HIGH SCHOOL,54-3611 AKONI PULE HIGHWAY,KAPAAU,NULL,HI,NULL,(808) 889-7117,285,0,0,NULL,0
2663,HI001767,EFS1,15003011105,1955,1,7069500,23565,21.394057,-157.736191,MERBL,EDU1,Kailua Intermediate - Bldg C,211 KUULEI RD,KAILUA,96734,HI,NULL,NULL,0,0,0,NULL,0
2664,HI001768,EFS1,15001021402,1963,1,7105.68,0,19.51161,-155.9215,MERBL,EDU1,KONAWAENA ELEMENTARY SCHOOL,81-901 Onouli Road,KEALAKEKUA,NULL,HI,NULL,(808) 323-4555,579,0,0,NULL,0
2665,HI001769,EFS1,15003011105,1970,1,3874800,12916,21.394057,-157.736191,MERBL,EDU1,Kailua Intermediate - Bldg H,211 KUULEI RD,KAILUA,96734,HI,NULL,NULL,0,0,0,NULL,0
2666,HI001770,EFS1,15001021402,1969,1,39426.05,132.1589966,19.51161,-155.9215,CERBL,EDU1,KONAWAENA HIGH SCHOOL,81-1043 KONAWAENA SCHOOL ROAD,KEALAKEKUA,NULL,HI,NULL,(808) 323-4500,929,0,0,NULL,0
2667,HI001771,EFS1,15003008302,1978,1,1131375,6465,21.319207,-158.009188,WSF1,EDU1,Kaimiloa Elem - Bldg B,91-1028 KAUNOLU ST,EWA BEACH,96706,HI,NULL,NULL,0,0,0,NULL,0
2668,HI001772,EFS1,15001022102,1963,1,3753,0,19.9784,-155.221,MERBL,EDU1,LAUPAHOEHOE COM CHARTER,35-2065 OLD MAMALAHOA HIGHWAY,LAUPAHOEHOE,NULL,HI,NULL,(808) 962-2200,225,0,0,NULL,0
2669,HI001773,EFS1,15001021010,1994,1,2852.28,0,19.549,-155.108,WSF1,EDU1,WATERS OF LIFE PUBLIC CHARTER ,18-1355 Volcano Rd,MOUNTAIN VIEW,NULL,HI,NULL,(808) 935-5882,171,0,0,NULL,0
2670,HI001774,EFS1,15003000700,1960,2,3019200,10064,21.26989,-157.79698,MERBL,EDU1,Kaimuki Middle - Bldg K,4031 KILAUEA AVE,HONOLULU,96816,HI,NULL,NULL,0,0,0,NULL,0
2671,HI001775,EFS1,15001021507,1994,1,11676,0,19.86379,-155.90752,MERBL,EDU1,WEST HAWAII EXP ACADEMY PUB CHA,73-4460 QUEEN KAAHUMANU  #105,KAILUA KONA,NULL,HI,NULL,(808) 327-4751,146,0,0,NULL,0
2672,HI001776,EFS1,15007040500,1983,1,13983.4,0,21.97948,-159.36976,MERBL,EDU1,KAMAKAHELEI MIDDLE SCHOOL,4431 NOHOU STREET,LIHUE,NULL,HI,NULL,(808) 241-3200,926,0,0,NULL,0
2673,HI001777,EFS1,15003000700,1963,1,1029600,3432,21.26989,-157.79698,MERBL,EDU1,Kaimuki Middle - Bldg L,4031 KILAUEA AVE,HONOLULU,96816,HI,NULL,NULL,0,0,0,NULL,0
2674,HI001778,EFS1,15003000700,1956,1,1808400,6028,21.26989,-157.79698,MERBL,EDU1,Kaimuki Middle - Bldg N,4031 KILAUEA AVE,HONOLULU,96816,HI,NULL,NULL,0,0,0,NULL,0
2675,HI001779,EFS1,15001021800,1983,1,3569.52,0,20.2014,-155.7864,WSF1,EDU1,KOHALA MIDDLE SCHOOL,53-4155 AKONI PULE HWY,KAPAAU,NULL,HI,NULL,(808) 889-7119,214,0,0,NULL,0
2676,HI001780,EFS1,15003000700,1967,1,268800,896,21.26989,-157.79698,MERBL,EDU1,Kaimuki Middle - Bldg P1,4031 KILAUEA AVE,HONOLULU,96816,HI,NULL,NULL,0,0,0,NULL,0
2677,HI001781,EFS1,15001021702,1984,1,8284.4,0,20.02253,-155.6731,MERBL,EDU1,WAIMEA MIDDLE SCHOOL,67-1229 MAMALAHOA HWY,KAMUELA,NULL,HI,NULL,(808) 887-6090,516,0,0,NULL,0
2678,HI001782,EFS1,15007040900,1951,2,3686.28,0,21.97,-159.712,WSF1,EDU1,KULA AUPUNI NI'IHAU A KA,8315 Kekaha Rd # P,KEKAHA,NULL,HI,NULL,(808) 337-2022,221,0,0,NULL,0
2679,HI001783,EFS1,15003000700,1967,1,268800,896,21.26989,-157.79698,MERBL,EDU1,Kaimuki Middle - Bldg P2,4031 KILAUEA AVE,HONOLULU,96816,HI,NULL,NULL,0,0,0,NULL,0
2680,HI001784,EFS1,15003000700,1967,1,268800,896,21.26989,-157.79698,MERBL,EDU1,Kaimuki Middle - Bldg P3,4031 KILAUEA AVE,HONOLULU,96816,HI,NULL,NULL,0,0,0,NULL,0
2681,HI001785,EFS1,15003000700,1967,1,268800,896,21.26989,-157.79698,MERBL,EDU1,Kaimuki Middle - Bldg P4,4031 KILAUEA AVE,HONOLULU,96816,HI,NULL,NULL,0,0,0,NULL,0
2682,HI001786,EFS1,15003000700,1969,1,1737300,5791,21.26989,-157.79698,MERBL,EDU1,Kaimuki Middle - Bldg R,4031 KILAUEA AVE,HONOLULU,96816,HI,NULL,NULL,0,0,0,NULL,0
2683,HI001787,EFS1,15003010904,1955,1,1768800,5896,21.412875,-157.748302,MERBL,EDU1,Kainalu Elementary - Bldg D,165 KAIHOLU ST,KAILUA,96734,HI,NULL,NULL,0,0,0,NULL,0
2684,HI001788,EFS1,15003010904,1955,1,1768800,5896,21.412875,-157.748302,MERBL,EDU1,Kainalu Elementary - Bldg E,165 KAIHOLU ST,KAILUA,96734,HI,NULL,NULL,0,0,0,NULL,0
2685,HI001789,EFS1,15003010904,1954,1,156800,896,21.412875,-157.748302,WSF1,EDU1,Kainalu Elementary - Bldg P1,165 KAIHOLU ST,KAILUA,96734,HI,NULL,NULL,0,0,0,NULL,0
2686,HI001790,EFS1,15003010904,1954,1,156800,896,21.412875,-157.748302,WSF1,EDU1,Kainalu Elementary - Bldg P2,165 KAIHOLU ST,KAILUA,96734,HI,NULL,NULL,0,0,0,NULL,0
2687,HI001791,EFS1,15003010904,1954,1,156800,896,21.412875,-157.748302,WSF1,EDU1,Kainalu Elementary - Bldg P3,165 KAIHOLU ST,KAILUA,96734,HI,NULL,NULL,0,0,0,NULL,0
2688,HI001792,EFS1,15001021604,1951,1,1737.5,0,19.61354,-155.97978,WSF1,EDU1,INNOVATIONS PUBLIC CHARTER,76-147A ROYAL POINCIANA DR,KAILUA-KONA,NULL,HI,NULL,(808) 327-6205,125,0,0,NULL,0
2689,HI001793,EFS1,15003010904,1954,1,156800,896,21.412875,-157.748302,WSF1,EDU1,Kainalu Elementary - Bldg P4,165 KAIHOLU ST,KAILUA,96734,HI,NULL,NULL,0,0,0,NULL,0
2690,HI001794,EFS1,15001020600,1951,1,1167,0,19.73476,-155.03677,WSF1,EDU1,KE ANA LA'AHANA PUBLIC CHARTER ,162 Baker Ave,HILO,NULL,HI,NULL,(808) 961-6228,98,0,0,NULL,0
2691,HI001795,EFS1,15003000105,1971,3,6309000,21030,21.284778,-157.695995,MERBL,EDU1,Kaiser High - Bldg A,511 LUNALILO HOME RD,HONOLULU,96825,HI,NULL,NULL,0,0,0,NULL,0
2692,HI001796,EFS1,15009030706,1984,1,11676,0,20.77863,-156.45683,MERBL,EDU1,KIHEI PUBLIC CHARTER HIGH SCHOOL,300 OHUKAI ROAD  #214,KIHEI,NULL,HI,NULL,(808) 875-0700,474,0,0,NULL,0
2693,HI001797,EFS1,15007040900,1972,1,1668,0,21.975,-159.71955,WSF1,EDU1,KE KULA NI'IHAU O KEKAHA LC,8135 KEKAHA ROAD,KEKAHA,NULL,HI,NULL,(808) 337-0481,32,0,0,NULL,0
2694,HI001798,EFS1,15003000105,1971,1,1262975,7217,21.284778,-157.695995,WSF1,EDU1,Kaiser High - Bldg B,511 LUNALILO HOME RD,HONOLULU,96825,HI,NULL,NULL,0,0,0,NULL,0
2695,HI001799,EFS1,15003000105,1972,3,3753900,12513,21.284778,-157.695995,MERBL,EDU1,Kaiser High - Bldg C,511 LUNALILO HOME RD,HONOLULU,96825,HI,NULL,NULL,0,0,0,NULL,0
2696,HI001800,EFS1,15001021011,1972,2,1904.3,0,19.45611,-155.19366,WSF1,EDU1,THE VOLCANO SCH OF ARTS & SCI,99-128 OLD VOLCANO ROAD,VOLCANO,NULL,HI,NULL,(808) 985-9800,137,0,0,NULL,0
2697,HI001801,EFS1,15003000105,1972,3,1662300,5541,21.284778,-157.695995,MERBL,EDU1,Kaiser High - Bldg E,511 LUNALILO HOME RD,HONOLULU,96825,HI,NULL,NULL,0,0,0,NULL,0
2698,HI001802,EFS1,15001021106,1977,1,2518.68,0,19.49737,-154.95244,WSF1,EDU1,HAWAII ACADEMY OF ARTS & SCIENCES PCS,15-2874 PAHOA VILLAGE ROAD,PAHOA,NULL,HI,NULL,(808) 965-3730,151,0,0,NULL,0
2699,HI001803,EFS1,15003000105,1973,2,3260700,10869,21.284778,-157.695995,MERBL,EDU1,Kaiser High - Bldg G,511 LUNALILO HOME RD,HONOLULU,96825,HI,NULL,NULL,0,0,0,NULL,0
2700,HI001804,EFS1,15003005800,1977,1,1312500,4375,21.328319,-157.876619,MERBL,EDU1,Kalakaua Middle - Bldg U,821 KALIHI ST,HONOLULU,96817,HI,NULL,NULL,0,0,0,NULL,0
2701,HI001805,EFS1,15003000402,1958,2,3402300,11341,21.278553,-157.774256,MERBL,EDU1,Kalani High - Bldg A,4686 KALANIANAOLE HWY,HONOLULU,96821,HI,NULL,NULL,0,0,0,NULL,0
2702,HI001806,EFS1,15003000402,1958,2,4620000,15400,21.278553,-157.774256,MERBL,EDU1,Kalani High - Bldg B,4686 KALANIANAOLE HWY,HONOLULU,96821,HI,NULL,NULL,0,0,0,NULL,0
2703,HI001807,EFS1,15003000402,1960,2,5931600,19772,21.278553,-157.774256,MERBL,EDU1,Kalani High - Bldg C,4686 KALANIANAOLE HWY,HONOLULU,96821,HI,NULL,NULL,0,0,0,NULL,0
2704,HI001808,EFS1,15003000402,1960,2,4857900,16193,21.278553,-157.774256,MERBL,EDU1,Kalani High - Bldg D,4686 KALANIANAOLE HWY,HONOLULU,96821,HI,NULL,NULL,0,0,0,NULL,0
2705,HI001809,EFS1,15003000402,1963,2,4359000,14530,21.278553,-157.774256,MERBL,EDU1,Kalani High - Bldg E,4686 KALANIANAOLE HWY,HONOLULU,96821,HI,NULL,NULL,0,0,0,NULL,0
2706,HI001810,EFS1,15003000402,1958,1,1140000,3800,21.278553,-157.774256,MERBL,EDU1,Kalani High - Bldg F,4686 KALANIANAOLE HWY,HONOLULU,96821,HI,NULL,NULL,0,0,0,NULL,0
2707,HI001811,EFS1,15003000402,1960,1,1376400,4588,21.278553,-157.774256,MERBL,EDU1,Kalani High - Bldg K,4686 KALANIANAOLE HWY,HONOLULU,96821,HI,NULL,NULL,0,0,0,NULL,0
2708,HI001812,EFS1,15003000402,1969,2,3219900,10733,21.278553,-157.774256,MERBL,EDU1,Kalani High - Bldg N,4686 KALANIANAOLE HWY,HONOLULU,96821,HI,NULL,NULL,0,0,0,NULL,0
2709,HI001813,EFS1,15003008905,1989,2,2511600,8372,21.391223,-158.02813,MERBL,EDU1,Kaleiopuu Elementary - Bldg D,94-665 KAAHOLO ST,WAIPAHU,96797,HI,NULL,NULL,0,0,0,NULL,0
2710,HI001814,EFS1,15003008905,1989,2,2553300,8511,21.391223,-158.02813,MERBL,EDU1,Kaleiopuu Elementary - Bldg E,94-665 KAAHOLO ST,WAIPAHU,96797,HI,NULL,NULL,0,0,0,NULL,0
2711,HI001815,EFS1,15003008905,1989,2,2524800,8416,21.391223,-158.02813,MERBL,EDU1,Kaleiopuu Elementary - Bldg F,94-665 KAAHOLO ST,WAIPAHU,96797,HI,NULL,NULL,0,0,0,NULL,0
2712,HI001816,EFS1,15003008905,1990,2,2652900,8843,21.391223,-158.02813,MERBL,EDU1,Kaleiopuu Elementary - Bldg G,94-665 KAAHOLO ST,WAIPAHU,96797,HI,NULL,NULL,0,0,0,NULL,0
2713,HI001817,EFS1,15003008905,1993,2,3120000,10400,21.391223,-158.02813,MERBL,EDU1,Kaleiopuu Elementary - Bldg H,94-665 KAAHOLO ST,WAIPAHU,96797,HI,NULL,NULL,0,0,0,NULL,0
2714,HI001818,EFS1,15003008905,1994,1,142100,812,21.391223,-158.02813,WSF1,EDU1,Kaleiopuu Elementary - Bldg P7,94-665 KAAHOLO ST,WAIPAHU,96797,HI,NULL,NULL,0,0,0,NULL,0
2715,HI001819,EFS1,15003006500,1954,3,3414950,19514,21.353016,-157.860994,WMUH3,EDU1,Kalihi Elementary - Bldg A,2471 KULA KOLEA DR,HONOLULU,96819,HI,NULL,NULL,0,0,0,NULL,0
2716,HI001820,EFS1,15003006500,1954,3,2572150,14698,21.353016,-157.860994,WMUH3,EDU1,Kalihi Elementary - Bldg B,2472 KULA KOLEA DR,HONOLULU,96819,HI,NULL,NULL,0,0,0,NULL,0
2717,HI001821,EFS1,15003005800,1964,1,1256100,4187,21.326556,-157.87809,MERBL,EDU1,Kalihi Kai Elementary - Bldg B,821 KALIHI ST,HONOLULU,96817,HI,NULL,NULL,0,0,0,NULL,0
2718,HI001822,EFS1,15003005800,1958,2,2630400,8768,21.326556,-157.87809,MERBL,EDU1,Kalihi Kai Elementary - Bldg C,821 KALIHI ST,HONOLULU,96817,HI,NULL,NULL,0,0,0,NULL,0
2719,HI001823,EFS1,15003005800,1961,2,2780400,9268,21.326556,-157.87809,MERBL,EDU1,Kalihi Kai Elementary - Bldg H,821 KALIHI ST,HONOLULU,96817,HI,NULL,NULL,0,0,0,NULL,0
2720,HI001824,EFS1,15003005800,1965,2,2780400,9268,21.326556,-157.87809,MERBL,EDU1,Kalihi Kai Elementary - Bldg I,821 KALIHI ST,HONOLULU,96817,HI,NULL,NULL,0,0,0,NULL,0
2721,HI001825,EFS1,15003005800,1966,2,2783400,9278,21.326556,-157.87809,MERBL,EDU1,Kalihi Kai Elementary - Bldg J,821 KALIHI ST,HONOLULU,96817,HI,NULL,NULL,0,0,0,NULL,0
2722,HI001826,EFS1,15003005800,1973,2,3129900,10433,21.326556,-157.87809,MERBL,EDU1,Kalihi Kai Elementary - Bldg K,821 KALIHI ST,HONOLULU,96817,HI,NULL,NULL,0,0,0,NULL,0
2723,HI001827,EFS1,15003005800,1977,1,2424900,8083,21.326556,-157.87809,MERBL,EDU1,Kalihi Kai Elementary - Bldg L,821 KALIHI ST,HONOLULU,96817,HI,NULL,NULL,0,0,0,NULL,0
2724,HI001828,EFS1,15003006402,1961,2,3813600,12712,21.34504,-157.861965,MERBL,EDU1,Kalihi Uka Elem - Bldg B,2411 KALIHI ST,HONOLULU,96819,HI,NULL,NULL,0,0,0,NULL,0
2725,HI001829,EFS1,15003006402,1964,1,2599800,8666,21.34504,-157.861965,MERBL,EDU1,Kalihi Uka Elem - Bldg A,2411 KALIHI ST,HONOLULU,96819,HI,NULL,NULL,0,0,0,NULL,0
2726,HI001830,EFS1,15003006402,1968,3,5371800,17906,21.34504,-157.861965,MERBL,EDU1,Kalihi Uka Elem - Bldg C,2411 KALIHI ST,HONOLULU,96819,HI,NULL,NULL,0,0,0,NULL,0
2727,HI001831,EFS1,15003006100,1965,2,2336700,7789,21.336275,-157.875783,MERBL,EDU1,Kalihi Waena Elem - Bldg D,1240 GULICK AVE,HONOLULU,96819,HI,NULL,NULL,0,0,0,NULL,0
2728,HI001832,EFS1,15003006100,1973,1,1527300,5091,21.336275,-157.875783,MERBL,EDU1,Kalihi Waena Elem - Bldg H,1240 GULICK AVE,HONOLULU,96819,HI,NULL,NULL,0,0,0,NULL,0
2729,HI001833,EFS1,15003009701,1991,1,1190875,6805,21.457086,-158.195385,WSF1,EDU1,Kamaile Elem PCCS - Bldg C,85-180 ALA AKAU ST,WAIANAE,96792,HI,NULL,NULL,0,0,0,NULL,0
2730,HI001834,EFS1,15003009701,1989,2,2772900,9243,21.457086,-158.195385,MERBL,EDU1,Kamaile Elem PCCS - Bldg D,85-180 ALA AKAU ST,WAIANAE,96792,HI,NULL,NULL,0,0,0,NULL,0
2731,HI001835,EFS1,15003009701,1989,2,2605200,8684,21.457086,-158.195385,MERBL,EDU1,Kamaile Elem PCCS - Bldg E,85-180 ALA AKAU ST,WAIANAE,96792,HI,NULL,NULL,0,0,0,NULL,0
2732,HI001836,EFS1,15003004300,1962,1,1485050,8486,21.318976,-157.851923,WSF1,EDU1,Kawananakoa Middle - Bldg D,49 FUNCHAL ST,HONOLULU,96813,HI,NULL,NULL,0,0,0,NULL,0
2733,HI001837,EFS1,15003004300,1960,2,1091300,6236,21.318976,-157.851923,WSF2,EDU1,Kawananakoa Middle - Bldg F,49 FUNCHAL ST,HONOLULU,96813,HI,NULL,NULL,0,0,0,NULL,0
2734,HI001838,EFS1,15003004300,1960,2,1039675,5941,21.318976,-157.851923,WSF2,EDU1,Kawananakoa Middle - Bldg G,49 FUNCHAL ST,HONOLULU,96813,HI,NULL,NULL,0,0,0,NULL,0
2735,HI001839,EFS1,15003004300,1939,2,2270975,12977,21.318976,-157.851923,WSF2,EDU1,Kawananakoa Middle - Bldg H,49 FUNCHAL ST,HONOLULU,96813,HI,NULL,NULL,0,0,0,NULL,0
2736,HI001840,EFS1,15003004300,1970,3,5100300,17001,21.318976,-157.851923,MERBL,EDU1,Kawananakoa Middle - Bldg J,49 FUNCHAL ST,HONOLULU,96813,HI,NULL,NULL,0,0,0,NULL,0
2737,HI001841,EFS1,15003004300,1970,3,4041600,13472,21.318976,-157.851923,MERBL,EDU1,Kawananakoa Middle - Bldg K,49 FUNCHAL ST,HONOLULU,96813,HI,NULL,NULL,0,0,0,NULL,0
2738,HI001842,EFS1,15003010701,1947,1,34300,196,21.410467,-157.779099,WSF1,EDU1,Ke Kula O Kamakau Lab PCS - Bldg D,45-35 KANEOHE BAY DR,KANEOHE,96744,HI,NULL,NULL,0,0,0,NULL,0
2739,HI001843,EFS1,15003010701,1949,1,34300,196,21.410467,-157.779099,WSF1,EDU1,Ke Kula O Kamakau Lab PCS - Bldg D,45-35 KANEOHE BAY DR,KANEOHE,96744,HI,NULL,NULL,0,0,0,NULL,0
2740,HI001844,EFS1,15003011104,1961,1,1972800,6576,21.37171,-157.735878,MERBL,EDU1,Keolu Elementary - Bldg A,1420 KEOLU DR,KAILUA,96734,HI,NULL,NULL,0,0,0,NULL,0
2741,HI001845,EFS1,15003011104,1961,2,3402000,11340,21.37171,-157.735878,MERBL,EDU1,Keolu Elementary - Bldg B,1420 KEOLU DR,KAILUA,96734,HI,NULL,NULL,0,0,0,NULL,0
2742,HI001846,EFS1,15003011104,1962,2,3449400,11498,21.37171,-157.735878,MERBL,EDU1,Keolu Elementary - Bldg C,1420 KEOLU DR,KAILUA,96734,HI,NULL,NULL,0,0,0,NULL,0
2743,HI001847,EFS1,15003011104,1961,1,2385300,7951,21.37171,-157.735878,MERBL,EDU1,Keolu Elementary - Bldg D,1420 KEOLU DR,KAILUA,96734,HI,NULL,NULL,0,0,0,NULL,0
2744,HI001848,EFS1,15003010505,1965,2,2693100,8977,21.428225,-157.806712,MERBL,EDU1,King Intermediate - Bldg A,46-155 KAM HWY,KANEOHE,96744,HI,NULL,NULL,0,0,0,NULL,0
2745,HI001849,EFS1,15003010505,1965,3,4567800,15226,21.428225,-157.806712,MERBL,EDU1,King Intermediate - Bldg B,46-155 KAM HWY,KANEOHE,96744,HI,NULL,NULL,0,0,0,NULL,0
2746,HI001850,EFS1,15003010505,1965,3,5005800,16686,21.428225,-157.806712,MERBL,EDU1,King Intermediate - Bldg C,46-155 KAM HWY,KANEOHE,96744,HI,NULL,NULL,0,0,0,NULL,0
2747,HI001851,EFS1,15003010505,1968,3,3682200,12274,21.428225,-157.806712,MERBL,EDU1,King Intermediate - Bldg E,46-155 KAM HWY,KANEOHE,96744,HI,NULL,NULL,0,0,0,NULL,0
2748,HI001852,EFS1,15003010505,1966,1,2397300,7991,21.428225,-157.806712,MERBL,EDU1,King Intermediate - Bldg F,46-155 KAM HWY,KANEOHE,96744,HI,NULL,NULL,0,0,0,NULL,0
2749,HI001853,EFS1,15003010505,1973,1,3166500,10555,21.428225,-157.806712,MERBL,EDU1,King Intermediate - Bldg I,46-155 KAM HWY,KANEOHE,96744,HI,NULL,NULL,0,0,0,NULL,0
2750,HI001854,EFS1,15003010505,1966,1,2456825,14039,21.428225,-157.806712,WSF1,EDU1,King Intermediate - Bldg J,46-155 KAM HWY,KANEOHE,96744,HI,NULL,NULL,0,0,0,NULL,0
2751,HI001855,EFS1,15003010505,1969,1,6285900,20953,21.428225,-157.806712,MERBL,EDU1,King Intermediate - Bldg K,46-155 KAM HWY,KANEOHE,96744,HI,NULL,NULL,0,0,0,NULL,0
2752,HI001856,EFS1,15003010505,1965,1,4853100,16177,21.428225,-157.806712,MERBL,EDU1,King Intermediate - Bldg L,46-155 KAM HWY,KANEOHE,96744,HI,NULL,NULL,0,0,0,NULL,0
2753,HI001857,EFS1,15003008907,1960,1,1227000,4090,21.461394,-158.012643,MERBL,EDU1,Kipapa Elementary - Bldg A,95-440 KUAHELANI AVE,MILILANI,96789,HI,NULL,NULL,0,0,0,NULL,0
2754,HI001858,EFS1,15003008907,1961,1,1333500,7620,21.461394,-158.012643,WSF1,EDU1,Kipapa Elementary - Bldg C,95-440 KUAHELANI AVE,MILILANI,96789,HI,NULL,NULL,0,0,0,NULL,0
2755,HI001859,EFS1,15003008907,1961,2,2712600,9042,21.461394,-158.012643,MERBL,EDU1,Kipapa Elementary - Bldg D,95-440 KUAHELANI AVE,MILILANI,96789,HI,NULL,NULL,0,0,0,NULL,0
2756,HI001860,EFS1,15003008907,1966,2,2669400,8898,21.461394,-158.012643,MERBL,EDU1,Kipapa Elementary - Bldg H,95-440 KUAHELANI AVE,MILILANI,96789,HI,NULL,NULL,0,0,0,NULL,0
2757,HI001861,EFS1,15003008907,1973,1,1237200,4124,21.461394,-158.012643,MERBL,EDU1,Kipapa Elementary - Bldg I,95-440 KUAHELANI AVE,MILILANI,96789,HI,NULL,NULL,0,0,0,NULL,0
2758,HI001862,EFS1,15003008907,1976,2,2624400,8748,21.461394,-158.012643,MERBL,EDU1,Kipapa Elementary - Bldg L,95-440 KUAHELANI AVE,MILILANI,96789,HI,NULL,NULL,0,0,0,NULL,0
2759,HI001863,EFS1,15003000102,1954,1,1417500,4725,21.274647,-157.704478,MERBL,EDU1,Koko Head Elementary - Bldg A,189 LUNALILO HOME RD,HONOLULU,96825,HI,NULL,NULL,0,0,0,NULL,0
2760,HI001864,EFS1,15003000102,1954,1,1584000,5280,21.274647,-157.704478,MERBL,EDU1,Koko Head Elementary - Bldg B,189 LUNALILO HOME RD,HONOLULU,96825,HI,NULL,NULL,0,0,0,NULL,0
2761,HI001865,EFS1,15003000102,1954,1,1584000,5280,21.274647,-157.704478,MERBL,EDU1,Koko Head Elementary - Bldg C,189 LUNALILO HOME RD,HONOLULU,96825,HI,NULL,NULL,0,0,0,NULL,0
2762,HI001866,EFS1,15003000102,1955,1,1417500,4725,21.274647,-157.704478,MERBL,EDU1,Koko Head Elementary - Bldg D,189 LUNALILO HOME RD,HONOLULU,96825,HI,NULL,NULL,0,0,0,NULL,0
2763,HI001867,EFS1,15003000102,1955,1,1584000,5280,21.274647,-157.704478,MERBL,EDU1,Koko Head Elementary - Bldg E,189 LUNALILO HOME RD,HONOLULU,96825,HI,NULL,NULL,0,0,0,NULL,0
2764,HI001868,EFS1,15003008703,1985,2,3822000,12740,21.380558,-158.012875,MERBL,EDU1,Waipahu Intermediate - Bldg J,94-427 FARRINGTON HWY,WAIPAHU,96797,HI,NULL,NULL,0,0,0,NULL,0
2765,HI001869,EFS1,15003008703,1975,1,2668800,8896,21.380558,-158.012875,MERBL,EDU1,Waipahu Intermediate - Bldg L,94-427 FARRINGTON HWY,WAIPAHU,96797,HI,NULL,NULL,0,0,0,NULL,0
2766,HI001870,EFS1,15003008703,1980,2,4121400,13738,21.380558,-158.012875,MERBL,EDU1,Waipahu Intermediate - Bldg M,94-427 FARRINGTON HWY,WAIPAHU,96797,HI,NULL,NULL,0,0,0,NULL,0
2767,HI001871,EFS1,15003008703,1957,1,1732200,5774,21.380558,-158.012875,MERBL,EDU1,Waipahu Intermediate - Bldg S,94-427 FARRINGTON HWY,WAIPAHU,96797,HI,NULL,NULL,0,0,0,NULL,0
2768,HI001872,EFS1,15003008703,1962,2,3846000,12820,21.380558,-158.012875,MERBL,EDU1,Waipahu Intermediate - Bldg Y,94-427 FARRINGTON HWY,WAIPAHU,96797,HI,NULL,NULL,0,0,0,NULL,0
2769,HI001873,EFS1,15003002500,1952,2,3788400,12628,21.29564,-157.835223,MERBL,EDU1,Washington Middle - Bldg A,1710 WAIOLA ST,HONOLULU,96826,HI,NULL,NULL,0,0,0,NULL,0
2770,HI001874,EFS1,15003002500,1952,2,3532800,11776,21.29564,-157.835223,MERBL,EDU1,Washington Middle - Bldg B,1710 WAIOLA ST,HONOLULU,96826,HI,NULL,NULL,0,0,0,NULL,0
2771,HI001875,EFS1,15003002500,1939,2,5374800,17916,21.29564,-157.835223,MERBL,EDU1,Washington Middle - Bldg F,1710 WAIOLA ST,HONOLULU,96826,HI,NULL,NULL,0,0,0,NULL,0
2772,HI001876,EFS1,15003002500,1963,1,1432800,4776,21.29564,-157.835223,MERBL,EDU1,Washington Middle - Bldg G,1710 WAIOLA ST,HONOLULU,96826,HI,NULL,NULL,0,0,0,NULL,0
2773,HI001877,EFS1,15003002500,1967,2,4196400,13988,21.29564,-157.835223,MERBL,EDU1,Washington Middle - Bldg H,1710 WAIOLA ST,HONOLULU,96826,HI,NULL,NULL,0,0,0,NULL,0
2774,HI001878,EFS1,15003002500,1966,1,156800,896,21.29564,-157.835223,WSF1,EDU1,Washington Middle - Bldg P2,1710 WAIOLA ST,HONOLULU,96826,HI,NULL,NULL,0,0,0,NULL,0
2775,HI001879,EFS1,15003002500,1966,1,156800,896,21.29564,-157.835223,WSF1,EDU1,Washington Middle - Bldg P3,1710 WAIOLA ST,HONOLULU,96826,HI,NULL,NULL,0,0,0,NULL,0
2776,HI001880,EFS1,15003002500,1966,1,156800,896,21.29564,-157.835223,WSF1,EDU1,Washington Middle - Bldg P4,1710 WAIOLA ST,HONOLULU,96826,HI,NULL,NULL,0,0,0,NULL,0
2777,HI001881,EFS1,15003007503,1967,2,3440700,11469,21.381247,-157.920317,MERBL,EDU1,Webling Elementary - Bldg A,99-600 KULAWEA ST,AIEA,96701,HI,NULL,NULL,0,0,0,NULL,0
2778,HI001882,EFS1,15003007503,1967,2,3361800,11206,21.381247,-157.920317,MERBL,EDU1,Webling Elementary - Bldg B,99-600 KULAWEA ST,AIEA,96701,HI,NULL,NULL,0,0,0,NULL,0
2779,HI001883,EFS1,15003007503,1970,1,1954500,6515,21.381247,-157.920317,MERBL,EDU1,Webling Elementary - Bldg C,99-600 KULAWEA ST,AIEA,96701,HI,NULL,NULL,0,0,0,NULL,0
2780,HI001884,EFS1,15003007503,1968,1,977900,5588,21.381247,-157.920317,WSF1,EDU1,Webling Elementary - Bldg D,99-600 KULAWEA ST,AIEA,96701,HI,NULL,NULL,0,0,0,NULL,0
2781,HI001885,EFS1,15003009000,1966,2,3608100,12027,21.487798,-158.03806,MERBL,EDU1,Wheeler Elementary - Bldg A,1 WILIKINA DR,WAHIAWA,96786,HI,NULL,NULL,0,0,0,NULL,0
2782,HI001886,EFS1,15003009000,1971,2,4722000,15740,21.487798,-158.03806,MERBL,EDU1,Wheeler Elementary - Bldg B,1 WILIKINA DR,WAHIAWA,96786,HI,NULL,NULL,0,0,0,NULL,0
2783,HI001887,EFS1,15003009000,1988,2,2593800,8646,21.487798,-158.03806,MERBL,EDU1,Wheeler Elementary - Bldg C,1 WILIKINA DR,WAHIAWA,96786,HI,NULL,NULL,0,0,0,NULL,0
2784,HI001888,EFS1,15003009000,1991,1,2412300,8041,21.487798,-158.03806,MERBL,EDU1,Wheeler Elementary - Bldg G,1 WILIKINA DR,WAHIAWA,96786,HI,NULL,NULL,0,0,0,NULL,0
2785,HI001889,EFS1,15003009000,1970,2,2671900,15268,21.486605,-158.038808,WSF2,EDU1,Wheeler Middle - Bldg A,1 WILIKINA DR,WAHIAWA,96786,HI,NULL,NULL,0,0,0,NULL,0
2786,HI001890,EFS1,15003009000,1970,1,1511700,5039,21.486605,-158.038808,MERBL,EDU1,Wheeler Middle - Bldg B,1 WILIKINA DR,WAHIAWA,96786,HI,NULL,NULL,0,0,0,NULL,0
2787,HI001891,EFS1,15003009000,1969,2,3827400,12758,21.486605,-158.038808,MERBL,EDU1,Wheeler Middle - Bldg C,1 WILIKINA DR,WAHIAWA,96786,HI,NULL,NULL,0,0,0,NULL,0
2788,HI001892,EFS1,15003009000,1970,2,5301600,17672,21.486605,-158.038808,MERBL,EDU1,Wheeler Middle - Bldg D,1 WILIKINA DR,WAHIAWA,96786,HI,NULL,NULL,0,0,0,NULL,0
2789,HI001893,EFS1,15003009000,1969,2,7369500,24565,21.486605,-158.038808,MERBL,EDU1,Wheeler Middle - Bldg E,1 WILIKINA DR,WAHIAWA,96786,HI,NULL,NULL,0,0,0,NULL,0
2790,HI001894,EFS1,15003009000,1970,2,2318700,7729,21.486605,-158.038808,MERBL,EDU1,Wheeler Middle - Bldg F,1 WILIKINA DR,WAHIAWA,96786,HI,NULL,NULL,0,0,0,NULL,0
2791,HI001895,EFS1,15003009000,1970,1,1654625,9455,21.486605,-158.038808,WSF1,EDU1,Wheeler Middle - Bldg G,1 WILIKINA DR,WAHIAWA,96786,HI,NULL,NULL,0,0,0,NULL,0
2792,HI001896,EFS1,15003009000,1969,1,3380100,11267,21.486605,-158.038808,MERBL,EDU1,Wheeler Middle - Bldg H,1 WILIKINA DR,WAHIAWA,96786,HI,NULL,NULL,0,0,0,NULL,0
2793,HI001897,EFS1,15003009000,1978,1,550200,1834,21.486605,-158.038808,MERBL,EDU1,Wheeler Middle - Bldg I,1 WILIKINA DR,WAHIAWA,96786,HI,NULL,NULL,0,0,0,NULL,0
2794,HI001898,EFS1,15003009000,1978,1,1128000,3760,21.486605,-158.038808,MERBL,EDU1,Wheeler Middle - Bldg J,1 WILIKINA DR,WAHIAWA,96786,HI,NULL,NULL,0,0,0,NULL,0
2795,HI001899,EFS1,15003000901,1961,1,1346800,7696,21.282411,-157.784717,WSF1,EDU1,Wilson Elementary - Bldg B,4901 KILAUEA AVE,HONOLULU,96816,HI,NULL,NULL,0,0,0,NULL,0
2796,HI001900,EFS1,15003000901,1965,2,2799900,9333,21.282411,-157.784717,MERBL,EDU1,Wilson Elementary - Bldg C,4901 KILAUEA AVE,HONOLULU,96816,HI,NULL,NULL,0,0,0,NULL,0
2797,HI001901,EFS1,15003000901,1967,2,2487600,8292,21.282411,-157.784717,MERBL,EDU1,Wilson Elementary - Bldg D,4901 KILAUEA AVE,HONOLULU,96816,HI,NULL,NULL,0,0,0,NULL,0
2798,HI001902,EFS1,15003000901,1970,2,2547300,8491,21.282411,-157.784717,MERBL,EDU1,Wilson Elementary - Bldg F,4901 KILAUEA AVE,HONOLULU,96816,HI,NULL,NULL,0,0,0,NULL,0
2799,HI001903,EFS2,15003002701,1912,3,10946700,36489,21.299937,-157.818999,SERBL,EDU2,Hawaii Hall,2500 Campus Road,HONOLULU,96848,HI,NULL,NULL,0,0,0,NULL,0
2800,HI001904,EFS2,15003002900,1976,2,16620000,55400,21.307299,-157.811579,CERBL,EDU2,"Astronomy, Institute for",2680 Woodlawn Drive,HONOLULU,96848,HI,NULL,NULL,0,0,0,NULL,0
2801,HI001905,EFS2,15003002701,1973,7,43724610,126738,21.300572,-157.819132,CERBM,EDU2,Saunders Hall,2424 Maile Way,HONOLULU,96848,HI,NULL,NULL,0,0,0,NULL,0
2802,HI001906,EFS2,15003002701,1921,3,7347900,24493,21.299541,-157.820181,MMUH3,EDU2,Gartley Hall,2430 Campus Road,HONOLULU,96848,HI,NULL,NULL,0,0,0,NULL,0
2803,HI001907,EFS2,15003002701,1996,3,17400000,58000,21.299843,-157.82068,CERBL,EDU2,Architecture Building,2410 Campus Road,HONOLULU,96848,HI,NULL,NULL,0,0,0,NULL,0
2804,HI001908,EFS2,15003002701,1972,5,42900000,143000,21.301096,-157.820285,CERBM,EDU2,Shidler College of Business,2404 Maile Way,HONOLULU,96848,HI,NULL,NULL,0,0,0,NULL,0
2805,HI001909,EFS2,15003002701,1922,3,17184795,49811,21.300426,-157.820193,CERBL,EDU2,George Hall,2560 Campus Road,HONOLULU,96848,HI,NULL,NULL,0,0,0,NULL,0
2806,HI001910,EFS2,15003002701,1996,3,30900000,103000,21.300502,-157.818385,CERBL,EDU2,Queen Liliuokalani Center For SS,2600 Campus Road,HONOLULU,96848,HI,NULL,NULL,0,0,0,NULL,0
2807,HI001911,EFS2,15003002701,1929,3,5630400,18768,21.29955,-157.819512,MMUH3,EDU2,Dean Hall,2450 Campus Road,HONOLULU,96848,HI,NULL,NULL,0,0,0,NULL,0
2808,HI001912,EFS2,15003002702,1930,2,7377300,24591,21.298563,-157.821769,MERBL,EDU2,Wist Hall,1776 University Ave,HONOLULU,96848,HI,NULL,NULL,0,0,0,NULL,0
2809,HI001913,EFS2,15003002701,1976,4,26161800,87206,21.297511,-157.817061,CERBM,EDU2,Sakamaki Hall,2530 Dole street,HONOLULU,96848,HI,NULL,NULL,0,0,0,NULL,0
2810,HI001914,EFS2,15003002701,1974,3,47238600,157462,21.299247,-157.817487,CERBL,EDU2,Art Building,2535 The Mall,HONOLULU,96848,HI,NULL,NULL,0,0,0,NULL,0
2811,HI001915,EFS2,15003002701,1939,2,10458300,34861,21.298789,-157.819685,CERBL,EDU2,Hemenway Hall,2445 Campus Road,HONOLULU,96848,HI,NULL,NULL,0,0,0,NULL,0
2812,HI001916,EFS2,15003002701,1938,3,8508390,24662,21.300262,-157.819559,CERBL,EDU2,Crawford Hall,2550 Campus Road,HONOLULU,96848,HI,NULL,NULL,0,0,0,NULL,0
2813,HI001917,EFS2,15003002701,1939,3,5781900,19273,21.299345,-157.818157,MMUH3,EDU2,Miller Hall,2515 Campus Road,HONOLULU,96848,HI,NULL,NULL,0,0,0,NULL,0
2814,HI001918,EFS2,15003002702,1941,1,5127120,28484,21.297455,-157.822807,WMUH1,EDU2,Castle Memorial Hall,1776 University Ave,HONOLULU,96848,HI,NULL,NULL,0,0,0,NULL,0
2815,HI001919,EFS2,15003002701,1980,2,4970700,16569,21.301126,-157.814175,CERBL,EDU2,"Korean Studies, Center for",1881 East West Road,HONOLULU,96848,HI,NULL,NULL,0,0,0,NULL,0
2816,HI001920,EFS2,15003002702,1973,2,5820000,19400,21.29713,-157.82195,CERBL,EDU2,KHET TV (ETV Prod Building),2350 Dole Street,HONOLULU,96848,HI,NULL,NULL,0,0,0,NULL,0
2817,HI001921,EFS2,15003002702,1979,2,6187500,20625,21.298907,-157.82176,MERBL,EDU2,Everly Hall,1776 University Ave,HONOLULU,96848,HI,NULL,NULL,0,0,0,NULL,0
2818,HI001922,EFS2,15003002701,1978,7,25247100,73180,21.301635,-157.816688,CERBM,EDU2,Gilmore Hall,3050 Maile Way,HONOLULU,96848,HI,NULL,NULL,0,0,0,NULL,0
2819,HI001923,EFS2,15003002701,1985,3,24521000,49042,21.302269,-157.81507,CERBL,EDU2,Sherman Laboratory,1910 East West Road,HONOLULU,96848,HI,NULL,NULL,0,0,0,NULL,0
2820,HI001924,EFS2,15003002701,1973,2,13491000,44970,21.295717,-157.820645,CERBL,EDU2,Music Building Complex,2411 Dole Street,HONOLULU,96848,HI,NULL,NULL,0,0,0,NULL,0
2821,HI001925,EFS2,15003002701,1984,6,54912500,95500,21.297942,-157.8157,CERBM,EDU2,Marine Sciences Building,1000 Pope Road,HONOLULU,96848,HI,NULL,NULL,0,0,0,NULL,0
2822,HI001926,EFS2,15003002701,1949,2,8421000,28070,21.297221,-157.81998,MERBL,EDU2,Bachman Hall,2444 Dole Street,HONOLULU,96848,HI,NULL,NULL,0,0,0,NULL,0
2823,HI001927,EFS2,15003002701,1982,3,35760000,119200,21.29475,-157.818161,CERBL,EDU2,Physical Ed/Athletic Complex (HPER),1337 Lower Campus Road,HONOLULU,96848,HI,NULL,NULL,0,0,0,NULL,0
2824,HI001928,EFS2,15003002701,1998,2,1635904,4500,21.291984,-157.816112,MSF2,EDU2,HECO Substation,1311 Lower Campus Road,HONOLULU,96848,HI,NULL,NULL,0,0,0,NULL,0
2825,HI001929,EFS2,15003002701,1994,1,57000000,190000,21.294294,-157.818893,CERBL,EDU2,Stan Sheriff Center,1337 Lower Campus Road,HONOLULU,96848,HI,NULL,NULL,0,0,0,NULL,0
2826,HI001930,EFS2,15003002701,1952,3,22471800,74906,21.299375,-157.816696,CERBL,EDU2,Bilger Hall,2445 The Mall,HONOLULU,96848,HI,NULL,NULL,0,0,0,NULL,0
2827,HI001931,EFS2,15003002701,1972,4,36665000,73330,21.298931,-157.81672,CERBM,EDU2,Bilger Addition,2445 The Mall,HONOLULU,96848,HI,NULL,NULL,0,0,0,NULL,0
2828,HI001932,EFS2,15003002701,1997,2,6600000,22000,21.295128,-157.812125,CERBL,EDU2,"Hawaiian Studies, Center for",2645 Dole Street,HONOLULU,96848,HI,NULL,NULL,0,0,0,NULL,0
2829,HI001933,EFS2,15003002701,1956,3,37106055,117797,21.298421,-157.820442,CERBL,EDU2,Sinclair Library,2425 Campus Road,HONOLULU,96848,HI,NULL,NULL,0,0,0,NULL,0
2830,HI001934,EFS2,15003002701,1985,2,15957000,53190,21.296466,-157.818734,CERBL,EDU2,Law School,2515 Dole Street,HONOLULU,96848,HI,NULL,NULL,0,0,0,NULL,0
2831,HI001935,EFS2,15003002701,1982,1,10472175,33245,21.296349,-157.817328,CERBL,EDU2,Law Library,2525 Dole Street,HONOLULU,96848,HI,NULL,NULL,0,0,0,NULL,0
2832,HI001936,EFS2,15003002702,1957,2,8172300,27241,21.297955,-157.821785,CERBL,EDU1,University High School #3,1776 University Ave,HONOLULU,96848,HI,NULL,NULL,0,0,0,NULL,0
2833,HI001937,EFS2,15003002701,1959,3,24571500,49143,21.299723,-157.815777,CERBL,EDU2,Keller Hall,2565 The Mall,HONOLULU,96848,HI,NULL,NULL,0,0,0,NULL,0
2834,HI001938,EFS2,15003002701,1960,3,12861900,42873,21.299176,-157.816008,CERBL,EDU2,Physical Science Building,2565 The Mall,HONOLULU,96848,HI,NULL,NULL,0,0,0,NULL,0
2835,HI001939,EFS2,15003002701,1972,4,33083500,66167,21.298392,-157.815763,CERBM,EDU2,Watanabe Hall,2505 Correa Road,HONOLULU,96848,HI,NULL,NULL,0,0,0,NULL,0
2836,HI001940,EFS2,15003002701,1995,9,112500000,225000,21.297517,-157.816302,CERBH,EDU2,Pacific Ocean Sci & Tech (POST),1686 East West Road,HONOLULU,96848,HI,NULL,NULL,0,0,0,NULL,0
2837,HI001941,EFS2,15003002701,1972,4,44273000,88546,21.296965,-157.816042,CERBM,EDU2,Holmes Hall,1540 Dole Street,HONOLULU,96848,HI,NULL,NULL,0,0,0,NULL,0
2838,HI001942,EFS2,15003002701,1963,4,13044000,43480,21.300508,-157.816691,CERBM,EDU2,Edmundson Hall,2538 The Mall,HONOLULU,96848,HI,NULL,NULL,0,0,0,NULL,0
2839,HI001943,EFS2,15003002701,1963,4,38012400,126708,21.298199,-157.816629,CERBM,EDU2,Hawaii Institute of Geophysics ,2525 Correa Road,HONOLULU,96848,HI,NULL,NULL,0,0,0,NULL,0
2840,HI001944,EFS2,15003002701,1961,4,17867700,59559,21.300611,-157.81773,CERBM,EDU2,Webster Hall,2528 The Mall,HONOLULU,96848,HI,NULL,NULL,0,0,0,NULL,0
2841,HI001945,EFS2,15003002701,1961,4,9903600,33012,21.300826,-157.817378,CERBM,EDU2,Spalding Hall,2540 Maile Way,HONOLULU,96848,HI,NULL,NULL,0,0,0,NULL,0
2842,HI001946,EFS2,15003002701,1973,1,17904000,35808,21.302633,-157.815154,CERBL,EDU2,Pope Laboratory,3190 Maile Way,HONOLULU,96848,HI,NULL,NULL,0,0,0,NULL,0
2843,HI001947,EFS2,15003002701,1972,8,92296000,184592,21.303433,-157.81466,CERBH,EDU2,Biomedical Sciences Building,1960 East West Road,HONOLULU,96848,HI,NULL,NULL,0,0,0,NULL,0
2844,HI001948,EFS2,15003002701,1969,5,33282000,110940,21.30098,-157.815065,CERBM,EDU2,Moore Hall,1890 East West Road,HONOLULU,96848,HI,NULL,NULL,0,0,0,NULL,0
2845,HI001949,EFS2,15003002701,1962,5,30015000,60030,21.300289,-157.817159,CERBM,EDU2,Snyder Hall,2538 The Mall,HONOLULU,96848,HI,NULL,NULL,0,0,0,NULL,0
2846,HI001950,EFS2,15003002701,1963,2,14190600,47302,21.29928,-157.814949,MERBL,EDU2,Kennedy Theatre,1770 East West Road,HONOLULU,96848,HI,NULL,NULL,0,0,0,NULL,0
2847,HI001951,EFS2,15003003000,1963,2,3525900,10220,21.303783,-157.821057,WMUH2,EDU2,College Hill,2334 Kamehameha Ave,HONOLULU,96848,HI,NULL,NULL,0,0,0,NULL,0
2848,HI001952,EFS2,15003002701,1962,1,12168000,24336,21.302334,-157.814108,CERBL,EDU2,Auxiliary Services,1951 East West Road,HONOLULU,96848,HI,NULL,NULL,0,0,0,NULL,0
2849,HI001953,EFS2,15003002701,1963,1,3237600,10792,21.298364,-157.815259,MERBL,EDU2,University Health Services,1710 East West Road,HONOLULU,96848,HI,NULL,NULL,0,0,0,NULL,0
2850,HI001954,EFS2,15003002701,1964,4,32857500,87620,21.29839,-157.817598,CERBM,EDU2,Kuykendall Hall,1773 Donagho Road,HONOLULU,96848,HI,NULL,NULL,0,0,0,NULL,0
2851,HI001955,EFS2,15003002701,1963,1,752850,4302,21.303555,-157.813328,MMUH1,EDU2,Physical Plant Building,2002 East West Road,HONOLULU,96848,HI,NULL,NULL,0,0,0,NULL,0
2852,HI001956,EFS2,15003002701,1963,2,3180625,25445,21.303699,-157.812803,SPMBS,EDU2,Maintenance Warehouse,2002 East West Road,HONOLULU,96848,HI,NULL,NULL,0,0,0,NULL,0
2853,HI001957,EFS2,15003002701,1969,7,62898000,125796,21.301661,-157.815319,CERBM,EDU2,St. John Laboratory Complex,3190 Maile Way,HONOLULU,96848,HI,NULL,NULL,0,0,0,NULL,0
2854,HI001958,EFS2,15003002701,1968,4,144574560,401596,21.300728,-157.816166,CERBM,EDU2,Hamilton Library,2540 The Mall,HONOLULU,96848,HI,NULL,NULL,0,0,0,NULL,0
2855,HI001959,EFS2,15003002701,1995,4,55393000,110786,21.302777,-157.813818,CERBM,EDU2,Agricultural Science Facility,1955 East West Road,HONOLULU,96848,HI,NULL,NULL,0,0,0,NULL,0
2856,HI001960,EFS2,15003002701,1990,2,47043851.4,242970,21.2906,-157.8074,CERBM,EDU2,Chaminade University,3140 Waialae Ave,Honolulu,96816,HI,NULL,NULL,1157,0,0,NULL,0
2857,HI001961,EFS2,15003011000,1990,3,20330100,105000,21.3801,-157.7839,CERBM,EDU2,Hawaii Pacific Uni at HI Loa,15-045 Kamehameha Hwy,Kaneohe,96744,HI,NULL,NULL,500,0,0,NULL,0
2858,HI001962,EFS2,15003004000,1990,20,144750312,747600,21.3103,-157.8607,CERBH,EDU2,Hawaii Pacific University,1164 Bishop St,Honolulu,96813,HI,NULL,NULL,3560,0,0,NULL,0
2859,HI001963,EFS2,15003008701,1990,2,32528160,168000,21.3927,-157.9838,CERBM,EDU2,Leeward Comm College,96-045 Ala Ike,Pearl City,9672,HI,NULL,NULL,8000,0,0,NULL,0
2860,HI001964,EFS2,15003008606,1990,3,119703628.8,618240,21.3552,-158.0561,CERBM,EDU2,UH - West Oahu 2011,91-1001 Farrington Hwy,Kapolei,96707,HI,NULL,NULL,2944,0,0,NULL,0
2861,HI001965,EFS1,15003008302,1974,1,4312825,15683,21.315775,-158.008347,CECBL,EDU1,Campbell High School - Bldg I,91-950 NORTH RD EWA BCH,EWA BEACH,96716,HI,NULL,NULL,0,0,0,NULL,0
2862,HI001966,EFS1,15003011301,1960,1,962500,3500,21.34638889,-157.7152778,MECBL,EDU1,Waimanalo Elem & Interm - Bldg B,41-1330 Kalanianaole Hwy,Waimanalo,96795,HI,NULL,NULL,0,0,0,NULL,0
2863,HI001967,EFS1,15003011301,1960,1,1375000,5000,21.34638889,-157.7152778,MECBL,EDU1,Waimanalo Elem & Interm - Bldg E,41-1330 Kalanianaole Hwy,Waimanalo,96795,HI,NULL,NULL,0,0,0,NULL,0
2864,HI001968,EFS1,15003011301,1960,1,962500,3500,21.34638889,-157.7152778,MECBL,EDU1,Waimanalo Elem & Interm - Bldg K,41-1330 Kalanianaole Hwy,Waimanalo,96795,HI,NULL,NULL,0,0,0,NULL,0
2865,HI001969,EFS1,15003011301,1960,1,1375000,5000,21.34638889,-157.7152778,MECBL,EDU1,Waimanalo Elem & Interm - Bldg L,41-1330 Kalanianaole Hwy,Waimanalo,96795,HI,NULL,NULL,0,0,0,NULL,0
2866,HI001970,EFS1,15003011301,1960,1,1375000,5000,21.34638889,-157.7152778,MECBL,EDU1,Waimanalo Elem & Interm - Bldg M,41-1330 Kalanianaole Hwy,Waimanalo,96795,HI,NULL,NULL,0,0,0,NULL,0
2867,HI001971,EFS1,15003011103,1950,1,1650000,6000,21.38555556,-157.7480556,CECBL,EDU1,Kailua High School - Caf+¬,451 Ulumanu Drive,Kailua,96736,HI,NULL,NULL,0,0,0,NULL,0
2868,HI001972,EFS1,15003011103,1950,1,6875000,25000,21.38555556,-157.7480556,SECBL,EDU1,Kailua High School - Gym,451 Ulumanu Drive,Kailua,96738,HI,NULL,NULL,0,0,0,NULL,0
2869,HI001973,EFS1,15003011103,1950,2,2200000,8000,21.38555556,-157.7480556,CECBL,EDU1,Kailua High School - Library,451 Ulumanu Drive,Kailua,96739,HI,NULL,NULL,0,0,0,NULL,0
2870,HI001974,EFS2,15003010202,1975,1,24000000,60000,21.64166667,-157.9241667,CECBL,EDU2,Brigham Young Uni - CAC,55-220 Kulanui Street,Laie,96762,HI,NULL,NULL,0,0,0,NULL,0
2871,HI001975,EFS2,15003010202,1955,1,12000000,30000,21.64166667,-157.9241667,CECBL,EDU2,Brigham Young Uni - Old Gym,55-220 Kulanui Street,Laie,96763,HI,NULL,NULL,0,0,0,NULL,0
2872,HI001976,EFS1,15003003700,1962,2,6765550,24602,21.29728889,-157.8476389,CECBL,EDU1,McKinley High School for Adults,634 Pensecola Street,Honolulu,96814,HI,NULL,NULL,0,0,0,NULL,0
